{"type":"FeatureCollection","features":[{"type":"Feature","properties":{"shapeName":"Arunāchal Pradesh","shapeISO":"IN-AR","shapeID":"1811400B16134215155042","shapeGroup":"IND","shapeType":"ADM1","displayName":"Arunachal Pradesh","coverage":"context"},"geometry":{"type":"Polygon","coordinates":[[[95.23391968067268,26.68245856965871],[95.24923953964662,26.683894959001634],[95.25734240728977,26.676131544336577],[95.25813425244978,26.672171639222796],[95.25646835999304,26.661867469680015],[95.25957412608606,26.655351560572836],[95.27427256019084,26.65882137078127],[95.28176061456531,26.655938787673147],[95.28430523903297,26.656359853646652],[95.29332457062391,26.65218513334951],[95.29564960012374,26.652887910874284],[95.30339233406782,26.650843801774958],[95.31372733552891,26.662730411246766],[95.31777812391098,26.664782133738722],[95.32621363321223,26.66454823234359],[95.32699321097874,26.66837706476523],[95.33457278212111,26.671884699951516],[95.33513305866887,26.673635626253905],[95.34447385238423,26.675272382930043],[95.34833615086349,26.674755670410132],[95.3483592968551,26.67261785317584],[95.36022709278718,26.670932265040904],[95.36660119309023,26.675252622781294],[95.37403263922877,26.684014949190683],[95.3944585698883,26.68485040388804],[95.40104893600277,26.68881612341255],[95.40326979506561,26.69442845562892],[95.40858882047418,26.695060037503143],[95.41207420472482,26.693338757530416],[95.41796710178468,26.693468220203915],[95.43058529191462,26.700023479359317],[95.43264527528652,26.702541256285194],[95.43072333153277,26.706414704469005],[95.4322458492769,26.715231577996303],[95.43578276089225,26.719084086917164],[95.44544888667427,26.724880463408713],[95.45322633241922,26.732898408344493],[95.45929117690592,26.742859774948798],[95.46726434129675,26.743709122408557],[95.47387578548103,26.74040590851257],[95.48236090065063,26.746451980068855],[95.48177420734528,26.750321723829984],[95.48455601579406,26.758392253133582],[95.48923405012829,26.76353071036763],[95.49195317054324,26.772954940274673],[95.49464277591125,26.77508283584279],[95.49822751922218,26.783647200738322],[95.50172811823879,26.786714065335765],[95.50472357570654,26.79248440944882],[95.50397463408447,26.795243623672174],[95.50727345352195,26.80499379341931],[95.50647870590527,26.808094044630938],[95.52237557344742,26.813535329267516],[95.52464955797785,26.82266248099937],[95.53135169158162,26.82717457822757],[95.5361285819196,26.826985595095923],[95.53833949932721,26.83125071344311],[95.54317248047155,26.83543677642205],[95.55214780180009,26.83158919357952],[95.5565581345864,26.832632003114764],[95.55644517503268,26.829644720409377],[95.56499166759403,26.81909572420722],[95.56962024787525,26.816337035786614],[95.57288510470677,26.8172131228277],[95.5772488418793,26.816273592609274],[95.57953735576115,26.817760690224443],[95.58030359174903,26.81634572870571],[95.58577074126315,26.81714362087525],[95.59414651798791,26.8151072091008],[95.60068627751082,26.811130892498618],[95.60800371755833,26.813191943929745],[95.61199845735486,26.824300068305558],[95.62067493883276,26.831971267584766],[95.62660267166105,26.84279995171218],[95.6291110553952,26.857895285348416],[95.62625167293008,26.861924011377514],[95.63421337032631,26.86838208189386],[95.63153701600707,26.873745691062606],[95.63818586064988,26.8765356802945],[95.64393916400614,26.87607151366306],[95.64606252801292,26.884499135353707],[95.65128738482687,26.887636646719535],[95.65281886775753,26.89135919421557],[95.65933976715104,26.894498934581367],[95.66722368841,26.902908708241988],[95.67513276159859,26.901130920072596],[95.67981747580528,26.895443446769566],[95.6864385463361,26.8952783813875],[95.69448443743404,26.892065203282293],[95.70599233592397,26.882334876158783],[95.70579864747063,26.880555342786266],[95.71660055908046,26.87889845192691],[95.72305902735833,26.881477709698192],[95.73452403039516,26.893951131134543],[95.74052483039198,26.893835851613318],[95.74286897604107,26.896177167469297],[95.74496625836184,26.896256382806357],[95.74667529061348,26.904266856030443],[95.75057596601997,26.90901841303934],[95.74648060503016,26.915480782867842],[95.74735567371135,26.9231163306318],[95.74949896953763,26.924013515877874],[95.7479351526466,26.926134237157104],[95.7552620995648,26.929347300233655],[95.75590170633531,26.934421890245172],[95.75982421080319,26.936698263095813],[95.75894077341681,26.94617366377794],[95.7552356289083,26.953950146137185],[95.75908000959089,26.95548297194611],[95.76067690514559,26.95901178399436],[95.760328360612,26.963835873646502],[95.76517060967511,26.968762919114088],[95.7684093749392,26.976977822661798],[95.78118986997977,26.97769032404504],[95.7834292945246,26.990109706018075],[95.79609266632009,26.99813008997771],[95.80198835624216,27.006523778789134],[95.80077149027345,27.012583365341953],[95.8022563344712,27.015073312798286],[95.81247356140868,27.014471449882215],[95.81360342913536,27.01220149029763],[95.8231336748492,27.00952593084775],[95.82635249032748,27.00991633774166],[95.83097566095407,27.007488200847018],[95.84262872360064,27.014245767764212],[95.85090611234394,27.0146392626293],[95.85787396221885,27.01185077603585],[95.86288646179125,27.013730558494235],[95.87021788950604,27.01311911186132],[95.8754765400427,27.014937482229712],[95.87580965870626,27.01984937053635],[95.87901471109609,27.022749883948652],[95.88579145247911,27.026193055812204],[95.88922212304074,27.02394268830043],[95.89398360457668,27.02580451956919],[95.90077326912342,27.032390876868934],[95.90402032583759,27.03906710698541],[95.91014240288938,27.036577668957133],[95.91995879885215,27.041770245065987],[95.92194142739658,27.041557309121377],[95.92595098759865,27.04490737134173],[95.93412643732012,27.046240901702774],[95.9383352070213,27.049499084578812],[95.94050423868212,27.04908232303911],[95.9423815972517,27.051686333033587],[95.94573464528793,27.051388223016716],[95.95294200039064,27.065834684846916],[95.95575509087256,27.0779770735582],[95.96459081849753,27.086738641740602],[95.96346529232858,27.092791455714977],[95.9671489671018,27.095458354961362],[95.96740113677845,27.09846993346582],[95.97883883282724,27.109169528217606],[95.98467624903684,27.112355334655053],[95.98729391013036,27.118972791111997],[95.99192139446691,27.122942718767824],[95.998830622083,27.13539071922665],[96.00100973463799,27.135422624026983],[96.01014823403958,27.142319097085082],[96.00965573448168,27.14577106655013],[96.01572867638237,27.15294080846367],[96.01515125908067,27.156023990710864],[96.01859301934448,27.161745284412635],[96.0179386595421,27.169365390068222],[96.02263678649426,27.17995233521782],[96.02552873288843,27.18074226808358],[96.03172965237772,27.186029723024923],[96.0358245642099,27.185961589753305],[96.05401639463932,27.195904314629605],[96.05742240554808,27.201625650099118],[96.06322498868423,27.20372672042632],[96.06404632104342,27.20582582731645],[96.071570173282,27.204964845764167],[96.0771679216687,27.20820590627192],[96.07792846593098,27.210497422585814],[96.08300317563342,27.21356121243409],[96.08893272844843,27.220143109229195],[96.08991019968212,27.223237064483467],[96.09904764805485,27.224063369368917],[96.11188354848719,27.231709890242726],[96.12031886824391,27.231475970776778],[96.12442491379574,27.235599947705655],[96.13011923377044,27.236323105785146],[96.13628942997872,27.24127010761887],[96.14808481002083,27.24260489733852],[96.15510488255647,27.248412099785416],[96.15725717231537,27.247430818303986],[96.18530990843325,27.24916956335148],[96.19390941237616,27.261496216104437],[96.20502908954303,27.260191107365603],[96.2068369023399,27.261713199450956],[96.20947635746053,27.261361372983174],[96.21113009930475,27.26521786738389],[96.21462984492182,27.265799477829933],[96.22432943294821,27.272635966630737],[96.22858935182332,27.278800821749183],[96.23190521230174,27.276253917901744],[96.24539498924288,27.276603978223022],[96.24801688768959,27.27277345492894],[96.25553350399852,27.27474937101741],[96.25918695854725,27.272245083035585],[96.26142864864322,27.273166133979704],[96.27144964669172,27.271395005538825],[96.27535906270595,27.279613362277892],[96.27419672806823,27.28338799727095],[96.28379616202525,27.2848755656653],[96.28505149744771,27.286707972467433],[96.29261332416826,27.289089116793534],[96.29450699794,27.291350604938092],[96.30744643819199,27.294218567497573],[96.31069495916006,27.29220023198162],[96.32315767516887,27.29050373839456],[96.32573355651684,27.28884423147347],[96.33012088075378,27.28982967636941],[96.33082814054663,27.28722054728706],[96.34019911675723,27.284867049482322],[96.3459140925936,27.285393759839383],[96.34896744468475,27.288634106147654],[96.34921111719714,27.292955327978238],[96.35223924010354,27.29488863854814],[96.35785801984773,27.29014505121751],[96.36694105456874,27.28676789291094],[96.36733391209698,27.289091942906097],[96.36920299358951,27.290043300908753],[96.37204932982175,27.28892168706037],[96.37479106083244,27.285038565776347],[96.38209913773973,27.286653655641224],[96.3862373591484,27.284741539695208],[96.40138434183744,27.291103814219206],[96.4025527913073,27.293243594622908],[96.40532014137153,27.288870289243857],[96.40770666414582,27.287753203745634],[96.42139181388144,27.301438631426635],[96.43579037417469,27.302363589572078],[96.44064730799776,27.30633496687398],[96.44421013780568,27.301964060229334],[96.44908473699878,27.302788366558136],[96.45091257504,27.301197792530456],[96.45513679037417,27.302568974511047],[96.4577025539971,27.306639754466065],[96.46249859551862,27.306085327110644],[96.47002428840518,27.300824810469777],[96.47247315246356,27.301347525737523],[96.48436609583374,27.29834201144804],[96.48817980982915,27.296156834184558],[96.4893922183574,27.296493063787825],[96.48877036499186,27.30126838493334],[96.49021535363539,27.302520759210065],[96.50123203356503,27.298846509987374],[96.50758151374109,27.29900870250264],[96.50896666650185,27.296860114007295],[96.51168194841563,27.29642233104345],[96.51200221667905,27.292309747108735],[96.51577473034224,27.289416331449775],[96.51763122643766,27.285535887603068],[96.51915392833642,27.28674389759341],[96.52362776303013,27.286293487053012],[96.5315415469841,27.29634686522406],[96.5359426055634,27.299235368981616],[96.54125094461335,27.300203816972957],[96.5430606061431,27.302433538649577],[96.5424721862758,27.308928950423454],[96.5511058253012,27.31359619561046],[96.55089638758429,27.31829674424417],[96.55316718309547,27.318347460403874],[96.5549038565084,27.32032283933579],[96.55770224067076,27.318414759205112],[96.56434634849708,27.318586729680614],[96.56731529398583,27.32213136051877],[96.57038922198855,27.321883383625867],[96.57456764390447,27.323930114759932],[96.57988701785938,27.330739165962907],[96.58851886923736,27.335741852242535],[96.59615071244781,27.333571514127673],[96.59553233735905,27.340520244666738],[96.59115706581828,27.34796544508972],[96.5950454118475,27.349664483787503],[96.60051836537666,27.35488589352345],[96.59937411202898,27.35585355078493],[96.60299923461194,27.358886269226687],[96.60565245371936,27.36582888617952],[96.62568722107328,27.366439915651597],[96.64700426163007,27.359360944674435],[96.65679347367401,27.3620075471511],[96.66034639326772,27.364408391372955],[96.665054669386,27.361274159158455],[96.66881419790178,27.361858784617187],[96.67247848703111,27.35769696993847],[96.67446985259005,27.35822474830078],[96.67559844470902,27.361412745532768],[96.6976853522441,27.357702825309108],[96.70232065372025,27.360040870250415],[96.7009451407808,27.362603744928823],[96.70421722006722,27.372258741506986],[96.71154643972307,27.37003733024915],[96.72102305601443,27.363570470727712],[96.72956368078037,27.362022259602696],[96.7294687324481,27.359409775121435],[96.73979652492906,27.35773046897333],[96.74520644726799,27.358421851142353],[96.74647280052737,27.355642384318045],[96.74863672796077,27.355852815161306],[96.75131887910854,27.352642515108826],[96.75658563155076,27.35442553815463],[96.76186084522462,27.353819416305516],[96.76681921141967,27.357351769800285],[96.77436417766066,27.352256801907213],[96.7818568960881,27.350386033690334],[96.7892748746839,27.34580105794069],[96.79367438097442,27.34671979098557],[96.79673918658543,27.34581924592901],[96.80224546940826,27.338193689605532],[96.8050479301254,27.329293440973572],[96.8129109080618,27.322165886286374],[96.82215907648822,27.309132454643507],[96.83548493694113,27.30273764168982],[96.83821772971474,27.300091122987137],[96.8386776033598,27.29716026487004],[96.84807042120823,27.290384778069917],[96.8500757025692,27.27817169538818],[96.8468778268202,27.271643235754613],[96.85113379400636,27.269794832161097],[96.8565893022527,27.263365187864558],[96.86283016802606,27.259663078933478],[96.86904860017185,27.2586309664301],[96.88427232324068,27.260187525094867],[96.88419346283682,27.255863505216823],[96.88666954405167,27.253683687935727],[96.88789524764614,27.247764391343626],[96.88741903095111,27.245864378346663],[96.8824263787566,27.24306178719445],[96.8814864984243,27.239845005963332],[96.88265773716306,27.2366245071917],[96.88780979360811,27.2355239254115],[96.88519267150376,27.232329844700143],[96.88560906758741,27.226930691410946],[96.87666396378839,27.22066765058587],[96.86712586320571,27.217766207438988],[96.8601307377838,27.210652299038863],[96.85468092395807,27.21077993681681],[96.85820975253246,27.20403052699396],[96.85855877586813,27.19805326042641],[96.85637820444916,27.194845109327403],[96.85677954566694,27.19247377095719],[96.86518462992787,27.187900714402357],[96.87422769141536,27.18062829355062],[96.87854009346265,27.180330439778572],[96.90133518336035,27.168556627407987],[96.90900313884522,27.168523758641207],[96.91305393800705,27.16602714184647],[96.92213756920938,27.165387745911385],[96.92343480744658,27.1637625979293],[96.9275889676633,27.16370249217932],[96.93125580531311,27.16163002686492],[96.93895666518853,27.161897510320593],[96.94292995680932,27.163963679896614],[96.95303176011427,27.16222275632128],[96.95587975822977,27.164229492960857],[96.96397369122913,27.16129058919109],[96.96532199599525,27.15799658172666],[96.9841581771982,27.154366645617298],[96.99052334195909,27.146563450690337],[96.99287127310876,27.140227512195175],[97.00867032399795,27.14018871630053],[97.01988395236711,27.132950610179392],[97.02487042145749,27.132082580350627],[97.02716658359566,27.129473363333265],[97.03055997407301,27.13137115959295],[97.03621780627752,27.12416247179119],[97.03386361387032,27.118498036011456],[97.04151651538766,27.11579323228416],[97.04444914917599,27.112789860744712],[97.04448058122776,27.10839634132149],[97.04840201400552,27.10563074782174],[97.05208567979555,27.106333285082375],[97.05859819700915,27.100069656108737],[97.06197054894255,27.09918887587732],[97.06344080809333,27.091770747554158],[97.0661695557532,27.092285046749037],[97.0709046061585,27.089831114179546],[97.07313668877252,27.09214468308905],[97.07465423883313,27.098055628324314],[97.07659159857546,27.099202757026752],[97.07905267343348,27.09746405329993],[97.08166649063591,27.09854607473303],[97.08338778848443,27.09660344460443],[97.08801339085048,27.095324217140362],[97.09681444709874,27.096755719229172],[97.09798030313233,27.098700192426133],[97.09476863914205,27.104010166261812],[97.10042551553907,27.108965514584458],[97.10543246711627,27.104649539085653],[97.11914415039045,27.104328837960765],[97.12189454385542,27.098283958450814],[97.12500451586062,27.09576318302206],[97.13565879923495,27.094011817275078],[97.13821021137292,27.09148687254269],[97.1439351091016,27.09990770011631],[97.1440245408797,27.10373299388333],[97.1481367632474,27.10744706800928],[97.14779510879201,27.113370742540628],[97.14954961555996,27.117617526322803],[97.15582432266669,27.118679822137253],[97.1615910926674,27.123234326179475],[97.16084901776739,27.128917062175056],[97.16569664504412,27.13511552885369],[97.16281521253201,27.14314493432153],[97.15879345500502,27.146868245836494],[97.15101693362651,27.149341080551345],[97.14696447347971,27.165316782769484],[97.14040040105367,27.16395144681385],[97.13629591857045,27.165456641416405],[97.13232220204654,27.170618652245818],[97.12891106175748,27.171169408859864],[97.12455194462048,27.1747022381918],[97.12151286406423,27.183745937646705],[97.12187527229761,27.19037747860749],[97.11064373691161,27.19693097306565],[97.10728271183562,27.201531574366292],[97.10227769792449,27.20406970337456],[97.0940742872415,27.21233133684661],[97.09049570637339,27.213562665595187],[97.09250440223076,27.22562033253019],[97.09041356981372,27.227877726380484],[97.09026563615103,27.234641092550568],[97.08822169130023,27.23883707226451],[97.07375058486127,27.24719775048113],[97.07377665397082,27.251028341966396],[97.06826183535617,27.257391526784737],[97.05490456261442,27.265365850058277],[97.05471615266167,27.27518922671802],[97.0507365386979,27.275681508212056],[97.05044529679796,27.277929680261984],[97.04689322790882,27.28071434692593],[97.04054654688319,27.282211658701943],[97.0376664007586,27.286181619619654],[97.03488208511189,27.29511408805825],[97.02876261227614,27.30164164010039],[97.02988351032474,27.304757232022265],[97.02809067244361,27.308484204490522],[97.0242783634133,27.306238220237613],[97.01491659673101,27.31301959088641],[97.00870822302144,27.310503197770295],[97.00729404569387,27.313747803727782],[96.99841325408266,27.31878870932926],[96.99540588764921,27.324825697243117],[96.99585835917635,27.332780208924206],[96.99289012335669,27.336034215581567],[96.99024188361088,27.3440626071264],[96.98100106789505,27.34583303413612],[96.978619842486,27.35636277589033],[96.97078638498647,27.366023314877268],[96.96209540559819,27.372932847376116],[96.96762186188732,27.38118232708175],[96.96649590452708,27.385814673972614],[96.96326357838691,27.388455326895908],[96.96038522799458,27.39455940373667],[96.96237739305406,27.401618290118734],[96.96048119950795,27.40396535125582],[96.94899392543863,27.408333069848275],[96.9454814066765,27.408112547025333],[96.94009757770165,27.41331531692901],[96.9347364374759,27.4153258557427],[96.93157872360662,27.41962389688946],[96.93134242895766,27.423395084917555],[96.93357396359934,27.426458480904955],[96.93235317019622,27.43135094079522],[96.92421542097061,27.437481766625176],[96.91637645769669,27.446387673892453],[96.90832053780692,27.448262200700093],[96.90338067870331,27.45278363124546],[96.90452878223032,27.47069215213576],[96.90717718457115,27.474471515026142],[96.90738258795415,27.478283642536915],[96.91017152273805,27.481044970368025],[96.91046729394365,27.486679988591437],[96.91319251661436,27.48864357131856],[96.91733670553143,27.49677537423478],[96.92119615724953,27.50040736103377],[96.92117435244263,27.50285290900866],[96.92601976357555,27.507973337051897],[96.93534055809772,27.50831100720955],[96.92770100644385,27.512144255643975],[96.92596393148399,27.5205561728125],[96.92651837796559,27.527027871726023],[96.91957413042641,27.536681336986153],[96.90668564261736,27.544315203031044],[96.90775410061292,27.554846389020366],[96.90970363612061,27.55865931795279],[96.90678500437264,27.5681521236119],[96.90919697372395,27.576364341372333],[96.90837267153442,27.57938439514132],[96.90522705258209,27.581737332908187],[96.90035124425663,27.580032524556138],[96.89021073074946,27.579381859913386],[96.89252588417106,27.590988615716345],[96.89190799057926,27.60201344551987],[96.88981200542577,27.605873903125133],[96.89287647776182,27.615910865786166],[96.89875103032526,27.616022877664733],[96.90353920709646,27.613849742558635],[96.9116588956933,27.62235289526874],[96.91127030156939,27.62694101801371],[96.91255472533905,27.628819204532157],[96.92139808954225,27.632923721142674],[96.92341119073775,27.63933957349064],[96.93037466132567,27.645452767966837],[96.93010680975907,27.648419967241644],[96.93302505612982,27.653029613443863],[96.93511696472858,27.661659123822584],[96.94397309129701,27.663761610340234],[96.94653510804692,27.662241777978256],[96.95091329911233,27.664435893030507],[96.96627872333241,27.66258990469409],[96.96958769013933,27.667826887374833],[96.97732568726688,27.6637066850415],[96.98302330585534,27.666495057870133],[96.98139540135533,27.670092721697593],[96.98291431955012,27.680163984210946],[96.98540899499304,27.685868246739588],[96.99045653514973,27.689995105510945],[96.99326329161055,27.69727899019843],[96.99474324088831,27.697138263885087],[96.99893656315984,27.70140381736877],[97.00311856396387,27.707667693056877],[97.00842303756315,27.710270968963624],[97.00908277288424,27.717315488714565],[97.01446455729352,27.725240511505213],[97.0181379355769,27.727779398133784],[97.01903960427198,27.73113400918531],[97.01650572455344,27.733929040375838],[97.01930429466707,27.73954827602652],[97.0224786965394,27.742076845035946],[97.02951801817497,27.741461739669905],[97.03149788529822,27.742882480002724],[97.03154292143667,27.749486574645758],[97.04030071841412,27.748095389159506],[97.04349561355302,27.742516923407823],[97.04753802065346,27.739300467810917],[97.05071913024601,27.74032930642355],[97.05651385042846,27.747493189092907],[97.0615166652638,27.748625034289255],[97.06871469675217,27.743107048763576],[97.07192420388745,27.738692542247612],[97.07475998222016,27.73892263510707],[97.07528260588278,27.737039253724195],[97.0847988953704,27.733686395592073],[97.08772925372611,27.734184300683555],[97.09756372289408,27.750508702699936],[97.09729932624808,27.758710528698366],[97.1008978030031,27.766678830395612],[97.09456162148652,27.780118767415516],[97.0986271233746,27.784968980791124],[97.12041991799404,27.790005727476373],[97.13011142836937,27.79796664645958],[97.13353117541715,27.806574670782204],[97.15651359010272,27.814067304756755],[97.16507456889637,27.820874053206857],[97.16399541825399,27.827743113469143],[97.17801262664113,27.833207597701307],[97.18316647163192,27.83735311082844],[97.18569615531976,27.841917138874056],[97.19877827768326,27.85586532894834],[97.23300187745767,27.88137900890679],[97.24345475046047,27.895357873742523],[97.2527074149549,27.900973563843888],[97.30494760989794,27.92130328095242],[97.31095098266972,27.916510020050417],[97.3183732498227,27.907466513734832],[97.32011715557196,27.903108803821997],[97.3173018498446,27.880704443213038],[97.33964230866523,27.88520253085411],[97.3608811499782,27.876187529428105],[97.36741800884104,27.877969279670758],[97.37456572119878,27.884154998833157],[97.38509370503746,27.88739945602381],[97.3836378647453,27.89472516982886],[97.37590705863157,27.903691613823398],[97.37470054484821,27.90912466860326],[97.38383139779009,27.917712340914896],[97.38381006909032,27.921856949985326],[97.37182132668327,27.93558284327001],[97.37477411417503,27.95445800885175],[97.37435454703842,27.977461249233762],[97.37907152154357,27.983774393795812],[97.3875344276644,28.003287412673465],[97.40794453719518,28.006441507897993],[97.41149826167937,28.015397564574325],[97.39493992506763,28.025504669771465],[97.37859464099355,28.031647920381086],[97.37348646096193,28.030567708116024],[97.36441549870003,28.04396929952625],[97.37044123053924,28.054142235475013],[97.37000389113307,28.061812478188227],[97.36253065896076,28.05969188066218],[97.32818488920604,28.057035169366106],[97.31539324158123,28.0587797073574],[97.3083457686328,28.061696501499824],[97.30432350445598,28.06887958651322],[97.30680095560164,28.08506694756286],[97.3356632453687,28.111354085267674],[97.33669401544486,28.116378849557105],[97.32341437690658,28.133551033137934],[97.32142526522073,28.140169858986688],[97.32754918471713,28.15493400222734],[97.3560094146142,28.180408619103964],[97.36035763788175,28.188446526529813],[97.36880315172034,28.192363655793184],[97.3839459617349,28.186415572235983],[97.38896527592705,28.183084160824233],[97.39716615425925,28.185377840638914],[97.39732956769092,28.192397529802946],[97.37150386475683,28.21763905970685],[97.36185544297241,28.223673493464148],[97.34825999361115,28.22643134680983],[97.33072102908584,28.239980914898076],[97.32436428513239,28.24306298748622],[97.31001894373154,28.244112627372438],[97.30465409166706,28.250428285401703],[97.30334280916873,28.25630844729464],[97.27914968736401,28.268702309513394],[97.26523027676522,28.270738059530927],[97.23835048438855,28.267675086292762],[97.23133610178192,28.27337078549472],[97.22144668626129,28.292560191427476],[97.21122516537675,28.291734336719582],[97.19994543627402,28.288309435043498],[97.18981571782163,28.287120389306683],[97.17113951848599,28.29185069151483],[97.16663590374225,28.295062091248663],[97.15612482799385,28.319845220553],[97.1493348562233,28.326982260371523],[97.1272426971371,28.344461923771952],[97.12336738027277,28.349300541145194],[97.1102526939802,28.35202912489015],[97.09007500556291,28.362889788712387],[97.06364691485717,28.35275123897584],[97.04934056842448,28.351338120929576],[97.04283240893834,28.347387303290343],[97.03386385641542,28.331921606883718],[97.02017211574056,28.319505105393272],[96.99398143539139,28.309513221374598],[96.98450549373477,28.31552138061037],[96.97158037801832,28.317060362713836],[96.9503628501338,28.333418231902318],[96.92351970003755,28.338573338237765],[96.91855651078775,28.345767051235857],[96.91763348913837,28.35696599541957],[96.9079897367968,28.365041934249238],[96.89641344147942,28.379625870284755],[96.89172016992137,28.379877166088196],[96.86026633937425,28.37210392891149],[96.84998413100408,28.36214884391427],[96.82426090967422,28.36105013603569],[96.80937742801086,28.36197620210208],[96.79493336445522,28.364423768800037],[96.78043525735376,28.36434007017922],[96.77224140744032,28.368060025774785],[96.7652511221412,28.383744395839962],[96.76110876399063,28.3983212908107],[96.7554772371526,28.409574205864246],[96.74905084052698,28.415881883048222],[96.73205316575758,28.42502459450285],[96.71494288177742,28.42723149123913],[96.70429594662208,28.43178547370671],[96.67960383133828,28.445619069424108],[96.66278592203368,28.460259515349463],[96.6374318912176,28.458679923812188],[96.59692522641106,28.460876127398443],[96.57788709225414,28.457761222386356],[96.55782874592065,28.44772077631329],[96.54940094775777,28.436901161643153],[96.53213035133031,28.42934170261457],[96.5183944162384,28.41804226319079],[96.50852402434057,28.413015825805708],[96.49502193778511,28.41830964370725],[96.47830264463403,28.41939907557137],[96.45658313277882,28.41403830402351],[96.43745216402553,28.395847034652707],[96.43029197766175,28.386541149053897],[96.42520799465062,28.358181167707112],[96.42106970676663,28.345689705449324],[96.41091442315958,28.341465188491128],[96.39761841192693,28.339256875294616],[96.39041585023458,28.3574678581972],[96.37829321303616,28.358942401708465],[96.37319384817242,28.3821793038094],[96.36929641119254,28.389255854171438],[96.31827406317852,28.381188602102554],[96.31372449601471,28.383471114458406],[96.30310557392323,28.39983236649558],[96.28631681674621,28.4038707247376],[96.2659137518039,28.405419143332132],[96.26229013300069,28.408603527070884],[96.2644756765948,28.412282846320988],[96.27302598879274,28.41924277372914],[96.32241877850832,28.450246308345708],[96.33364228565068,28.45798111957223],[96.33995272324785,28.465224965733363],[96.36551744493062,28.47470817455062],[96.37152986643231,28.482215235494238],[96.37033273824703,28.49197182372555],[96.36522566583817,28.499967639305936],[96.35167317481209,28.510201344269014],[96.32305268546838,28.52573847316262],[96.3244333412628,28.52942001479612],[96.33358644906755,28.53392703622166],[96.3420227372082,28.54646963629934],[96.3533917085445,28.55600386466173],[96.36957900141799,28.55953959089762],[96.39950881583106,28.557698964370385],[96.40534779690589,28.559346278782883],[96.40492874719887,28.57324097080469],[96.39875746582574,28.585842016226717],[96.39973235979288,28.589713996263843],[96.40617559084693,28.5898290362155],[96.41386732743231,28.583793445819534],[96.42128017934277,28.58037139968918],[96.42683243973848,28.58248197783335],[96.43380579448946,28.59232875477276],[96.44323754083071,28.6013411241208],[96.47170135590406,28.61780662060071],[96.49289027334513,28.633523919691278],[96.49399522090754,28.63910310769338],[96.48284484651077,28.66069551988222],[96.46951417108797,28.680057157086406],[96.47171008663031,28.683727518085796],[96.48952328884556,28.683976582997282],[96.49735951225786,28.688039045158206],[96.50700144910425,28.69659720139683],[96.52133344423494,28.704452849454913],[96.5312110711641,28.706953818771584],[96.55894382647944,28.707260295437973],[96.57127512974196,28.710094619389675],[96.58488800462308,28.716964247692847],[96.61261487956659,28.755229434715435],[96.6145384429828,28.76026431449796],[96.61505607830067,28.774052826101876],[96.60747902513603,28.793619124671572],[96.60297002409386,28.799990050669773],[96.59432489561597,28.810825684786522],[96.58345897904218,28.81717845975293],[96.57509738042752,28.826202820716826],[96.56214535208345,28.84376684956606],[96.55909092650555,28.851742637774766],[96.55253641484903,28.85894077880738],[96.54624769761715,28.870381905823592],[96.53686147160626,28.880049371284468],[96.53551918106096,28.89314007330127],[96.53823708964863,28.917012696982145],[96.53499671729847,28.926061276268886],[96.52326360667521,28.944142671262856],[96.52085391545145,28.961404460621804],[96.51848178728126,28.967207256677202],[96.51303005016251,28.96653950037071],[96.50040928905419,28.959926828206495],[96.49290863490953,28.958559822203913],[96.48720686430785,28.96160476599307],[96.47715831043801,28.99040174547011],[96.48837737451295,29.006867315165277],[96.52514294962324,29.07579760437748],[96.5185667122116,29.074973933117793],[96.47710444835188,29.056684343228238],[96.46653219104445,29.050588602105],[96.45881931889704,29.04237680451247],[96.43570216141043,29.03415451118777],[96.38893463253564,29.030779219103746],[96.36873229344863,29.03163016054086],[96.34671767334449,29.028976610909872],[96.3215093474709,29.009476151778593],[96.29367818710604,28.995442302171977],[96.286552720628,28.988727336758295],[96.28182573709395,28.980387820820486],[96.25556118827896,28.95593157470081],[96.248174074898,28.939487257557616],[96.22801629763897,28.925971252679577],[96.18585194109589,28.908681584200338],[96.17458338434037,28.900938530102568],[96.16640575440772,28.902629969614406],[96.16289920045908,28.918808053049364],[96.14523454186256,28.93430597593246],[96.15405145696886,28.94333695255743],[96.15517622136643,28.95244155621679],[96.18046479554101,28.965381206090335],[96.18457916937382,28.974634526691858],[96.1849110034465,28.98499989924942],[96.18032006706727,28.996320483876033],[96.1689874083297,29.00985794918018],[96.16537160666613,29.017115728091323],[96.16104679349486,29.03356555816175],[96.15066808270696,29.05025613877963],[96.13702950522891,29.061649165632033],[96.11488865386106,29.074837119900018],[96.12458319245722,29.07791166184476],[96.16985981260778,29.084815352349853],[96.185967867785,29.091794481239464],[96.20068658854382,29.103107417714934],[96.21793285679676,29.135333941172565],[96.22820322716812,29.143622339927],[96.24933441347913,29.147389754013997],[96.2559530046598,29.151384754400873],[96.26065203262223,29.157376713812763],[96.2910050236027,29.159326248915285],[96.30804923918865,29.165558366103316],[96.34673887358518,29.16813799822172],[96.3589130624028,29.178741777447154],[96.36346641776213,29.195560177201695],[96.3718549299027,29.215227526233544],[96.38822254339983,29.2309256376206],[96.39231026511646,29.243416024234385],[96.39337937888217,29.25377363808159],[96.3881295722595,29.261132419924433],[96.38275356401749,29.27373113330083],[96.37565145014358,29.281117313813244],[96.36971622626417,29.283703738438078],[96.36384009356415,29.283040545357746],[96.34599415224835,29.264738227708193],[96.31326643876315,29.256516571299898],[96.29361413093807,29.233178011347274],[96.26636857691706,29.23398760049215],[96.25150685694145,29.23070657570838],[96.24422995247279,29.232583763911574],[96.23487795946079,29.2409674269896],[96.22695322324692,29.25737358917281],[96.21087516641026,29.27249721114289],[96.20410920840385,29.291318843716965],[96.18402044870813,29.307023979583327],[96.1868125213073,29.342357645997716],[96.17635321457044,29.362480177678165],[96.15896228431909,29.38113263161482],[96.15122046396168,29.39734506003835],[96.12526081593053,29.415799567201184],[96.11454849689727,29.425727378332056],[96.09427767204961,29.454768639867538],[96.08866297155515,29.459965441753653],[96.08208335468142,29.461725849496894],[96.07093540932918,29.460655813764678],[96.05707720544227,29.45680797691796],[96.03619370621465,29.44137297413182],[96.01596445629666,29.419708497730667],[96.0039194685731,29.410421097536634],[95.99462855920376,29.408804267999955],[95.98860737822977,29.405224127607845],[95.97937017643633,29.398803624582687],[95.96729163484025,29.385728522675823],[95.9584846191684,29.381013741328612],[95.93676601820489,29.382617678441633],[95.8907884049089,29.389812926992875],[95.88233422861603,29.38996516106192],[95.86038007950356,29.365946204233953],[95.8496938403596,29.357084930741557],[95.84172601106323,29.35217650742975],[95.82824279990851,29.354159446369096],[95.82070346430773,29.350506368408837],[95.80401297473792,29.337810441318666],[95.79790580971988,29.334780883745516],[95.79245676754695,29.336354493890962],[95.78459141715989,29.354899844192683],[95.77912820496168,29.354925408210914],[95.74687638747298,29.327616138277815],[95.74492614409286,29.31471706187219],[95.72845228055886,29.300922575357003],[95.71658120038607,29.29676141868963],[95.70775352256436,29.29915311884045],[95.70332594302292,29.298905915213584],[95.69365134073787,29.284979665509596],[95.68452534408837,29.275732727824092],[95.64425023441935,29.25447998266981],[95.63937350711736,29.24828821407877],[95.63258206660127,29.247504080513696],[95.60652746574628,29.260993781722448],[95.60014214907861,29.260396973245268],[95.59443783804129,29.252750910553527],[95.58901193287683,29.24086730084417],[95.58711328692998,29.21642463254796],[95.54637541014233,29.214084144835073],[95.53906538658582,29.212493203409768],[95.53851489628475,29.20671962952096],[95.54287410055835,29.195428487552828],[95.5465847391631,29.178983578864962],[95.54792145566208,29.126918740965934],[95.50474341410127,29.141359631722214],[95.49752919317484,29.138681779743038],[95.49302542212425,29.122009113436455],[95.49305308754006,29.107480968631204],[95.48693146773076,29.074483823944536],[95.48402058934201,29.069354586961687],[95.47506021957302,29.064150618099145],[95.46586694719362,29.052819824069644],[95.4602609244248,29.04129225876032],[95.45531088830737,29.03517161833548],[95.44842133828757,29.034202292476074],[95.43970191015255,29.035405331394216],[95.43037312062431,29.03950649922423],[95.42256883232035,29.039446197440753],[95.41114822851647,29.032355292976348],[95.38569613760401,29.036321198168867],[95.3749382254768,29.039599526319172],[95.34661184455706,29.044471530419],[95.3194352874381,29.053484437857826],[95.30396183182194,29.061376156155625],[95.28742209752313,29.060696319866594],[95.26779122260243,29.056137779777128],[95.25876622354035,29.0604906895324],[95.2513995405439,29.067094515100152],[95.2526823850753,29.08433189769334],[95.24920703410805,29.092370952568995],[95.25212813173152,29.108514531359646],[95.24185972328071,29.10935571519141],[95.19808106273105,29.106279497541525],[95.17898334511798,29.107301812631807],[95.14744430487461,29.114395870228535],[95.12330552126315,29.115063957518203],[95.11509257316675,29.120035872628847],[95.1041286468022,29.13900406511224],[95.10002430265953,29.142704122192367],[95.0797772418444,29.144528304467652],[95.0414416029586,29.151421191143665],[95.02202862069828,29.160189557047744],[95.0067131823339,29.16958170423122],[94.99932071768879,29.172114787856515],[94.98852515357476,29.172655209634627],[94.99375515234543,29.16489849205015],[95.00599289427446,29.15676539809592],[95.0199569574311,29.141960975804388],[95.02735142082767,29.132569895032525],[95.02447140945038,29.12959232303368],[95.01285724924551,29.13239868519814],[94.99683271133853,29.139984583200366],[94.9727832202663,29.155335448522514],[94.96949405951473,29.158850590609628],[94.92067216443357,29.16147398336783],[94.90885482058276,29.165712679943454],[94.88314284616027,29.18104644742558],[94.87378032668978,29.183566322266646],[94.84859921168443,29.182283457062677],[94.8114988156031,29.166004646651288],[94.79998870995256,29.163918788308788],[94.79494791524533,29.169062884219922],[94.79492798252747,29.17970593812826],[94.79861012746977,29.194874327375945],[94.80002484198991,29.209406963953118],[94.79754909674496,29.218161576794436],[94.79300831510469,29.225643343221886],[94.78497665960904,29.232669760357723],[94.77961153445672,29.240609950404714],[94.76879416104421,29.25232864342137],[94.75055367875733,29.265837610874165],[94.73899446400681,29.281614129759653],[94.71352800454136,29.30405350841727],[94.69714457081376,29.313685992809187],[94.6798023220643,29.327637272419537],[94.6685684618383,29.331590518880905],[94.64412672319389,29.346792130610286],[94.63083573084873,29.348474078175798],[94.626211408582,29.345481078392492],[94.62634129059903,29.336641053716562],[94.62158540287237,29.312624786191147],[94.61327263038838,29.300962618911853],[94.60793411333476,29.296788030612323],[94.58637666653993,29.282477050337413],[94.58030337160137,29.280566871403],[94.5764203948026,29.274956997060436],[94.57455235805074,29.25031078355923],[94.56985660534586,29.24055118840689],[94.56033287601109,29.22861259147602],[94.53548030544788,29.21842794342079],[94.49692464669113,29.216406422582388],[94.43372524603032,29.226650424222612],[94.41641040128692,29.212500817451765],[94.37938790351382,29.19430632381008],[94.37478470423265,29.190039731936015],[94.37008752320644,29.166103759529896],[94.3661323209605,29.156970981266],[94.35936902915388,29.15233249855896],[94.3526021360013,29.149954729133626],[94.30008063362702,29.150349045330575],[94.29022198360825,29.1479509860717],[94.28003234303485,29.13517138440518],[94.26011677223765,29.116558916527605],[94.2354986978962,29.096038130604267],[94.21708979945983,29.08383421494689],[94.18732162969563,29.038813518239987],[94.17750215969798,29.02015841167035],[94.17422067684716,29.00741505087653],[94.17515781731785,28.991438113945982],[94.16897546690379,28.98075753035681],[94.16051293717707,28.973661369865916],[94.15728476574512,28.954329391507514],[94.13862130631681,28.939947461171982],[94.08095475884829,28.905371594330315],[94.06863535826328,28.89563604303315],[94.0460660688954,28.873360427728183],[94.03210354545118,28.85295432294978],[94.01685271032878,28.85068219070064],[94.00489597399702,28.846536796499976],[93.99696402790467,28.840884935445402],[94.00196969938258,28.819251437195042],[93.98754355811516,28.806239871958788],[93.9872124193385,28.7977500496833],[94.00352349736322,28.78369270896112],[94.00330696026062,28.774940821082744],[93.99223188354931,28.765015358573038],[93.97949678487161,28.758692614061854],[93.97035298810482,28.750776417863964],[93.96694915920386,28.742353136654156],[93.96734746321768,28.722590897238682],[93.95871570167122,28.70401649356847],[93.93627362362905,28.67640449184393],[93.92783403148479,28.67110195622663],[93.92130085391797,28.669690131748986],[93.9058843658639,28.675992266788477],[93.86713351038244,28.703124520897944],[93.84590338542267,28.706827087111442],[93.83744559341075,28.70396038078899],[93.82066100980654,28.694334488507355],[93.78715343378889,28.670841728543163],[93.77705286297252,28.66796688553087],[93.7631666226656,28.674070332750926],[93.74926012804399,28.682697848791662],[93.73352558337872,28.68879192850793],[93.70162003768594,28.679463472786868],[93.68749563692921,28.678882363402483],[93.67142179408958,28.671503899953848],[93.64085232888856,28.661460784436468],[93.62209129175912,28.657299194716337],[93.60901282553883,28.65545481185157],[93.56333262017891,28.659226709813044],[93.53593004064624,28.658490962920368],[93.52658173252354,28.660924960157576],[93.52233265182231,28.66529954025531],[93.52057740933414,28.673496586326213],[93.51138486189515,28.679532299845157],[93.49771600310721,28.6837232774472],[93.493323284487,28.68366967248189],[93.48580112647107,28.67979732914989],[93.48137646914927,28.674693978975768],[93.47635196089814,28.653330228613306],[93.46891111209352,28.651804633055892],[93.46474492253682,28.656726069862962],[93.45895281106195,28.66812955069652],[93.44790032069183,28.67576971628581],[93.43203801762687,28.662045299476606],[93.4140599709637,28.65263458583159],[93.39191525953507,28.649213344334232],[93.37193696207656,28.644291094525062],[93.36401686925439,28.640584236152385],[93.35310453942475,28.63864987869248],[93.33917482155641,28.639926921536443],[93.3345677172987,28.63345476596369],[93.32985446002216,28.60803437449627],[93.32179220521301,28.606755670763672],[93.308597212229,28.600727077955142],[93.30207545314776,28.599296637607072],[93.29973708725926,28.591767424497505],[93.30549739388145,28.576580087465004],[93.30740623211354,28.565953943086605],[93.29957271352858,28.557279966398013],[93.29100685957788,28.543092236809972],[93.27794073531128,28.504464576488044],[93.25598100496593,28.491181494249112],[93.23733154398468,28.48236915684932],[93.23107676959579,28.47759022994676],[93.20954535148634,28.451857566359056],[93.18463818042184,28.439614572279304],[93.18303015474078,28.432362474923213],[93.19232204147711,28.42562291230624],[93.2277415270668,28.40785209802535],[93.23337281225803,28.400245114009188],[93.22405764478276,28.377461558811692],[93.22106469720794,28.36099164119049],[93.22446057332368,28.340540039353783],[93.22070420058948,28.333183468742448],[93.20864558362642,28.322725956036905],[93.19547351115686,28.317498650539726],[93.18151371499789,28.316686720443276],[93.1567118210948,28.317979253739708],[93.13824443604521,28.3244113223385],[93.12658125657192,28.326335363647466],[93.11393256953636,28.315049537445876],[93.09715078867582,28.306605814802545],[93.08890843153368,28.30576149789132],[93.07385991048797,28.30881091999387],[93.04807817200223,28.302034050233793],[93.02553571890513,28.30279015557515],[93.02376111412931,28.29951680616213],[93.03554596591631,28.262661201071243],[93.02209202726344,28.251822132355933],[93.00210203014666,28.230305663689244],[92.99641174899745,28.22977936672021],[92.99173907850377,28.23395080393272],[92.98863827470439,28.24203827117902],[92.98775477802918,28.250871935708304],[92.97628349487023,28.25918347671194],[92.96636001523402,28.261390176590677],[92.95735500368701,28.257913315168278],[92.94357157017448,28.248232185601033],[92.92473384476757,28.242165472244036],[92.91478946672459,28.234610997002772],[92.9071333528318,28.214812412716544],[92.89704775962616,28.204180395727352],[92.84141597532793,28.178940826136365],[92.82975490150567,28.171084075083076],[92.8230860298219,28.17350672050062],[92.81951612039123,28.18392423222102],[92.82118512551044,28.197038117782064],[92.81804865859425,28.201239966358543],[92.80944000081858,28.203720365004543],[92.80153128426119,28.201874710667813],[92.7848973382486,28.183374159014704],[92.7384186366023,28.1511881422795],[92.706449893531,28.136206502146727],[92.68886028737985,28.125444349499457],[92.6820064292229,28.117648934021005],[92.6690275259805,28.07788015683928],[92.66294424357257,28.0673068580114],[92.66468043908178,28.06236616400066],[92.68297970262928,28.058160454060985],[92.69713934788787,28.047927955349042],[92.71119121327868,28.03281020212265],[92.72284600428384,28.015852704058982],[92.72935983124115,28.000968318432438],[92.74100334389794,27.988882106180753],[92.73130207242873,27.971382730941627],[92.71532067252002,27.94872777223432],[92.70272846166807,27.93325182032123],[92.67063547260983,27.899571873902808],[92.65301234582385,27.892418803656835],[92.62181144223321,27.883933542671674],[92.60651674057884,27.876985208776755],[92.58717169341183,27.856330917783595],[92.56208551236575,27.820490759665006],[92.5556503212335,27.817752630204968],[92.54530283498657,27.816944172172636],[92.51656797573409,27.83972070865067],[92.502827205011,27.841013353496805],[92.49399968259786,27.836332204978834],[92.45640978553506,27.802772000784078],[92.44529999073467,27.800308616602468],[92.41542977055755,27.822602674418434],[92.40835202079077,27.82165055285914],[92.38454880195533,27.815149096873924],[92.38138160008002,27.794591123065647],[92.36579039239813,27.79321058360224],[92.35185405484442,27.79024005255089],[92.31755671955487,27.777831914504212],[92.30900085037858,27.77884113212043],[92.28636604418205,27.80720099466972],[92.26916234170058,27.853633128262786],[92.26581043452472,27.85762533509746],[92.25697098338291,27.86187423611759],[92.24810341587099,27.863228980690057],[92.21225504222537,27.858715274389713],[92.20215458639335,27.856800509060935],[92.15799207392614,27.83675483746833],[92.12182373924091,27.81035594295971],[92.0864125477963,27.779541199164],[92.05723765149686,27.75887978995762],[92.05049458615714,27.756749078154535],[92.03963782970429,27.75696929460575],[92.00220766208216,27.767259170294686],[91.98580119016083,27.76979443473136],[91.9677422609861,27.7512413835915],[91.95751679829411,27.750477134270366],[91.94697250104987,27.72848591306447],[91.93591390033919,27.721371868784473],[91.92067393752664,27.71490165552691],[91.91031533283143,27.726129864244683],[91.90421002463107,27.72689919372505],[91.88062230534409,27.721670782639247],[91.87244285003482,27.734308890103268],[91.8625321130009,27.736784854830617],[91.85964323794667,27.742141198419752],[91.85329487257988,27.7649327056357],[91.84730421635926,27.775533409266522],[91.83561744353331,27.779786403489947],[91.83106533503562,27.79656783142198],[91.83013381622196,27.80746719610698],[91.82639946389033,27.810269738272257],[91.81746378791023,27.803294727308174],[91.81270271959932,27.802908955312954],[91.8063312828011,27.808817901978266],[91.77336575920907,27.8011812165558],[91.76036639324279,27.801240523299786],[91.71188885924091,27.813272275543625],[91.69648212958577,27.822114690867554],[91.68200197711191,27.8441526380223],[91.67176843497225,27.85672508464035],[91.66440325845053,27.858267929974676],[91.6443171155472,27.85415493559288],[91.6297434035365,27.85561523316686],[91.62409989137592,27.857734794768053],[91.60988551625866,27.854042676593355],[91.59663232322403,27.862117568535353],[91.5869680731243,27.85627919179034],[91.57967556491919,27.862056408082097],[91.57229545390587,27.86078185628227],[91.56696479172108,27.852795779949695],[91.56131174933365,27.85175456502223],[91.55509711795986,27.858638937173215],[91.5464586972022,27.85562611008539],[91.54836394307145,27.846915236762094],[91.55860184383685,27.831378257816375],[91.56298083619953,27.821458961255072],[91.56794904882844,27.815360182839182],[91.57543724154347,27.812741944818587],[91.58048281708462,27.813948252357932],[91.5866155688169,27.818802330917233],[91.60128061164424,27.820876792573582],[91.61751866112793,27.811259455246574],[91.630537463942,27.80083061676879],[91.63347355624416,27.77155628450046],[91.64189443288778,27.76517736182525],[91.64231884284209,27.757962474646323],[91.63190602212451,27.74696202712564],[91.63135306684633,27.731779688392415],[91.62557480290155,27.715295191823326],[91.62596344373789,27.70592342748911],[91.61828294417839,27.701940161938367],[91.61674654207323,27.695941907511752],[91.61227698336025,27.692853790996054],[91.6047054710043,27.694925092476527],[91.59859252083584,27.692518722833913],[91.60070718016745,27.68651482948883],[91.5940202649229,27.68319037761759],[91.59193760897158,27.67176371434595],[91.56902203972292,27.652414947355094],[91.55988794745609,27.63341458498273],[91.56527867639069,27.619914255991652],[91.57821410925816,27.60822768138575],[91.57889963700768,27.599486002939777],[91.564079045499,27.58412795318048],[91.56882311319315,27.5749445344244],[91.58351012072748,27.562213572642765],[91.59637621533314,27.539429132144424],[91.60312085901278,27.540673870897134],[91.60738425975798,27.543572483896376],[91.61119951705902,27.541498721566906],[91.62240085557677,27.513159046702214],[91.63005705391119,27.507931517624773],[91.64072146129881,27.50349347433477],[91.64592617968076,27.498831489806758],[91.6492013285105,27.48456130408408],[91.65502081614366,27.48280324968032],[91.67623241874057,27.494240648059623],[91.68541120848097,27.502220189224346],[91.69187871111568,27.502561935123094],[91.70171824947681,27.49529959749584],[91.7123754380028,27.491043339301328],[91.71553018024511,27.473417470147172],[91.72170784953825,27.47013607981743],[91.73496596264567,27.46999737632652],[91.74356931407294,27.47363070139388],[91.75145208459001,27.473997604981026],[91.75825600989188,27.473070283460864],[91.76443050813205,27.466179788423606],[91.77542330275662,27.464264757599828],[91.79026028762091,27.468950282677643],[91.8110152280499,27.47232479181359],[91.81948901905699,27.469619461131757],[91.83005342508888,27.468696535915708],[91.85070906484803,27.482259670809526],[91.86459167685953,27.4817649493128],[91.8737579943905,27.47251396730124],[91.89247251226294,27.472913632577008],[91.90000169869766,27.467937747827673],[91.91044731690624,27.470873326689873],[91.92421060120695,27.47100470840209],[91.94080659968698,27.46026854061823],[91.95606658954044,27.461057914309553],[91.96683629834396,27.466435292116742],[91.9804537860741,27.464572425320394],[91.99051794637538,27.47390707729539],[91.99812635343835,27.476963758032866],[92.01258569104878,27.481431845532477],[92.02013537434333,27.479345227171297],[92.02115726277627,27.46770799708677],[92.01809329170013,27.457624266123883],[92.02050010292511,27.447201976455617],[92.02522346984183,27.441165985956786],[92.03423481720652,27.437025951898303],[92.04002942509956,27.436069842262697],[92.04401401483169,27.43055682016482],[92.04518642677024,27.42489360110287],[92.04329736674579,27.412381559396326],[92.04852163695988,27.406089182429994],[92.05414646685749,27.40367641557267],[92.05567088364015,27.399646098866217],[92.04723140198865,27.37878725028847],[92.04752649676288,27.367873915363436],[92.04951347315328,27.357798978924016],[92.06129321532292,27.344775048368913],[92.05985443583464,27.326685478237845],[92.0681854665768,27.317742680022587],[92.07899977942913,27.30975268460375],[92.10359349235837,27.300880432690764],[92.11827090678379,27.29224784983604],[92.12154370023087,27.28698675813373],[92.11993022357265,27.27530769790592],[92.11606028582024,27.27270056242999],[92.11078649956937,27.273401006170538],[92.1025311222455,27.26853022656294],[92.09595778190065,27.2724619615646],[92.08406716786203,27.27148533733584],[92.07910986078069,27.275264406701428],[92.07098567791247,27.276806970818694],[92.04982441241248,27.27103374229225],[92.04056732551193,27.266138608449033],[92.04089935272239,27.26126253732648],[92.05063146425363,27.256053574828872],[92.05338480059943,27.251234627608223],[92.06669759505657,27.24438620561529],[92.07050620302789,27.223063695478746],[92.06759972638399,27.21434081665835],[92.0581196596636,27.202493555651273],[92.05707436562595,27.189005610917377],[92.05186145101537,27.183755660208092],[92.04184121294159,27.180738115086545],[92.03621980832015,27.1761978243431],[92.02605205070708,27.171187157110953],[92.0241908788806,27.161760873788687],[92.0251051428543,27.15365242684267],[92.02924241564199,27.15012473223578],[92.03724321939748,27.137839272065598],[92.03517817132406,27.131929264923475],[92.03171354803794,27.129773267500052],[92.02896352108563,27.1228541966093],[92.02294266081016,27.11432622799301],[92.02322974800191,27.107556498494464],[92.0282635699859,27.096563364429436],[92.02845914579969,27.07795687576936],[92.03360168010269,27.074191677033546],[92.03685840897755,27.069563128495947],[92.03437881445163,27.06418370951373],[92.0424673135418,27.059748474916002],[92.04550829852646,27.051327833680773],[92.06456525957505,27.05155241963506],[92.07719310839097,27.039178374123892],[92.08032092273432,27.019921267781754],[92.0886861972551,27.01629705458721],[92.09774724481122,27.008812534626124],[92.10376459626718,27.007033970856135],[92.10256870955362,26.982277871790238],[92.10452336366178,26.97699139550075],[92.11364193753207,26.975010335319713],[92.11777363178187,26.959473703155698],[92.11231602596935,26.94862132925132],[92.11739151451114,26.93165713502057],[92.10917830320838,26.90665095699546],[92.1080780709029,26.898858079604825],[92.1081704922743,26.89305505931237],[92.11210122261524,26.89194039269107],[92.11400321748147,26.893916188611875],[92.11995202388798,26.889079979125455],[92.16979358317344,26.89175044894937],[92.19473385356288,26.890059851294822],[92.23795088829523,26.90589043313332],[92.25511798173396,26.909701636495992],[92.27602252579373,26.902092891263553],[92.302897111535,26.90723612135585],[92.30259430023251,26.922739347049983],[92.36312145816314,26.93463981665342],[92.36703230878686,26.928780959802502],[92.39826127934022,26.9247872708898],[92.41194577869558,26.942857508078447],[92.42573827081945,26.941136471771006],[92.44739993117038,26.95890848050924],[92.49679563591909,26.963470269151088],[92.55412109666744,26.9575367732044],[92.58327296734956,26.959637409533226],[92.6447295114933,26.986760119856022],[92.66738050802617,27.02722010163919],[92.6724082951281,27.031745965902907],[92.67744911768305,27.03175737164939],[92.68754299425396,27.027265591221195],[92.6925836389425,27.027276512495106],[92.6976360407815,27.022773058177048],[92.71275742238326,27.02280418280914],[92.72284909359013,27.01830983558118],[92.73291915222956,27.022843215425553],[92.7530810617389,27.022879281531818],[92.76315275710877,27.027410502868236],[92.77828340303606,27.0229203883483],[92.79340482775697,27.0229428359223],[92.8236680482945,27.009440141095258],[92.83879390979459,27.004943511366964],[92.85719397869002,27.001736181384494],[92.8865374609205,26.999842458581572],[92.91833856219014,26.98240276574647],[92.9154606250228,26.97401301156104],[92.91707319348427,26.96302748312469],[92.98181212777732,26.936142750350765],[93.0217823654086,26.9135137821572],[93.06264134677464,26.922368671344017],[93.08815153982137,26.914489580656674],[93.10729843480635,26.92585587843807],[93.17248149887081,26.936092337878982],[93.20087716325513,26.943313491408265],[93.24674897297696,26.951343198256676],[93.32263978903978,26.960107140849495],[93.38041586809089,26.959317872968864],[93.44869359776641,26.950879221453757],[93.4624127532271,26.937977877758215],[93.47057035162725,26.93669467206255],[93.47465227202377,26.939421488332204],[93.48618154412928,26.942374819746316],[93.48902456827308,26.93627427771936],[93.50720031885889,26.944039462252256],[93.52469320699664,26.948624131946882],[93.54093165173906,26.949072350934156],[93.54485764436522,26.95132640090536],[93.54907304003991,26.950105793614686],[93.55958534378532,26.952809586085266],[93.58659118596601,26.950567581931974],[93.6146474614461,26.960400683294345],[93.62737812334457,26.963252982171706],[93.66004233312569,26.967052589908352],[93.67559225513546,26.974683029466537],[93.69359141669936,26.98909294907511],[93.70882886243247,27.00820462838184],[93.72330169902668,27.020911612803946],[93.7329033015168,27.026040971829172],[93.74345152978871,27.027789485487737],[93.76734591325241,27.039536465819655],[93.76664794114127,27.053005776761903],[93.76775015423195,27.054662696747826],[93.76778340806713,27.051377606502907],[93.77177244086666,27.054173844715194],[93.77079254058842,27.06213318073897],[93.77820272719747,27.04903410290652],[93.77949048012353,27.058154810910988],[93.7810119118045,27.05891391845712],[93.7811073425321,27.065615049501528],[93.78295805976526,27.06445201395811],[93.78371429750406,27.051551224379022],[93.78933934838722,27.050692848042285],[93.79375152900805,27.054621391948732],[93.79433105285908,27.06201765416011],[93.79514587961899,27.057104044965048],[93.80014515688873,27.057950593969167],[93.79871077824701,27.062489394474355],[93.79296567471265,27.068375067691512],[93.79370380061869,27.072436706516708],[93.79519571096445,27.072554873188686],[93.79676319567675,27.065367359069544],[93.80327991610757,27.058155290105226],[93.80759832608749,27.0599036931455],[93.81131353981199,27.059034507332942],[93.80833078542071,27.066022996738997],[93.8106636850607,27.067567347265292],[93.81491596645928,27.061554111515154],[93.81884094488748,27.064466264186485],[93.82113433123142,27.064494180677837],[93.82190903923076,27.06786988184263],[93.82733342085251,27.06603969696615],[93.82914772936724,27.06691117467499],[93.82853194412144,27.068950697260895],[93.82972192351369,27.06807113141817],[93.83559211026481,27.074394822161594],[93.8355253124386,27.07829359975692],[93.8331195208015,27.08165479411478],[93.83769577870899,27.08546908950551],[93.83142376115818,27.086875186800928],[93.83132642959546,27.091008668274192],[93.8265899185295,27.097067391698538],[93.82548295065602,27.103691334522278],[93.8265180955276,27.1121570743897],[93.82498834814207,27.116520132732813],[93.81986195566637,27.122849217945394],[93.81396737875694,27.121380262553547],[93.80935693815627,27.1234404741115],[93.81285877055976,27.12939391726366],[93.81237367671308,27.131022750276347],[93.80694717866051,27.130758541092856],[93.80311282946471,27.13287749268234],[93.798914024775,27.129179578406642],[93.79683632842236,27.129034024390354],[93.79469300205335,27.13614450757257],[93.79589227900881,27.137742596402887],[93.80531420586567,27.13722406848945],[93.8059176033437,27.148857516940247],[93.82526898812503,27.1685759544973],[93.83863230203708,27.17243361704648],[93.8597948682976,27.19357371057891],[93.86414947948515,27.196249972736737],[93.89932773508167,27.239183641080118],[93.92816555923199,27.264319356535815],[93.95518902096866,27.293358126075574],[93.9911782513492,27.32844357678067],[94.0114971163016,27.338593089260957],[94.02203487381054,27.346300920926353],[94.02572125341108,27.344935864318444],[94.02776091868785,27.34693439514942],[94.03018100072453,27.34575430249292],[94.03084013327603,27.348489732694098],[94.04047713926983,27.351598945172086],[94.05396666288601,27.36043267564684],[94.05973759657809,27.36163418323294],[94.06077506449294,27.365399506537354],[94.06912952239942,27.373560893871137],[94.07567611361006,27.38977408792951],[94.08952130450174,27.407145503096014],[94.10485919535834,27.414070393072627],[94.11778167631607,27.429782636469717],[94.12761599007548,27.434686335106818],[94.13138035512078,27.44101722867692],[94.15530761692388,27.457065919841803],[94.15500557098602,27.459193217345415],[94.15934838639555,27.461714469302297],[94.1565903563524,27.474954417937255],[94.16446889041455,27.47688037374946],[94.169053396653,27.48132248882747],[94.17614946127179,27.48224855264624],[94.18412658992798,27.486745309838337],[94.18920124662984,27.492493180801766],[94.19375372882669,27.49398343026238],[94.19628961268663,27.493036740238722],[94.20056771436141,27.494975901647543],[94.20897488630708,27.492624417995913],[94.21391951366815,27.50089671194705],[94.22074734044479,27.50537637521205],[94.24127711365625,27.513118848182135],[94.26817903602993,27.520937848706446],[94.25741882511393,27.537127192810562],[94.25679220169421,27.5418089819428],[94.25932920934659,27.54914743739136],[94.25862431122461,27.555554878559345],[94.24664049158534,27.569563240714803],[94.23473466278077,27.56926023114591],[94.22487691826376,27.574191421628893],[94.2227565384604,27.588296495331413],[94.22656695294376,27.597837892962733],[94.2133003336889,27.600297014285566],[94.20943309896717,27.605180070660982],[94.209512774143,27.609006408935976],[94.21728460811235,27.607350610732034],[94.22271345166611,27.61150707714623],[94.23749044793405,27.632776643811486],[94.2423171777023,27.632407047923948],[94.24839290707531,27.634099209743216],[94.25138323067117,27.637731567510656],[94.25433881102512,27.635747494356032],[94.26163160579284,27.635969334243192],[94.26733374290716,27.629583701065258],[94.2665544912291,27.62605172732321],[94.26050182789767,27.621964536736442],[94.26086862529954,27.618200784402294],[94.25460373947378,27.61588541847474],[94.25418353992322,27.614327527902955],[94.2563289458921,27.61060555852857],[94.27239994197059,27.603037191563967],[94.27457196142808,27.599924102916077],[94.2737335224509,27.595068078874462],[94.27732425303326,27.589534104503105],[94.28822094858363,27.58935315089709],[94.28977482741266,27.596254449928324],[94.29818502398584,27.602029068502297],[94.30174066367823,27.601118415666456],[94.30918477965554,27.590875440537523],[94.32270215463882,27.58873549432004],[94.32424328637393,27.584717802908386],[94.33275612534982,27.587048360170446],[94.33689259414534,27.57928616377506],[94.3381598807543,27.58131591205316],[94.34484654447056,27.58223116751262],[94.35060073446402,27.577211232638547],[94.35906453440857,27.577025344997583],[94.36264055417979,27.576245771550585],[94.36393584217448,27.574446833744613],[94.3698090355869,27.57485051932857],[94.37642701501484,27.58246831001317],[94.38182053321837,27.581694494518782],[94.38851095189253,27.584887995559797],[94.39230999550101,27.589120495366984],[94.4015361614912,27.585073219381798],[94.41837926314963,27.5976134593273],[94.43160584808558,27.600429527043932],[94.43163027687142,27.591718735005337],[94.43325832510186,27.588514542824722],[94.43951957724227,27.58131570105332],[94.45125333285588,27.57185653645408],[94.45486370061032,27.566699012121248],[94.45636624790737,27.559935218594052],[94.46165456889953,27.55533907356858],[94.46783295594658,27.561243352681704],[94.47772734543895,27.576238195907003],[94.49888166247021,27.572264965521974],[94.50133210307189,27.574083189930477],[94.50239268643567,27.57750977715588],[94.51377463393626,27.580203365446348],[94.52142992048066,27.58464682712196],[94.52193268149405,27.591519254572898],[94.52949815178138,27.591483652250318],[94.53206403667689,27.594663385765067],[94.53588391311516,27.592622820524827],[94.5445086920569,27.601131559777173],[94.55524448496686,27.600848397024194],[94.56213865412387,27.604999624495573],[94.56849423475902,27.60244080831645],[94.5740092554946,27.603904825998097],[94.57677044581094,27.60598356180433],[94.57966584712571,27.61239633710686],[94.58747211262158,27.618553116224074],[94.59551503029593,27.619776258850415],[94.59993729540415,27.618264423611596],[94.60281071853717,27.6213265304273],[94.60651453443732,27.618712624776503],[94.61430457096931,27.624066192049725],[94.62078998511248,27.62504917809895],[94.62339409422161,27.627904417726537],[94.62838624425787,27.624635587605614],[94.63311208693152,27.624256917871843],[94.64129114428717,27.62954072459062],[94.6465974181103,27.638168926403793],[94.65732491238367,27.64188110011197],[94.6625737164865,27.64542297630706],[94.6726680772493,27.647316111222274],[94.67903375854152,27.645249701811455],[94.68259975670745,27.64599012733084],[94.68657605409116,27.651081730926766],[94.6837239848108,27.66026867828396],[94.68783277561407,27.66523806449317],[94.68924133397958,27.665116997156968],[94.69082157566726,27.66183311942398],[94.70041368565975,27.661549715053056],[94.70896177183243,27.65667553437244],[94.71594670766406,27.657630824568688],[94.72043165990776,27.66702000664604],[94.7250611304194,27.66909994810298],[94.72889693219102,27.664625125115084],[94.73564956818176,27.663383613070366],[94.74129508089045,27.65998837211219],[94.75422881324711,27.66064460729414],[94.7608474816829,27.66513965154479],[94.76908411925164,27.679616514026367],[94.77858208580238,27.67979942892986],[94.78402722749031,27.68399933364976],[94.78896819241999,27.685274877112274],[94.791789241077,27.688186860353806],[94.79364942745158,27.69527644537137],[94.7968984721375,27.695725014183402],[94.80819965750078,27.692071556694536],[94.8134911091217,27.693107240847123],[94.82070476680445,27.692171684964197],[94.84089199802501,27.700705841712026],[94.84775476567296,27.705661606420726],[94.84833014559558,27.717203669672635],[94.85226768157314,27.727699480541116],[94.92224713031555,27.750018598003155],[95.30868061643241,27.86810607324964],[95.37949599875067,27.83927412788133],[95.5200505852701,27.88133295158973],[95.52607930939755,27.89071305243272],[95.53395459245671,27.898236670339408],[95.53985792704184,27.89655792646182],[95.54418776359218,27.899875191383984],[95.54210964323472,27.906363045552375],[95.54458732704404,27.9109365968045],[95.55375031182531,27.91382390200636],[95.56346237655266,27.919356984519677],[95.5647335097477,27.929368043670607],[95.5685106129037,27.935997218046886],[95.57591510509212,27.939798979927684],[95.58603125718709,27.936818951113384],[95.5936245420106,27.94686525900174],[95.6051971901679,27.954710090108588],[95.82379809578279,27.97156927407285],[95.97120258427864,27.962813475193208],[95.965115655609,27.951758942614358],[95.95447820666305,27.94123013295386],[95.94821614693721,27.93720906235514],[95.94915694355113,27.93129790708172],[95.95467893970488,27.931294741923978],[95.94846626665841,27.924485179301715],[95.95260821787213,27.92018751425934],[95.9470391751503,27.91754660474747],[95.94257006739156,27.910785451004163],[95.93806595857443,27.912619427175624],[95.93544724375708,27.907580806770447],[95.9409618243182,27.905701245188062],[95.92974608939969,27.902836663113145],[95.93169490176359,27.90023240738316],[95.93766120914844,27.89829412264022],[95.92840140484414,27.89522549783213],[95.92776839889434,27.898794710425165],[95.92624500529281,27.898975718353693],[95.92588772464309,27.895429519137437],[95.91914855889004,27.89513854522037],[95.92361931236236,27.888197626844075],[95.91759249176499,27.890166855650953],[95.91541881940738,27.889481681587263],[95.9167167816867,27.885089764884704],[95.92067756696211,27.884733481104234],[95.92500250410086,27.88177206352783],[95.91935559720682,27.880691143807983],[95.91546735987377,27.883855292962263],[95.91693853081456,27.880556526644035],[95.9144537134836,27.875851266813427],[95.91003012425863,27.872504600290945],[95.91061324316745,27.870289106672082],[95.9072064408429,27.870538079861934],[95.90850061133341,27.868800680213663],[95.90649425379071,27.866089484508706],[95.90326614793575,27.869004940310255],[95.90160574598204,27.86856313930822],[95.90137678607736,27.866573362273556],[95.90483288435144,27.862209547800777],[95.89466898410414,27.86209861627175],[95.89525185687457,27.857464757460594],[95.89016553015887,27.860086837357905],[95.89105848070412,27.856946438372066],[95.88836783508702,27.85666699953294],[95.88356943189463,27.846199536067306],[95.87032099364279,27.832763078583575],[95.85430830092115,27.830117661556827],[95.83767318709874,27.82421253441565],[95.83798716086697,27.81032914573135],[95.82649928133313,27.80880963846947],[95.81656161011207,27.802782260023534],[95.81083142849288,27.796620832694057],[95.8094658176828,27.789170853372262],[95.80383197139469,27.78469211281718],[95.80026256771552,27.7737892085938],[95.7943104222711,27.769170047002355],[95.78680031605305,27.75976235845554],[95.77591586992986,27.75371797865387],[95.77789328375405,27.74255737805881],[95.78046215734452,27.73701122273393],[95.77929258857384,27.73380399094473],[95.7654846714782,27.72648034930573],[95.7589393738416,27.727134049077314],[95.75240016408763,27.72432611987625],[95.75361206057617,27.71883256494491],[95.7652727606993,27.714749986965156],[95.76242483175406,27.71325869531751],[95.76408982320056,27.7112205789734],[95.76281054677752,27.709109598500998],[95.76794137962564,27.70218588059975],[95.7644660511163,27.699791704100836],[95.76564426347664,27.697662923816406],[95.76369023100263,27.693852822518153],[95.76530256859706,27.690862782230255],[95.76706531740774,27.69058007836908],[95.7675043707995,27.68739035954745],[95.77322027100227,27.684992646407157],[95.77713977599542,27.68764107697476],[95.78284235418256,27.68730847702071],[95.78291678050218,27.68473798768997],[95.78503883207028,27.685231289329415],[95.78607551485761,27.68184443557832],[95.79037478982367,27.68023626714822],[95.77897325276167,27.677377272020276],[95.77504796890629,27.67441457548925],[95.77188469087214,27.66418779245347],[95.7728848643297,27.662135508585518],[95.77034501620442,27.65779746822602],[95.77423235252724,27.65089406445227],[95.77947944533946,27.649590786322673],[95.78086817339506,27.647414349236087],[95.78612877147924,27.64641161375051],[95.7877525248643,27.644051088560357],[95.7900631696415,27.644857657374743],[95.79569635476955,27.641827640005268],[95.79529902273286,27.638451064753184],[95.78821048599615,27.634938151740087],[95.78940165475785,27.6264017528381],[95.7794835380639,27.62573726483303],[95.77843788290348,27.624073577347897],[95.77823498132858,27.619473016336922],[95.77994569163316,27.616716388339064],[95.78505043021894,27.61570565935808],[95.79025098940112,27.611834032396875],[95.7893361244545,27.60409728890752],[95.790876972322,27.599297623065645],[95.79523774235913,27.597758584861822],[95.80548505207885,27.60104113756191],[95.81571000542608,27.59876467098003],[95.81836359643604,27.595483475956666],[95.81370586762047,27.589071272989315],[95.81183357554913,27.583314957489616],[95.81424719420733,27.574343967609323],[95.82335133215098,27.574573229707376],[95.83326007402663,27.56011428233767],[95.8362076441032,27.559357708615668],[95.84118295701609,27.562149100544982],[95.85281219454473,27.55288170868554],[95.86038171084408,27.54333029833373],[95.86253794330878,27.545464773297425],[95.87021235139233,27.545374948756365],[95.87361412764285,27.547098687645367],[95.87570853445641,27.546582828448607],[95.87673514982434,27.54367839281918],[95.87689127163083,27.52605822123936],[95.87840927174739,27.51885213533424],[95.87574872508222,27.512517101947893],[95.87871083439164,27.504983773267817],[95.88420372782515,27.5011417798121],[95.88676222407743,27.497176535588828],[95.87993625950837,27.497122845574456],[95.87420828774479,27.493341785619968],[95.8728472125286,27.490873582167595],[95.87379825352998,27.481253459338888],[95.87144571042965,27.47619972212114],[95.87060110811132,27.466746587557243],[95.85645286696524,27.46135337071763],[95.85322641940031,27.45700310310753],[95.85665750318697,27.44502351371697],[95.85566647907056,27.443493742991855],[95.84937529147163,27.441705850662142],[95.846730875854,27.438659631411756],[95.84719675922835,27.43628623677701],[95.84474687827708,27.43389904337158],[95.8452051789721,27.432084881412713],[95.84304635486784,27.43033821301967],[95.84217747198568,27.426895165541495],[95.84441385752989,27.421679394475518],[95.85021967010947,27.417493151576494],[95.85286519963806,27.41120795019285],[95.85953964446982,27.408041199693482],[95.86177423158684,27.40900254023072],[95.86216324342737,27.412039305016208],[95.85631769926108,27.416952552847036],[95.85704536698057,27.419975936513207],[95.87078885241243,27.426447507813055],[95.87557270199892,27.434885497397737],[95.87865261547638,27.436216537278987],[95.88312314436989,27.435413113084905],[95.88484723597895,27.432218336089242],[95.88385924816819,27.414115157963657],[95.88749438067839,27.41175936099673],[95.88820185337197,27.40908804128293],[95.88674517584997,27.40507673260008],[95.88393389008348,27.402599756905513],[95.88607196669794,27.39835798898604],[95.89090043021473,27.40130857586938],[95.8985726248494,27.41295816758244],[95.89991477974908,27.42211336619378],[95.90788273660625,27.43444371939195],[95.91079621202452,27.435864325402072],[95.91813884442587,27.434819888690736],[95.92777963592023,27.438566168698568],[95.93434247226449,27.43573428908747],[95.94121615803638,27.437387169199056],[95.94735282462666,27.43308837000625],[95.94509317541154,27.42673178246174],[95.9510380579769,27.424061785670883],[95.9546554415737,27.419714482688523],[95.95665292735463,27.426590004034676],[95.96024517968303,27.42912375058648],[95.96311103001821,27.427307959319602],[95.96169775729406,27.418108323620647],[95.96446872038241,27.418147154166217],[95.96537118588316,27.42710351053117],[95.96926069343404,27.42798079507118],[95.96952482687365,27.42359015954036],[95.9739881530752,27.421786607968027],[95.97529565815775,27.419484392285156],[95.97505123285714,27.417557818470986],[95.97068698005165,27.416924677580166],[95.97012410288116,27.415002804622635],[95.97395850597586,27.411462485493356],[95.98320148303826,27.411929361155757],[95.98446318482111,27.404546277991418],[95.99004256984682,27.40245257381004],[95.99339299480243,27.39648896027486],[95.99637368756015,27.39469952044712],[95.99807202087673,27.387989123376705],[96.01778097556532,27.36952158892853],[96.01765838337678,27.365013800274607],[96.01260946520448,27.365123110272304],[96.00743841837432,27.36072443051426],[96.00238966279706,27.360833414449445],[95.99640206713657,27.356458387331543],[95.99319445724316,27.35803075828296],[95.98910966223774,27.35659027778418],[95.98678394193345,27.345703901285443],[95.97644266035017,27.337472370716977],[95.97148007027667,27.33664343120646],[95.97091594354958,27.33290985480031],[95.9651991153871,27.327975035208524],[95.96762566170054,27.32576908745475],[95.9719974585578,27.327534956876477],[95.97546052326689,27.324554306667018],[95.9690273749036,27.322501159981528],[95.96266749133822,27.32323633537836],[95.96092924317861,27.316536641135166],[95.95495389065715,27.317772056021514],[95.95646562682126,27.312663223300664],[95.95994488186673,27.311045714177705],[95.9533310319941,27.309019046559957],[95.9465333508818,27.303883224933692],[95.94162454474093,27.305325054559738],[95.93746656668425,27.300918715258884],[95.93002756122259,27.30037062222189],[95.91789805730214,27.291436512187886],[95.91468110852303,27.29210530436122],[95.91328607070088,27.28923132924221],[95.90707890342875,27.289065904347797],[95.90596069224118,27.28231119188294],[95.90101693265265,27.284013380061104],[95.89711776731416,27.282258797016983],[95.8969961309331,27.28063882731895],[95.90385285112255,27.275669442288233],[95.90425642016226,27.27401326923254],[95.8999843210302,27.27434804483629],[95.89935673461649,27.268775420158562],[95.89346866150971,27.267666348285765],[95.89452785428145,27.26110060112848],[95.8940877660305,27.25701251539316],[95.89233539006644,27.255379219975207],[95.88122254458727,27.256002949204422],[95.8764009208431,27.25973040372218],[95.86927646407143,27.260118413439162],[95.86373185193207,27.266539228855475],[95.85633368028998,27.271154611710372],[95.85372666333427,27.27929011157901],[95.85921013613539,27.287316037129266],[95.8504022311314,27.28668533034727],[95.82322426006415,27.2789664559444],[95.8152806053304,27.27863624520295],[95.80506268489349,27.27304745051587],[95.80543470779538,27.275890425259718],[95.7993515143207,27.27664543731572],[95.80252651896257,27.283038872469184],[95.80079337862365,27.284362386036392],[95.79944118145741,27.28243483779252],[95.79512311193899,27.282626532990697],[95.79085810410777,27.279293911997755],[95.7878082240052,27.278741576456163],[95.78808241138947,27.27681943343626],[95.7804907111941,27.272554866715698],[95.77948806916619,27.269846831271206],[95.77515995019468,27.270502572272555],[95.76508374528207,27.26735899357108],[95.75676567543282,27.268739840555167],[95.74760388002097,27.265841758621118],[95.74201793010718,27.26675377013701],[95.7360846636568,27.263354517218332],[95.73459980508598,27.260483319174003],[95.7270391353955,27.25974369235571],[95.72011208161092,27.249572974577625],[95.713690610448,27.250335353703022],[95.71189036865229,27.252940162666867],[95.70778706475875,27.250152707044403],[95.70141493356282,27.24866987219791],[95.69227048192417,27.25330756120748],[95.68143980805556,27.251836900015874],[95.6759343157502,27.247060344762446],[95.6322469015755,27.229778209386],[95.62921328547115,27.23142543381328],[95.61894065134526,27.23258055354236],[95.61764847691134,27.231050854115214],[95.61544250922096,27.23170498432659],[95.61210592820217,27.230310474092505],[95.6105261725031,27.227697586971278],[95.60826988658037,27.227661234590816],[95.60372741161581,27.224317035616583],[95.59886690609115,27.223003122425354],[95.58747961990285,27.223036666907554],[95.58445033816973,27.224985186734628],[95.58288934109041,27.228603747094823],[95.58036574079365,27.227908051125045],[95.5781631956845,27.232162525973095],[95.57446719333065,27.234453594209327],[95.57717648168486,27.238168259081235],[95.57510592604041,27.23987316858809],[95.57455404874055,27.24373563129674],[95.56421415146112,27.24476490223047],[95.55798686462158,27.249075992572482],[95.55344306464195,27.248951891075812],[95.55089748616345,27.25054195448512],[95.55185509115466,27.25324538266588],[95.54813855780499,27.25403756471315],[95.54841404594978,27.257413000983792],[95.54502922540028,27.26008248609364],[95.54193474394384,27.259110498104228],[95.53701923816763,27.262600178269487],[95.53505577428145,27.261651299506],[95.53442731650193,27.264683183268573],[95.53254640329878,27.26156396140955],[95.53018845323875,27.261449588030708],[95.52980205729234,27.264635098447382],[95.5277986417322,27.26317624628617],[95.52529363746017,27.263815201853372],[95.52187353917111,27.260067501390203],[95.51695787259646,27.25760911866018],[95.51137932659724,27.262004293307985],[95.50908173254449,27.262133255270626],[95.50458177843556,27.249457985109284],[95.49953896701054,27.24627640535394],[95.49199581895967,27.245634925122594],[95.48417101852452,27.241345088503245],[95.48283383220667,27.236613012103742],[95.4787526331573,27.234156841132652],[95.47956749225658,27.2310562385136],[95.47736263398559,27.226852306784885],[95.47138258237688,27.222813494821487],[95.47234830185,27.21902692935397],[95.46745177298419,27.218412051784142],[95.46706407717554,27.213462252837978],[95.45748617134427,27.208879131248203],[95.45580091480329,27.202621411300953],[95.45832744091292,27.200277978706307],[95.45905044907104,27.195525902504073],[95.46237012199951,27.1944680007975],[95.46007674553704,27.19143250183175],[95.46650750797497,27.18173571695251],[95.45942880329903,27.17578835753591],[95.4613290248909,27.173382012530624],[95.46461258644328,27.172305993714648],[95.46542011169659,27.166452818209553],[95.46242465961873,27.16180695454889],[95.45322482235123,27.157430806381797],[95.45955806458022,27.153835241271207],[95.46212244210265,27.149754395635274],[95.45738677275811,27.144229524445905],[95.45647612989333,27.14064711870095],[95.45807303622783,27.138051529420444],[95.45317956253227,27.129530325551606],[95.44931652114632,27.129776109647914],[95.44920391822374,27.134690263905444],[95.44431201747825,27.135311015944794],[95.4423224135156,27.13148538426553],[95.44464073619355,27.128889616646564],[95.44051022951656,27.12883745901105],[95.43951507314988,27.12601310898905],[95.42055258791967,27.12588077309633],[95.39844942267459,27.10881564905563],[95.38454718247417,27.105636090293608],[95.3818944538469,27.10037918498395],[95.38292289279488,27.098298881726606],[95.3745782786273,27.0927713957533],[95.37002567875113,27.09458537341776],[95.37110954375213,27.10088928867995],[95.36882542981853,27.102400907025437],[95.36366733669479,27.102644279734672],[95.36876473245142,27.10768956454085],[95.36481150919408,27.108280460221643],[95.35467191107017,27.10400616394779],[95.32917470317088,27.08775535447172],[95.31671454107246,27.08290890917525],[95.29995050283709,27.070144185719588],[95.29173676242665,27.066583773280048],[95.27622916903307,27.0522826778963],[95.2751425138648,27.05006632571968],[95.27758816015785,27.048416456787464],[95.2757522633302,27.04417339586977],[95.27703379811791,27.0424730514726],[95.27148646677816,27.041277856384685],[95.26329319537977,27.035166159203154],[95.25997193153492,27.035646309978954],[95.25834602488811,27.033916703281566],[95.25889381395511,27.030370336682232],[95.25648010097379,27.030508266688436],[95.24634302711584,27.023901567453834],[95.24374933936234,27.02615359704309],[95.23938150407548,27.036481753223413],[95.23292263874222,27.03757434502596],[95.23213667305573,27.04284995900221],[95.22923285812004,27.041615757851687],[95.23098920823094,27.039186760241304],[95.23022512370817,27.035798499376458],[95.22677223421631,27.03452405993175],[95.2234329016578,27.036159998478045],[95.21909591361951,27.032047580852716],[95.21530533573426,27.030258662320627],[95.21376410518442,27.031058321437527],[95.21108169622018,27.028745135692155],[95.20939005086089,27.03049246458438],[95.21052927454126,27.03106492615267],[95.2074250230078,27.030543284488804],[95.2071341610952,27.032434213489406],[95.20517915484743,27.032507512585063],[95.2045682573351,27.037810021977254],[95.2031258459581,27.035974288951962],[95.19656582673062,27.037083310181398],[95.19608377188452,27.03193944814352],[95.1946454837747,27.031319394633655],[95.19695943435214,26.996844251789145],[95.19518130279056,26.99460507271533],[95.19051112512176,26.99289305901429],[95.19177595394015,26.991244894146153],[95.1911578806853,26.986676194709283],[95.19299519954605,26.986459299134964],[95.19149272591086,26.98485697983234],[95.19556129285067,26.981841905027768],[95.19768606900904,26.98301560021048],[95.19992649876869,26.980625105202385],[95.20065358887142,26.98254652643253],[95.20235324989801,26.982024898142438],[95.2046754434165,26.979064267584036],[95.20378195927196,26.977251499101325],[95.20127357733443,26.977086502196357],[95.2016046918566,26.97388269310034],[95.20359601609302,26.973809636782935],[95.2032130597958,26.971485319848547],[95.20502740064985,26.969382164768597],[95.20630753406573,26.969872136727417],[95.21129571624337,26.966275895984396],[95.2113381355894,26.964324260414326],[95.20871913061622,26.963790191864966],[95.20787408183517,26.96106393637001],[95.20492763016115,26.96109057504828],[95.20324497693785,26.95774471817216],[95.20204993014906,26.9580646395328],[95.20261051481897,26.955723140869324],[95.20904788795904,26.952540305573503],[95.20689681002747,26.951431296828037],[95.20905771642656,26.950621397549504],[95.20956526096884,26.948095042650806],[95.20761116651109,26.947537253398032],[95.20667874758553,26.94198849813956],[95.20848585879817,26.940483626679857],[95.21216686467666,26.930111922020178],[95.22167368142958,26.928463047307567],[95.22606678363043,26.92655045001559],[95.22604053934938,26.924290583217086],[95.23004047230657,26.922632624686603],[95.22948707954883,26.920698855068263],[95.23190637286469,26.919707474415166],[95.2323545693094,26.915960230905696],[95.22856703850954,26.912946867214796],[95.23022694459323,26.91173798973048],[95.22878336360975,26.908339730640648],[95.23220313581035,26.902831895248898],[95.2299056809965,26.900666813610115],[95.2287308570814,26.895830831447686],[95.22666187618366,26.89480980528244],[95.22960723281135,26.891135556752793],[95.23026170400485,26.883691279453185],[95.22806234881325,26.880765351064387],[95.22103004032515,26.880571874241827],[95.21486179974922,26.883608420919657],[95.20866372971601,26.882337576339648],[95.20806917794856,26.879024475614184],[95.19954674137223,26.87097118182],[95.18599220488225,26.865730286941368],[95.18153048666508,26.86126527076989],[95.18094699495543,26.856032902945852],[95.18508958307466,26.85442615863774],[95.18695583936562,26.84779176628847],[95.19362754433577,26.84524924423883],[95.19344310673321,26.848157186116847],[95.19996718885778,26.844525717629026],[95.20292745751918,26.846351421411352],[95.20350046229622,26.843789261185893],[95.19804206866121,26.838873109462586],[95.19698221922101,26.83610000384975],[95.1981050279862,26.835125865134863],[95.1967091358662,26.83049509079501],[95.1993491066198,26.827915660686635],[95.19731889611138,26.82258347225182],[95.20003128634823,26.81870746422305],[95.2001504011583,26.81417052357875],[95.20473052541475,26.804698077517763],[95.2087466505049,26.80357206333086],[95.21199785474079,26.799493264841296],[95.21169370225357,26.797916819379715],[95.20748865696758,26.79792539263351],[95.20827975742424,26.795090723051068],[95.21476487961492,26.7901109669967],[95.22441794928261,26.788289159675948],[95.22867895242427,26.785507394591477],[95.23285097204719,26.786853841855],[95.23830529541566,26.785762365845375],[95.23924967361258,26.784394288708498],[95.23737620295158,26.784238781614597],[95.23780463646004,26.78266040162631],[95.24072110326821,26.783734222319048],[95.24248709230208,26.782548249419747],[95.24192462925494,26.780866690024393],[95.23539144629822,26.779029904258834],[95.2351425599639,26.776659234412335],[95.23213119512914,26.777668781762788],[95.23235677197847,26.776142190501968],[95.22880306815551,26.775341409827117],[95.22784144859334,26.77117716320099],[95.23250354771272,26.768204300845028],[95.23108771748501,26.765054996769667],[95.22435637336312,26.76166238578203],[95.22079332795956,26.75608337805187],[95.21647446882203,26.755630964921654],[95.21485047019686,26.748158863088964],[95.21595858881223,26.746366105149885],[95.21943709017116,26.74582060549157],[95.20990026160291,26.72898560219981],[95.22205604034711,26.7223623756535],[95.22696787111549,26.71609912269497],[95.22575881869312,26.71025635115774],[95.23034331594842,26.709554642158224],[95.23282005383173,26.705791937482644],[95.2304798787362,26.70083212156995],[95.23143446987963,26.697262799895334],[95.23018262980194,26.694002494052356],[95.23391968067268,26.68245856965871]]]}}]}