{"type":"FeatureCollection","features":[{"type":"Feature","properties":{"shapeName":"Chandīgarh","shapeISO":"IN-CH","shapeID":"1811400B77692474244036","shapeGroup":"IND","shapeType":"ADM1","displayName":"Chandigarh","coverage":"context"},"geometry":{"type":"Polygon","coordinates":[[[76.83785601377225,30.754532760003606],[76.82648464662908,30.763519513077036],[76.82425554732012,30.761314576148447],[76.82002176762313,30.76107361877199],[76.81779296655488,30.75465674556878],[76.81501363565968,30.752981503025577],[76.80502107647641,30.765274799242118],[76.81911822324574,30.77294274619412],[76.81966812874357,30.774957438592857],[76.81733775247116,30.774913429533306],[76.81850242272859,30.77795899263694],[76.81316800648426,30.780191142286665],[76.80248745457436,30.77570362063335],[76.79750727099601,30.77243903138413],[76.79798860000335,30.771329365104137],[76.79149587357377,30.76897699637429],[76.7913264396331,30.767517382547712],[76.79012625088762,30.770848505613312],[76.7826404216401,30.770787388909003],[76.77928838331023,30.777995148849303],[76.78699886414232,30.77958294168464],[76.78275468375097,30.789230203144243],[76.77540681147657,30.79062834023525],[76.77148161745271,30.795266600596648],[76.76168881035102,30.79152455911813],[76.75875159515473,30.78783268701824],[76.75168437364306,30.784293401978978],[76.75220683560894,30.780265943538478],[76.74364707582916,30.776150782646177],[76.74537014425708,30.772654223430614],[76.74394136032299,30.76969890657734],[76.73062130658006,30.765065507285147],[76.72483343156006,30.765993658920706],[76.71165812964709,30.76166224844295],[76.70517414831681,30.756075735008157],[76.70842967524582,30.750394549536022],[76.70587253544963,30.74744709416185],[76.70661335001328,30.744696357799224],[76.70515164372233,30.742971970106787],[76.70671698954594,30.74050367193234],[76.70743655625819,30.739505441059425],[76.71415911485656,30.740976322803107],[76.72123958562034,30.730018019706325],[76.73106894337434,30.7236071766271],[76.73118042609772,30.717455983217462],[76.72867675941716,30.71593594686612],[76.73133598376222,30.71263239147269],[76.72905877787318,30.711826890511258],[76.72999745805627,30.706879237587305],[76.73907574338438,30.70579887669342],[76.7393269114395,30.700378075487404],[76.73786595344517,30.69985967367097],[76.73959525079128,30.698117403057402],[76.73929008949601,30.692905420181678],[76.74714151779278,30.69555269431115],[76.74773485952954,30.687595797048598],[76.74991215569102,30.688360622087796],[76.75241491058159,30.68454395931862],[76.75898589015387,30.686609032731965],[76.7639987032383,30.6864161738395],[76.77659479571058,30.670401333121585],[76.78121250098698,30.67434242967625],[76.78995438700409,30.675635960812215],[76.79632435954841,30.66771247008289],[76.80025327259753,30.670258567958573],[76.80305870404334,30.66641406305318],[76.80857098581559,30.667368860115392],[76.81179294270243,30.670263169899936],[76.81632240287519,30.671434954119444],[76.81659846504347,30.67293832339838],[76.82075846880115,30.67494805430321],[76.82182440163244,30.6784952540314],[76.82729681347746,30.68218687902152],[76.82921720314576,30.681027176125202],[76.83186307762739,30.68328314997252],[76.82760284524025,30.68772408279935],[76.82618915390123,30.6867312863767],[76.82513414727872,30.688300395520443],[76.82752877824676,30.68984834357252],[76.82736068728741,30.692022118534215],[76.83019377606419,30.693502431217087],[76.82857019964722,30.694706104922854],[76.83525277243565,30.701608784920776],[76.83552857588913,30.70363395929403],[76.84410770693974,30.708254630067426],[76.84832869283044,30.71451563021111],[76.84674633291533,30.716937249959674],[76.84942382809501,30.718326857094127],[76.84500266252468,30.717247982861053],[76.84355086195636,30.71926812041541],[76.84603998760744,30.722340156841575],[76.849380793403,30.72344579985179],[76.84637197798702,30.72973225935171],[76.84825647636644,30.73038209556407],[76.84747820924194,30.73146432845715],[76.84327039265328,30.73117473548413],[76.84193853334506,30.73277991970893],[76.83722370850836,30.733495668527073],[76.8314779797466,30.73956440261288],[76.836838970852,30.742714166449712],[76.83492305838706,30.741888270559883],[76.83340684951115,30.746605278363678],[76.83381799045038,30.749879690749747],[76.83785601377225,30.754532760003606]]]}}]}