{"type":"FeatureCollection","features":[{"type":"Feature","properties":{"shapeName":"Dādra and Nagar Haveli and Damān and Diu","shapeISO":"IN-DH","shapeID":"1811400B51283975314925","shapeGroup":"IND","shapeType":"ADM1","displayName":"Dadra and Nagar Haveli and Daman and Diu","coverage":"context"},"geometry":{"type":"MultiPolygon","coordinates":[[[[73.2106581122849,20.120451386782353],[73.20326536826377,20.119519914427944],[73.19769742687649,20.126241485117465],[73.18989024869227,20.127229811075367],[73.18724172328218,20.129372357429556],[73.1848964421626,20.14461161631582],[73.18563334635985,20.15576018015805],[73.18854795545198,20.15851352048835],[73.1899221065455,20.164185113672108],[73.19039985307144,20.162366788554472],[73.2007306405356,20.16377662036387],[73.20616426851653,20.162528957833],[73.21467577618917,20.16971289929672],[73.21849602902154,20.1800328328148],[73.21797072478608,20.18584925792529],[73.20849836022094,20.18941998239245],[73.20695205418978,20.18804408728324],[73.19906341857222,20.194378558825964],[73.19197266838665,20.197351070862158],[73.19028379163505,20.19501871891072],[73.18201604720467,20.194307390795604],[73.18064242521888,20.192242983576282],[73.17819868155763,20.192563164027664],[73.17905322642953,20.197673452200398],[73.17699951419665,20.199248552397126],[73.17172301413534,20.19836255844164],[73.16897845163486,20.20293946391793],[73.16854263397478,20.20815199011603],[73.15743336828208,20.198268930266025],[73.15249889098537,20.203821161824862],[73.14782596806509,20.20065874114282],[73.1387731140427,20.20442839025969],[73.1377881831989,20.207505839553868],[73.13324475242683,20.205688170695193],[73.1334685173742,20.188522972755983],[73.13492592163327,20.18451962593546],[73.1392101426318,20.18439072313063],[73.14212401151215,20.177286032594957],[73.1362917121064,20.16995499786242],[73.13273365684424,20.16934475967436],[73.12866022642547,20.173357932505017],[73.11943262402914,20.168132486715763],[73.11973749966016,20.16396267850882],[73.1159182924668,20.16213899267801],[73.11506508518633,20.15885974254658],[73.11677848504691,20.155742353598573],[73.11531667724628,20.15181219309064],[73.10836795969028,20.157763195640143],[73.09966234225445,20.156144941226227],[73.09052043105137,20.16032188502125],[73.08729974707734,20.170245155588784],[73.07953886716452,20.17315987322756],[73.07383707230834,20.155542318025212],[73.07091809830219,20.155499305346893],[73.06049397677837,20.161815211386056],[73.06066311158007,20.166796573267217],[73.06289318196784,20.1696740037842],[73.06305728440731,20.17753301661797],[73.05979083845602,20.19385492549546],[73.05348141775177,20.195350386630263],[73.0490633468776,20.200779037193627],[73.05365650389221,20.20531309779593],[73.06021744119793,20.223259407479194],[73.06283136979145,20.223952050342092],[73.06368645544916,20.227557735707624],[73.07063300357376,20.231912727240612],[73.07123480564381,20.23001982729891],[73.08487808759904,20.228290812337477],[73.08760442058741,20.225085495068164],[73.0979147704805,20.22754191843805],[73.09941103496044,20.230174158838874],[73.09733088530875,20.23602675602697],[73.09809898440255,20.239270089497985],[73.10576692281944,20.245234787006726],[73.11392404421414,20.25588417246757],[73.12685865422483,20.25941689068021],[73.13082555433238,20.267763328318807],[73.13164709330414,20.2736630725752],[73.1368804077565,20.271392491715247],[73.14248506957767,20.273827021027934],[73.14294523697187,20.279839965275265],[73.14562136491561,20.286484021127634],[73.15172163266894,20.290518070193375],[73.15303629552766,20.28461477945875],[73.15815146085895,20.280234527755667],[73.16574217111084,20.28294793875436],[73.1671452560413,20.288474268030157],[73.16407139181896,20.29749999224916],[73.16673388154008,20.305478556841862],[73.16617528124864,20.309414511321055],[73.15885378530764,20.30845306278618],[73.15140779274968,20.31719143979193],[73.12936717629954,20.31743167434618],[73.12628388605494,20.30878730723537],[73.1264418997134,20.30480055803087],[73.12483814013162,20.303936658215434],[73.11716897551436,20.30531829996556],[73.1134924019235,20.303750856843877],[73.10808275896063,20.304314877257394],[73.10382738376421,20.301338144256228],[73.10142423047907,20.30279311807459],[73.10404499525188,20.314214726069405],[73.1088189184545,20.323750111044884],[73.10911417043388,20.331882288263078],[73.11178021568692,20.336915065275985],[73.10907723260769,20.33845090587692],[73.1076043342066,20.34339079932624],[73.1046878287709,20.34600992146921],[73.10543914464021,20.349781117418516],[73.10237386292212,20.35360156661178],[73.09934235157044,20.354269592649334],[73.09677450116112,20.360343666237927],[73.08998591728769,20.358357598032136],[73.08903343089696,20.34921010532277],[73.09084316788523,20.344793755438403],[73.08489561552683,20.330957438835124],[73.07760629364603,20.322948061194136],[73.07104339441972,20.32474182074715],[73.06726214194543,20.329407791643803],[73.05217284008074,20.324235158009877],[73.04824715378014,20.323641761872107],[73.04257754196729,20.32502107290824],[73.03826321932193,20.31729137849011],[73.03468771877694,20.291360887147214],[73.02632087939094,20.290317448726856],[73.01615312806602,20.293552604816654],[73.01722933582757,20.308946437506926],[73.01234889039857,20.3091377407146],[73.0124766919174,20.31116112114679],[73.00774567854097,20.312422606888042],[73.00691316305479,20.3114145023498],[73.01001578684097,20.30778672846561],[73.00980307386654,20.30415350371029],[73.01186109891108,20.299620470418752],[73.01011703056673,20.2911022256191],[73.0055472809535,20.28889964697806],[73.00113158791987,20.291642395249134],[72.99364263792506,20.292431172652243],[72.9882725567673,20.291065353138407],[72.98494498674914,20.288098730177083],[72.98128283561016,20.289770585270958],[72.98068287867969,20.279878552649098],[72.98187903758277,20.276520153760536],[72.97953739553839,20.27336907049969],[72.97411772647864,20.27190273340053],[72.97327853022166,20.270271377052214],[72.9627732908277,20.271200817477332],[72.96147922274515,20.275062074982518],[72.95555461695238,20.28022346658503],[72.95491121390153,20.28429640809426],[72.95044134976133,20.285685167162622],[72.94860279032721,20.28799755510309],[72.94667332497957,20.28778252467474],[72.94147748464758,20.29327819619625],[72.93966121331397,20.292718189149436],[72.93694419675343,20.29469690490893],[72.93378844839796,20.293672155746254],[72.93145011844204,20.29500449642426],[72.92958560757768,20.28923915845161],[72.92683151934195,20.2859495968779],[72.91999932495642,20.283244171598675],[72.92010785312081,20.28164667726097],[72.91697149849406,20.281256717404325],[72.91662520603687,20.275702694945004],[72.91220701299183,20.275463615834948],[72.91186488242936,20.268954090804453],[72.91791163215126,20.2615187159304],[72.91884773327119,20.256993097820903],[72.92389998329489,20.255345993630183],[72.93086148477572,20.242743971705963],[72.93713057381866,20.243234336742105],[72.95396352631106,20.2368835924543],[72.9580467348917,20.23399308401443],[72.96038838771585,20.229368124319404],[72.96563935855514,20.224765397524504],[72.96647150573209,20.222444722260036],[72.9647570916736,20.21150221742479],[72.96317906972298,20.208528501948418],[72.96161476684344,20.20875236311854],[72.95993579581446,20.19994843107152],[72.96266953271744,20.1824182877359],[72.96723929131383,20.18317397027139],[72.97649716513858,20.180876532402227],[72.97756909691935,20.179392552142797],[72.97342887047101,20.173154877221048],[72.97401672350136,20.15830214708457],[72.96323328754197,20.141170346495862],[72.9604446671684,20.13402639549916],[72.96148405837634,20.131217141517087],[72.96439200915559,20.12595439848203],[72.96868623289478,20.124191057884506],[72.9712096894611,20.11541130141064],[72.97710738891445,20.112686394571604],[72.97961185060407,20.11564795910518],[72.99249566358041,20.11766868289225],[72.99579323346133,20.13254756167695],[72.9949052847356,20.13762901332554],[72.99819388134513,20.142788619478583],[73.0037219546018,20.139973395818746],[73.00608969989172,20.135490718774477],[73.01146013947728,20.134606660107472],[73.01261023097595,20.129552818147786],[72.99990961413046,20.122469490232493],[72.99878855708008,20.119074717502983],[73.00130682318067,20.11167468657601],[73.00840911042944,20.108189369071294],[73.01317734370302,20.10095069463079],[73.01412893716832,20.096209169044084],[73.02205515919572,20.090040718954924],[73.02345134147153,20.084643342801403],[73.0286882878126,20.08148676742447],[73.03961630851526,20.06708978826351],[73.04501107447874,20.065215150404903],[73.04782396553463,20.066318915799254],[73.05177945613974,20.063682525816503],[73.0526971561694,20.06446101129011],[73.05251069915406,20.0894379497859],[73.05401257990117,20.094946120063636],[73.05585257484312,20.098996269262575],[73.06429430048615,20.098514077299093],[73.06798605740198,20.096415825363792],[73.078607890035,20.094470118858663],[73.08558617833351,20.090664068408465],[73.09655968253566,20.089044957458515],[73.10371219099868,20.089530848493197],[73.10688238156898,20.084514878142684],[73.10594428349415,20.08119229559573],[73.10705795549461,20.077913506860956],[73.11202786773602,20.074188979057837],[73.11521139020341,20.07645562498617],[73.1192789959459,20.07507801198586],[73.11962179754987,20.07872354506046],[73.12493158648071,20.077875859152197],[73.12634997241543,20.082694695752355],[73.13141276955888,20.081313150242913],[73.13419716695229,20.08580996811366],[73.13715059943438,20.08597017004738],[73.13782776925851,20.078673416432725],[73.13945894542275,20.07801293520862],[73.1422965365557,20.07948686521255],[73.14357573123209,20.075813325301503],[73.14672307135649,20.073382129569016],[73.14962799032168,20.0747615563216],[73.14959949576084,20.078207104005966],[73.15503387922497,20.075176374805388],[73.15299736523822,20.071941727792883],[73.15601442988344,20.065493632074062],[73.15756084101751,20.06544155428357],[73.15721991509584,20.06279045050729],[73.16054354779807,20.06331000026786],[73.16406207808609,20.060492393502432],[73.16614131594777,20.05470438992384],[73.16845578305649,20.05543079410515],[73.17085165549625,20.052071923675122],[73.17762224521623,20.051096596614407],[73.17887755458752,20.047146503428984],[73.18359694735742,20.05030079866653],[73.18862497430952,20.05087406479731],[73.19230409192926,20.049487504853765],[73.19276298461406,20.054270500324076],[73.19022728760369,20.056564607315313],[73.1885550081253,20.056239324036042],[73.18748804851963,20.05875081975323],[73.1886890906646,20.069884824791107],[73.19036623092703,20.072718942085025],[73.18929291843567,20.07734591739746],[73.19289216594517,20.077508411943803],[73.19730600036446,20.07556140162302],[73.19958057329141,20.07774672915519],[73.20433503539171,20.078717157276635],[73.21066490893836,20.085810519879836],[73.21315384234998,20.09103286835736],[73.21259985041596,20.100149306075412],[73.21509694232697,20.118060404744625],[73.2150932466579,20.119154293263016],[73.2106581122849,20.120451386782353]]],[[[72.85555080611327,20.467484334508974],[72.84094190619457,20.45821336862019],[72.83240218064222,20.44638675639071],[72.82774189252643,20.431666591152663],[72.8289535545547,20.416548467239963],[72.83092644446313,20.411019344408626],[72.82788479113195,20.40546882032553],[72.82778552819136,20.388337940183828],[72.82173847483885,20.373204740170582],[72.82123644146087,20.367663040128463],[72.82768340052333,20.36651039425013],[72.83601438006154,20.37321655260257],[72.84430272914958,20.374843175724724],[72.85620345013348,20.371933531262922],[72.85819902879106,20.37394384449589],[72.86426298214899,20.375094651257648],[72.86575301142256,20.3721648131295],[72.87702808815041,20.369711541109453],[72.88303400225617,20.372216649391355],[72.89073783914841,20.37255161915002],[72.89156296419478,20.37555514873827],[72.89665760032685,20.379774579698037],[72.88696686340096,20.385356611901255],[72.88717227486879,20.388082111848572],[72.8836942927361,20.391129159554207],[72.88282652556151,20.397752839925264],[72.88514397867026,20.39778047056877],[72.88777239529264,20.399931034837667],[72.89194401965683,20.399066467105953],[72.9026568507298,20.405698150775635],[72.90335636973988,20.40968995904331],[72.90183451585075,20.410119325917496],[72.90411385254365,20.414881311008124],[72.90048242738065,20.416775399501304],[72.89796314977701,20.420512898004695],[72.89326449910703,20.421633379341774],[72.88925849713179,20.418938563997305],[72.88173950028734,20.419385758588447],[72.8802652651931,20.41692186939777],[72.87539358013477,20.4167170595225],[72.87182023464814,20.413793850325735],[72.87025009541415,20.413755690392104],[72.86849209689473,20.416304661573914],[72.8626018633397,20.41669980343871],[72.85732146279337,20.41882703707105],[72.86115644350483,20.42750320575035],[72.86513939111659,20.428987087394024],[72.86987194959532,20.43942294608569],[72.87490893544572,20.44547720603102],[72.87896730471044,20.44156479726267],[72.88777474079386,20.438150193502505],[72.89022884292865,20.438557075738643],[72.89539065687431,20.44421146554701],[72.88803530971845,20.45050825762559],[72.88806502508972,20.460613697680984],[72.88535901109474,20.462528626414056],[72.87732168453473,20.46166673170767],[72.8629703747271,20.463775677497576],[72.85555080611327,20.467484334508974]]],[[[70.92029679026379,20.742846013918975],[70.91965187085673,20.737050601691834],[70.91567907061436,20.732762288003133],[70.90989454900534,20.73211580914241],[70.89842078559789,20.727943309054666],[70.88860165965497,20.72699503370824],[70.883098006201,20.72447990078626],[70.87701646742306,20.714860488754034],[70.87605257332658,20.709123500014165],[70.88781832154072,20.709139629895663],[70.89322784682426,20.707493835357567],[70.89844912025858,20.704044145530943],[70.8989386014771,20.702468384259756],[70.89698980707952,20.70063070844948],[70.89931212097227,20.69951404571351],[70.90982365935302,20.70068681829779],[70.91061099946188,20.702112914230508],[70.91144574815986,20.69985932786019],[70.9139270773326,20.699570687061122],[70.91708611172537,20.701922275057232],[70.91475820851493,20.701922533873635],[70.91512317784522,20.70515770782473],[70.91829257250812,20.7095234627586],[70.9290212004554,20.7121616029861],[70.93775622424207,20.7102255477855],[70.93828354968689,20.707810684411502],[70.94441207843902,20.70573431301258],[70.94819850700598,20.705534752801338],[70.94901030824005,20.70673180090253],[70.95238772756996,20.703879642185786],[70.9597571432415,20.70700281485783],[70.9633946571855,20.70569408319287],[70.97023977203978,20.707069047776177],[70.97148124735568,20.703996516407997],[70.97552735731173,20.703840810137063],[70.97683132752366,20.702082808370932],[70.98004954382566,20.705862608723546],[70.98716609362617,20.710220326366336],[70.98938772254522,20.70920788525674],[70.99690301922901,20.713506863238955],[70.99823879968343,20.71676477526903],[70.99423957819198,20.71566075428718],[70.98747661157547,20.718900879619454],[70.98766504937602,20.722489474945963],[70.99399822602795,20.73105340523587],[70.99965010240214,20.73506967327512],[71.0074547796766,20.737382930228392],[71.00266405438492,20.741610717042235],[70.9993788327459,20.74188322107272],[70.99314216929143,20.735632893974305],[70.98455148231304,20.73211239647114],[70.98108358017615,20.722543936633382],[70.97409822123801,20.727722861227384],[70.96443081984829,20.729472328568583],[70.96337693791652,20.73342823682881],[70.96048845812102,20.736577492610476],[70.93858635380286,20.732287062634835],[70.93241429089542,20.736530404673143],[70.92667260904396,20.736916876664594],[70.92436955053938,20.740521737734777],[70.92029679026379,20.742846013918975]]]]}}]}