{"type":"FeatureCollection","features":[{"type":"Feature","properties":{"shapeName":"Delhi","shapeISO":"IN-DL","shapeID":"1811400B23625213884851","shapeGroup":"IND","shapeType":"ADM1","displayName":"Delhi","coverage":"context"},"geometry":{"type":"Polygon","coordinates":[[[77.20984478864816,28.857866895645454],[77.19768253394906,28.859257716696572],[77.18140388780107,28.857536490399713],[77.1753801645948,28.858351822478877],[77.17304045841986,28.857260482747773],[77.17208239977947,28.84993935374348],[77.16592489137628,28.849101295044264],[77.15684427312337,28.839062783647524],[77.15773012158796,28.836717764644487],[77.14380517018051,28.83831291765975],[77.14239630099792,28.8388884227867],[77.14165383802572,28.844670123900674],[77.14529005120919,28.853667938878083],[77.14197493453584,28.856272719099753],[77.14252525595359,28.859739764625928],[77.14029918576378,28.8620888378898],[77.13220085371451,28.86362656710744],[77.12546416282007,28.85989253209918],[77.12488042676867,28.85766281641068],[77.12091150185846,28.858343381346202],[77.12081125526264,28.859969312271733],[77.10980409837333,28.870101073806556],[77.09490344990486,28.871352635588536],[77.0875354248254,28.87545525779977],[77.0868058104567,28.88101280323115],[77.08239546599229,28.883807228409715],[77.07762811486428,28.877205603657067],[77.07922539579629,28.871980275200105],[77.07458988321602,28.867544278809884],[77.07173330798616,28.8689592472785],[77.06922736048304,28.86721684733462],[77.06095830720729,28.87106793030986],[77.05779630657744,28.867781860964833],[77.04567452457519,28.847484259374195],[77.04511129706172,28.840958093432327],[77.0418204223246,28.837884656682196],[77.04257400554174,28.834234862538782],[77.03999808736282,28.831827153406966],[77.02331815748919,28.839393770871755],[77.00650532007266,28.840560843001043],[76.99830270080541,28.83834000546338],[76.9947920972515,28.839547980719306],[76.98689620414476,28.833790928522404],[76.98588285958851,28.82942985931096],[76.98018472896034,28.82145725530508],[76.97665355668134,28.822248922356657],[76.97294277434617,28.826768168926378],[76.96711809624729,28.828061599009413],[76.9637939281491,28.82291647410183],[76.96492097606412,28.820200139384582],[76.96173991138737,28.814917087367768],[76.95080437897228,28.81829587105762],[76.94570722306584,28.81037942497498],[76.94625901233078,28.806653288380026],[76.94213552329279,28.798458999655296],[76.94627038769723,28.797940641751687],[76.95382417090273,28.790944740845376],[76.95003488928641,28.783301266277263],[76.94978657158568,28.777096415256345],[76.95587152665664,28.76738251243393],[76.94668871246378,28.758602232117337],[76.94459058752327,28.7540581376415],[76.95857976667692,28.74297289384682],[76.95593684316097,28.738220876746578],[76.9600076963132,28.732746769938856],[76.9592556312489,28.728574249304565],[76.94823396566944,28.71279734013639],[76.9677892428674,28.699606999187058],[76.95799224242997,28.684606171393135],[76.9558865635562,28.67123165367208],[76.95341594409828,28.667304203872625],[76.9520772818484,28.669575156438796],[76.94875477832844,28.669804630083515],[76.93501173666432,28.667517622952424],[76.92502484764718,28.6499242695271],[76.9381323743669,28.636345194126108],[76.94515306045189,28.63303317465667],[76.94372785630418,28.628238452078143],[76.93452705424605,28.618308632123426],[76.92014960705693,28.63146721073728],[76.9142277653803,28.632311490741245],[76.90625175153338,28.62378190026767],[76.893198358191,28.631655753274813],[76.88777656371725,28.63162349547427],[76.88232683612979,28.622755838727183],[76.87728144474329,28.608790247998165],[76.87170756189869,28.602653445231354],[76.86783735285506,28.59039366919885],[76.86427451226736,28.58575925643067],[76.84526165221098,28.584369265170388],[76.83955903180303,28.582472679811623],[76.8389449587462,28.573029191069555],[76.84088145341089,28.57085180651219],[76.84249316487958,28.556084311533755],[76.84654032406787,28.549544468907264],[76.86472586000211,28.543328991998884],[76.86745025173116,28.535202676249337],[76.87317757850435,28.532626698191986],[76.87382774497104,28.528460005133578],[76.87700488401,28.52440244819207],[76.88711065427525,28.520572019241673],[76.87960609425575,28.504748702302493],[76.88430914756894,28.501967277725512],[76.88392277677535,28.500748600912974],[76.89139347390193,28.500830165198437],[76.89752731439233,28.508341677608804],[76.90231658890481,28.508858047930648],[76.90798019368336,28.51373631620386],[76.9167562938347,28.510355318750737],[76.92058851043002,28.507034374860414],[76.9274882132092,28.510411156922416],[76.9334708573558,28.509705144504366],[76.9416505570069,28.5045564327376],[76.94877599563716,28.504039229831957],[76.95601614284098,28.506155048176684],[76.9780925562569,28.52132262593089],[76.98274458885521,28.517125782096972],[76.99038431568059,28.513512819614707],[76.99525377561197,28.516908063470442],[76.99655491433413,28.51974929219483],[77.01025990695604,28.51467366760714],[77.01703338925127,28.520938973269505],[77.01501671545589,28.52384526552509],[77.000470452367,28.53206506363144],[77.00663455709932,28.54134537631232],[77.00972658705335,28.539816586331888],[77.0135644953743,28.540486247652446],[77.02437926546911,28.532765444486394],[77.03194866319089,28.531290771581286],[77.04835145291788,28.520885308875098],[77.04656852255606,28.516630713657328],[77.0599457253207,28.51231016604341],[77.06733227635631,28.512138193759736],[77.07224121454946,28.520246324776274],[77.09468073778301,28.51381359847815],[77.09862733866007,28.51149184473349],[77.09600438648953,28.507217070003392],[77.09805307085176,28.504843557305986],[77.12068900173902,28.49628341152401],[77.11876720890223,28.4882643593094],[77.11486253778938,28.48150688595629],[77.11300634622286,28.471313202848727],[77.11089242350972,28.47134370540253],[77.11690756511008,28.462790399203808],[77.12184586473832,28.45851878108132],[77.12380553414073,28.445379343082013],[77.13228332893905,28.439147720911162],[77.14110378520421,28.436718527337973],[77.14843087405617,28.437267404073587],[77.15461602811226,28.432365372497543],[77.16225891251585,28.428955008463024],[77.16590156751823,28.425691075189366],[77.16516149675961,28.414310312755525],[77.17105852067988,28.40921884019223],[77.17142319626106,28.40630020591331],[77.17439688575281,28.40469199328046],[77.18437307673325,28.41044591990783],[77.19053323516654,28.407218966242226],[77.21600635294486,28.411479313897118],[77.2166056594951,28.40974162566184],[77.2285210814086,28.41392755685237],[77.23841826106826,28.420842110472567],[77.2493021053202,28.424198572061865],[77.25264316983055,28.432924559413333],[77.24882884228579,28.432935539802635],[77.24920680933991,28.44519700144583],[77.24656468173133,28.452722274101053],[77.2425093972813,28.45616465426214],[77.23441856167307,28.45472762408438],[77.23291482231163,28.457931161143946],[77.23558428565433,28.471128153149156],[77.24329706617351,28.47883489419228],[77.26944763584697,28.486655587634818],[77.27206215643025,28.490814044309587],[77.27653366448739,28.493302884551568],[77.29026055264606,28.49655561136847],[77.30059938542188,28.494189475928795],[77.30078142092937,28.489866321244],[77.306524288557,28.489403786335696],[77.3140954927908,28.483622531452525],[77.31837101180918,28.48738311315873],[77.32682881549916,28.490123494747316],[77.33611195354297,28.505210233717094],[77.3454328208287,28.513265547953917],[77.34736061800483,28.520573512598936],[77.3345397113529,28.525029715682262],[77.33015537311599,28.53231004747018],[77.32471198224452,28.53494372646922],[77.32088456175451,28.540925648016056],[77.30378224672924,28.552458945464807],[77.29996047215077,28.55978439327714],[77.30122161697817,28.562723231909963],[77.29708211996181,28.565997212060815],[77.30003858246137,28.575813400190963],[77.29836433028261,28.58016575818577],[77.31015583139931,28.590474959799376],[77.31338693852561,28.59661654440138],[77.32515707411163,28.59808018138607],[77.32834459677699,28.600183969008388],[77.33675482658785,28.60184287835565],[77.34166408008969,28.606085095936958],[77.34240405203359,28.60891377569186],[77.34146170852078,28.617007627892697],[77.34255049718784,28.622002448703498],[77.3306156662743,28.63142165928252],[77.32368520248488,28.634346566283394],[77.31625271519894,28.641243957564257],[77.31986639683844,28.651115476711666],[77.3207428974342,28.663518445506316],[77.32370869522617,28.66898941362393],[77.32358848536983,28.676743046535364],[77.33008284044502,28.678250643417126],[77.33290973893112,28.68198992390251],[77.33028946913004,28.690417071269124],[77.32325789815874,28.698605073483268],[77.32572492255892,28.70288408054536],[77.32443966245772,28.70652691871677],[77.3254132179351,28.708905105468915],[77.33106534314261,28.71313178586936],[77.32443871114182,28.71333275643449],[77.32205080226707,28.712132439137214],[77.31782548649669,28.714116116923233],[77.31508507421285,28.712744972027668],[77.30621662455532,28.71328673160453],[77.29861482819452,28.709765664138168],[77.2967689403043,28.704469478511037],[77.29150379135491,28.70618263927065],[77.28735133434394,28.71029475906557],[77.2862280575565,28.714563733885026],[77.28907578258413,28.716850134179516],[77.28881812240446,28.719597430127443],[77.29075440866004,28.722414047536986],[77.286263500586,28.724607911955893],[77.2764262178946,28.735479052330433],[77.27289611371248,28.736299332467237],[77.26080884318677,28.73419390235524],[77.25518075150637,28.739770166980392],[77.25454467421663,28.743593101822572],[77.25618205953613,28.74390556336057],[77.25916887341421,28.75003318428781],[77.2563553247915,28.756229718450527],[77.24876924176162,28.755308612928715],[77.23554905552548,28.76094489623176],[77.23586840211742,28.770762822868885],[77.23177835106928,28.770820680930182],[77.23143621691352,28.77444442475166],[77.22185450042883,28.777420215443488],[77.23413416493558,28.783748060890307],[77.22852170034784,28.786562628867078],[77.21332498243306,28.785546707825027],[77.2026064686176,28.793200977911177],[77.19939122394258,28.798060813237427],[77.20146696017127,28.81237137216281],[77.2189497242958,28.80826833016189],[77.22024304767497,28.819172353956002],[77.22437969433692,28.82535188189652],[77.22298440408815,28.833412408404257],[77.21663513950779,28.8415356219629],[77.21730667599672,28.851365216048315],[77.21422202031289,28.855848005682308],[77.20984478864816,28.857866895645454]]]}}]}