{"type":"FeatureCollection","features":[{"type":"Feature","properties":{"shapeName":"Goa","shapeISO":"IN-GA","shapeID":"1811400B6111924962807","shapeGroup":"IND","shapeType":"ADM1","displayName":"Goa","coverage":"context"},"geometry":{"type":"Polygon","coordinates":[[[73.67538205174372,15.727022158467594],[73.68020085298129,15.725367602809577],[73.67875347571744,15.721797014570397],[73.67965094029698,15.720889972590319],[73.68282306494005,15.722211726457077],[73.68298124299025,15.720063987612694],[73.68657760241611,15.720579443024425],[73.68776233295216,15.72323813902312],[73.69024682509301,15.722124824309157],[73.68922709980332,15.71766838462924],[73.69403507903665,15.70606076800851],[73.69420112363377,15.701342208731564],[73.69737392380995,15.698349143316825],[73.69943305917221,15.699255026518964],[73.69760973696191,15.696645746932612],[73.69814416897894,15.692497793714614],[73.70045303688849,15.692476685745907],[73.7019920998035,15.690573629981593],[73.7051887978612,15.67710395320991],[73.71124697505185,15.665597002125741],[73.71377994567533,15.652686343857429],[73.71595376535666,15.650472358836758],[73.72296399774666,15.630800256643298],[73.72813850578561,15.627586615212596],[73.73431393288378,15.616099535062503],[73.73667682637284,15.615320394220415],[73.73754628597338,15.61705555934179],[73.73993791836502,15.606754475599356],[73.73812360535875,15.60871261229949],[73.73168053600142,15.607753083164193],[73.7340351371421,15.603667352943983],[73.7327487757064,15.59986996750705],[73.73442233258913,15.593934312994422],[73.73193634385501,15.590568885573765],[73.73476183468107,15.588856925367324],[73.73715538228087,15.584121503385939],[73.74164300162265,15.570696287597206],[73.74067842300991,15.568512845196954],[73.74157254405998,15.564271233408634],[73.74519789301841,15.56151648507656],[73.74898411048129,15.56252653570964],[73.7550391768061,15.546425213658836],[73.76756625351176,15.500723581213926],[73.76688543742591,15.497898000817719],[73.76532949337005,15.497809706813195],[73.76622943370651,15.494661684980526],[73.76814676910288,15.494633468584635],[73.76933352084829,15.49143322731682],[73.77580214997037,15.490629778765426],[73.7780212213858,15.493233030215995],[73.78112339960761,15.492376685481283],[73.78743842130768,15.494144255658433],[73.78798983507683,15.495585467483881],[73.78259456695515,15.497997288569737],[73.78510030694743,15.49738792641202],[73.78908868218015,15.500413156948435],[73.79158595285593,15.500492795152908],[73.80161979321974,15.495833324675973],[73.81002541377487,15.495810231424983],[73.81470270250742,15.491656969078091],[73.80971563873229,15.487082844243272],[73.80798184980975,15.472367256975854],[73.80266049147637,15.461615174587788],[73.79759472719753,15.460255742620177],[73.78963040851728,15.464836311482335],[73.78776086349407,15.463921088578513],[73.78790999101776,15.462499086469995],[73.79926985882697,15.454004325785181],[73.8013392502548,15.453982020106551],[73.80106740388017,15.452100171351685],[73.80314512628397,15.450351108150354],[73.80423299956773,15.454658103102847],[73.80857662166443,15.454436523160268],[73.81271401213144,15.45602399710802],[73.81496519113175,15.455404432201606],[73.8165226147129,15.452692008027467],[73.81950212259272,15.454353231586941],[73.83061526092263,15.453533098982023],[73.84080295933842,15.448088151780881],[73.84229475380151,15.448078442014115],[73.84341073986211,15.451127492505467],[73.84935113803755,15.452347217380058],[73.85639652869118,15.443925613433917],[73.8604178163993,15.441818025890777],[73.86327713508402,15.430968613411068],[73.86260433825873,15.429344202412492],[73.86518077925713,15.428882586951788],[73.87312523259317,15.431986419400875],[73.88179468834726,15.430978806303148],[73.87963146519304,15.433376983062466],[73.88058907826905,15.435064061717256],[73.88489826704256,15.432971991568886],[73.89150376078639,15.425640998815787],[73.8945518792927,15.419749100843106],[73.89715379920752,15.418614917652095],[73.90760950549671,15.417865429588158],[73.90947947452474,15.419668199303638],[73.91056088443007,15.425088736278102],[73.91835204385615,15.425943081729844],[73.92138953888592,15.427746841249462],[73.92197489549808,15.431377319327543],[73.92748391279264,15.43564717617831],[73.9353778197243,15.437163796562704],[73.93605647985343,15.431731618102884],[73.92605852089704,15.422500463582162],[73.92569864770937,15.416170614691762],[73.92940903298923,15.413436825979753],[73.9400864506771,15.410195428087155],[73.9398488912002,15.408639061964058],[73.9158661359704,15.404017115657782],[73.90668629430283,15.40896562352875],[73.90706191316076,15.404554517480802],[73.90315680456835,15.403485085402407],[73.89933768361327,15.40415983634571],[73.89219894812013,15.408686123525037],[73.88819042637053,15.406128945919292],[73.88745644529124,15.402422843846924],[73.88316063961882,15.398923811135715],[73.87487277112945,15.396460025512305],[73.8724263244375,15.396507852842419],[73.87038216039777,15.400726024562626],[73.86620644690241,15.402269074605506],[73.86151962165484,15.400857898399932],[73.8586559371578,15.39766104306472],[73.85417347863736,15.401149740709835],[73.8507837020824,15.401033507187543],[73.84904922864362,15.3987513807645],[73.8465651865587,15.398166606418927],[73.8430334016287,15.401708422840642],[73.84463087480015,15.404352758885961],[73.84424470702582,15.407626351609592],[73.84033149473123,15.410516675919572],[73.83466707158746,15.409494767165251],[73.8316315384783,15.4053619084429],[73.8285962461176,15.406968148808742],[73.82862716163811,15.403267076977452],[73.82604476840265,15.403047367403794],[73.82272449180627,15.40367518612368],[73.82309331670577,15.408361044159232],[73.8199484361686,15.41051683440085],[73.81719799239798,15.410546602895772],[73.81610282389578,15.40333822281119],[73.81094396361077,15.400269924686203],[73.80550991881151,15.39922220880611],[73.80390726505586,15.405575067454722],[73.79905774323218,15.408152285692273],[73.79487894312552,15.41438691862673],[73.78407924586288,15.413955922119184],[73.78299902442869,15.41151246587482],[73.78378356448879,15.408995452001491],[73.78685233885673,15.406823556818528],[73.78766419758297,15.40322486752411],[73.7914025528075,15.40044135176745],[73.7898875413859,15.397793072139608],[73.79147133231723,15.394346581433759],[73.80373947503213,15.395689901180486],[73.80600531094461,15.393869538576533],[73.80823808705803,15.377108817243448],[73.81247418710339,15.377167710705761],[73.81578854020879,15.373999206835716],[73.82079138289185,15.373667420228516],[73.8221434084799,15.371578536611523],[73.82738109233783,15.369817123830723],[73.82951945371825,15.369505055410707],[73.8304623092708,15.371145775378478],[73.833300069287,15.370330915984855],[73.83704190009338,15.363109300472562],[73.84174603946977,15.360307343612984],[73.85166036617154,15.361153549222346],[73.85217070447436,15.365078643223777],[73.85413951692972,15.366344262039801],[73.86226744128108,15.366620286529738],[73.8628552565822,15.367987466879006],[73.85986669368427,15.3700932433337],[73.87073266505533,15.371208387310535],[73.87441397815762,15.36997094216034],[73.87932378502168,15.363403857559595],[73.89488934310727,15.331785793219813],[73.9022534272776,15.311689372143473],[73.92555694206656,15.23323432578196],[73.92745054846466,15.230460189609232],[73.92696645623951,15.228610076029296],[73.9495973350016,15.144836668913408],[73.9490515545676,15.142359672436854],[73.94592172440473,15.142664753874381],[73.944182170993,15.14117759228392],[73.94500807577703,15.13973614001561],[73.94226253141795,15.136032684623157],[73.93596724211143,15.133906418523708],[73.93749301535014,15.13063339945367],[73.93991520213955,15.129759909315649],[73.94094916752313,15.120606061904502],[73.94049472868551,15.119093471206558],[73.9374048331286,15.118729888579335],[73.93537379617011,15.112139570736046],[73.93280288430229,15.113866906469378],[73.92586796486908,15.110026876076322],[73.91798211223227,15.108099767471117],[73.9219310092032,15.108127318767048],[73.92209312816253,15.106217966815246],[73.9250369432812,15.105710349341361],[73.92693771733697,15.096940752834229],[73.92459122977994,15.095705918229982],[73.92160364963895,15.090262195479838],[73.9164810220026,15.089208799754598],[73.91589256979596,15.086633799264966],[73.91227208162155,15.085231856664466],[73.91609092589555,15.085780383398827],[73.91709359846621,15.083870160950342],[73.92256619177094,15.087341486462007],[73.92552651522958,15.086547425594857],[73.93109517886236,15.084218742380713],[73.93184048500243,15.079127033654924],[73.93660686415328,15.078672883042898],[73.94141458467182,15.07500710269485],[73.95462535566548,15.07367862041563],[73.95393517643943,15.071146157327314],[73.96108129698248,15.068856218200768],[73.96279358293205,15.06660088070944],[73.96702908649608,15.065923579376726],[73.96648610880577,15.063399403550378],[73.96971940692305,15.060460919203424],[73.9714623182373,15.052642231107036],[73.97438512086316,15.050789248967824],[73.9794057627653,15.053562545255943],[73.97938768776348,15.056391931190035],[73.98194300487795,15.054901586293674],[73.98161574682332,15.05291748178733],[73.99012126542793,15.034104156034005],[73.98973058631425,15.03067762253489],[73.98560440861861,15.02949029254887],[73.98735938969703,15.027331946794222],[73.98533772845516,15.026452637527603],[73.98825284599376,15.025559226971904],[73.98894938708865,15.02041753359268],[73.99283357391809,15.018138672248575],[73.99549554710795,15.021547008333286],[73.99716622758515,15.021687259674973],[73.99928522757624,15.01879638335955],[74.00136117940063,15.01952910919221],[74.0027222707865,15.01655642091863],[74.00665401083384,15.017432618824907],[74.01294993165601,15.010490600544038],[74.01663538958506,15.01266988818314],[74.02132181508235,15.011528052679381],[74.02725989919763,15.005595450767402],[74.02709821232796,15.00402219646497],[74.02413106616471,15.002581733150166],[74.02745030790187,15.003053039639056],[74.03006406222224,15.001096735768392],[74.02799635244057,14.99833310170295],[74.03233921995245,14.999796749264858],[74.03488621148085,14.997211894215237],[74.03929784053614,14.98493684166961],[74.03527227325398,14.983610610121463],[74.04042281244455,14.98235360599602],[74.04311758761698,14.973025163502355],[74.04985287174966,14.959180820752605],[74.04772118485182,14.953931227467159],[74.04800539024812,14.950433260255902],[74.04474504295933,14.949938299411217],[74.0452455941171,14.94830707607814],[74.04333503201802,14.947649140559312],[74.0451580613775,14.945617519758468],[74.04396595657127,14.943775851397545],[74.04746510211378,14.934571188917285],[74.04611692490842,14.93402400636342],[74.04694509434526,14.930950547244436],[74.04404554191557,14.929843855070933],[74.04581713823349,14.925203560107066],[74.04256684758428,14.923840456605957],[74.04403020318209,14.917524702832466],[74.05190120037904,14.914838399152064],[74.0565283954581,14.914855376484102],[74.06042876364076,14.910608958342104],[74.06479373779341,14.909545483471508],[74.06667054030582,14.907279689278532],[74.06940705929122,14.909798396941307],[74.07115541888766,14.90764405644085],[74.07476892176243,14.909736513026905],[74.08097449901649,14.910550449708651],[74.08351896538066,14.907255190293807],[74.08339920378363,14.90231411118717],[74.08568785959928,14.900641739228085],[74.08802291878924,14.903098559742904],[74.09011871619487,14.903076243548814],[74.09440731558207,14.910685922071401],[74.10146552609312,14.915455503217151],[74.10463059087637,14.91256824574374],[74.1083482408319,14.913612414877184],[74.1095502926833,14.916663630888285],[74.11444993600821,14.91802352995446],[74.11981311540964,14.916564097561317],[74.12165701622645,14.918008719494749],[74.12050640460318,14.919862975565128],[74.12406074712831,14.92499220856217],[74.1296610314591,14.925136839739148],[74.13488005102035,14.921761098533729],[74.13998309987505,14.922895213956178],[74.14555964263117,14.9186153476942],[74.1532556129765,14.916807024630568],[74.16195468528721,14.911807932599327],[74.16625138747827,14.91658685158671],[74.165968307671,14.91862939684525],[74.16263292320819,14.926921983935062],[74.15860413277082,14.930262014907951],[74.15629561161096,14.938902292123561],[74.15431582353945,14.939874112140846],[74.15552920763811,14.942237267682634],[74.1542225873961,14.943270974657233],[74.15839326224103,14.949345065603957],[74.15922081543359,14.955622237489209],[74.16060916889171,14.955222259816278],[74.16344500202165,14.95815010040927],[74.17121201922447,14.956860916911447],[74.174600854345,14.958202446315166],[74.1792952200511,14.956719181524932],[74.17819739343395,14.953343713713263],[74.17955871389023,14.950469339136307],[74.19109349536335,14.944677631716306],[74.19459648479695,14.939610894160326],[74.19452375449657,14.936866812050276],[74.19149428860884,14.93271115487395],[74.20138210153499,14.925391948295095],[74.20911747558192,14.937825636668512],[74.21269080849216,14.940307441537493],[74.21169290507731,14.94357940320126],[74.21353419179664,14.947345011459548],[74.2173874226814,14.945622462598234],[74.22580242434304,14.950124433644248],[74.22964168373021,14.950168037337487],[74.23180386214375,14.953404152174846],[74.23282167761516,14.963784176228083],[74.23653845800153,14.966514505075828],[74.2473852009339,14.961592552251345],[74.24907327369336,14.958710446981248],[74.25243483596184,14.958763082619964],[74.25516681126851,14.97008463362724],[74.25893807178193,14.969730886137162],[74.26096165991008,14.976225218927063],[74.26437669619247,14.97856087881805],[74.25775961418151,14.988268729595497],[74.25217712547649,14.992716537996788],[74.25353406484915,14.997850770040804],[74.26790991303707,15.00167995358279],[74.26653528763309,15.006755276314252],[74.27229293973367,15.01391844369644],[74.28346881640303,15.02356557034482],[74.2833215977993,15.031501607171705],[74.28818203325534,15.036454806508496],[74.29655158824848,15.041243196535694],[74.29467022049779,15.049208413523408],[74.29031124349798,15.053648044876],[74.28956730369543,15.064859385749738],[74.28378625317664,15.066170235185544],[74.28078535551154,15.068852681705378],[74.27974920722183,15.088112427821988],[74.27529736328624,15.095982985728694],[74.27270271703031,15.097532494235045],[74.27639329894973,15.105052498178324],[74.28250200278185,15.106411167492395],[74.28292628966695,15.112798322680513],[74.28494398574513,15.11394966216896],[74.28425469225797,15.132831159713396],[74.28524582327387,15.136761273581941],[74.28367799810006,15.145002546295437],[74.28514557398312,15.14872976373377],[74.29118717905342,15.148587503010075],[74.2955080917397,15.150917648176103],[74.31743859449894,15.18378771184069],[74.30939912186372,15.197873833218619],[74.30868052623028,15.201832334925424],[74.31010670505009,15.206324936150128],[74.30580536845048,15.209432447410931],[74.30457753495045,15.216757587233134],[74.30140953896444,15.217271779113515],[74.29991749297307,15.219964323200797],[74.30167386194859,15.224378061376528],[74.2915601604577,15.23385280204575],[74.28675787654328,15.232847575348568],[74.28120084250014,15.236299916199286],[74.25960927140265,15.24106138597021],[74.25230164724626,15.25102025924217],[74.25475719477033,15.254107306398861],[74.25139839751627,15.25859097983875],[74.26086798988044,15.25986653413857],[74.27144733759043,15.280864010638469],[74.27616992926106,15.283210949481179],[74.28163172481608,15.280096105618563],[74.28749798952269,15.283563952332848],[74.29319733107984,15.28418875001371],[74.29431146571267,15.288846481383752],[74.30780161275968,15.283012897678448],[74.31947337473724,15.283123494165045],[74.32041219146421,15.28438307891112],[74.32621092531937,15.283416163959972],[74.33649918743629,15.294979120108835],[74.32449039103884,15.309946928206696],[74.31708562396594,15.329153085759316],[74.31728234423338,15.335201442365483],[74.32190243004526,15.343627341661001],[74.31610096620996,15.360005233842312],[74.31632877716937,15.36283321589696],[74.32326258448832,15.367711693663626],[74.30865927029403,15.37448472476066],[74.29876847046957,15.381972739752525],[74.28305670797822,15.382977558048102],[74.27593541776793,15.391622487568421],[74.27836086634012,15.405726828508062],[74.27438805801293,15.413618943427975],[74.27047812726407,15.415993657346142],[74.26884600966541,15.419133215409708],[74.26996537608643,15.425999250932241],[74.27695473612083,15.435243007404484],[74.27512557036961,15.436487170751509],[74.27742766049037,15.440525903281456],[74.27551326258502,15.449219261167961],[74.26403821189176,15.472390335529349],[74.25097302007642,15.491624031724239],[74.2523455254563,15.499307683845652],[74.25501587543617,15.502759915294984],[74.27132324970697,15.51053874059757],[74.27631819799532,15.514576622867429],[74.27853497062198,15.517506808658228],[74.27821644868345,15.522877244953603],[74.28176541838488,15.526164270745516],[74.28271563024124,15.531448161534241],[74.27798098856938,15.546139654182427],[74.26536574311693,15.558398413540338],[74.2632170996198,15.563966939082478],[74.26135695366938,15.564842115602422],[74.25839789953021,15.561727847640846],[74.2492772730095,15.567869899184888],[74.24525934320394,15.566636503647416],[74.25060098010654,15.577398734642511],[74.24884955006846,15.580331589185652],[74.26031417581282,15.592665779300615],[74.26007956460671,15.606622407840106],[74.26436482765097,15.615542445816493],[74.25865619212388,15.620812589803611],[74.25854376167784,15.623430559798662],[74.25378836083809,15.626768536162121],[74.24832145656408,15.622931987773972],[74.24422435913081,15.626137988878876],[74.25204156161527,15.654340744417071],[74.25050758675803,15.657287208118492],[74.24491767347722,15.658230546316325],[74.24305205588841,15.66246983673339],[74.23835024404694,15.663579665305473],[74.23946772939573,15.66464385306379],[74.2364214488425,15.668614056000264],[74.22985560673533,15.666410388422742],[74.22847561749082,15.664471663825895],[74.22466311981428,15.666285392001797],[74.22384481387927,15.669011874101614],[74.21808859099832,15.664374833372435],[74.2175657274855,15.662362746903568],[74.21499489826272,15.662564014394304],[74.21756458393017,15.658049877480968],[74.22202041009741,15.655544340444633],[74.21752102013046,15.652770511911896],[74.20519544362787,15.651065325279353],[74.2018213291999,15.656372141082203],[74.2041288945523,15.663713371743707],[74.18690993508402,15.667482510221959],[74.18619657842531,15.674256258274132],[74.19076335102172,15.676095173732286],[74.1909090451844,15.678981045205257],[74.18879552132327,15.680957638412675],[74.18199630948168,15.682241217911757],[74.17641856118644,15.680080977122785],[74.17167999836836,15.673852939171992],[74.16721296302302,15.671783084629528],[74.1644844659931,15.6535317440627],[74.15753392306044,15.654708329405706],[74.15442085546078,15.649934841462112],[74.14916335925928,15.652006772740554],[74.14118518765902,15.65113088768562],[74.13561275200038,15.648404924818859],[74.12736090415723,15.651156667509344],[74.1183538327733,15.652040596990107],[74.11399164609296,15.648550286063347],[74.11308477435576,15.646045585892717],[74.10996970620796,15.647004010953657],[74.1040160839332,15.644995028545706],[74.09828399878396,15.64038545696458],[74.09477212591052,15.641685844001406],[74.08590269708934,15.636932164149],[74.0786673217363,15.630841826119994],[74.07008169766286,15.628305063889199],[74.06712695992864,15.629450332352437],[74.0490929733761,15.624141504277894],[74.0309576793174,15.622693275765332],[74.02774068562253,15.616662588892233],[74.02647805857494,15.609777132050121],[74.02114671995876,15.606134148758692],[74.0031962857108,15.611695934159245],[73.99742083528953,15.61048635372966],[73.99077593155587,15.61148617167201],[73.9789189944589,15.626983702921184],[73.97072741458818,15.627216194989074],[73.96763194767988,15.630211484293076],[73.9672951585001,15.634941008108038],[73.96140946143723,15.641457298280221],[73.96105355790482,15.647650332527794],[73.96777061881369,15.659981212148894],[73.96563394896096,15.669355217241286],[73.96321919483222,15.671053752242347],[73.96284237313007,15.673325029344964],[73.96389282798906,15.690978880953995],[73.96034742459935,15.694815386437263],[73.95931178116278,15.699186700948136],[73.953046234177,15.699304390382693],[73.95135417559267,15.69722309916289],[73.94368084908072,15.698453224628167],[73.94859570357833,15.701979410322421],[73.94995054718143,15.708198652660789],[73.94840271311598,15.70787252236468],[73.94730337912577,15.70951852244424],[73.95053999561974,15.711559989072887],[73.95176469849099,15.716317928499983],[73.9456874671348,15.720332793770424],[73.9430263428529,15.725384320783347],[73.93869751241573,15.742677183994847],[73.93222954804693,15.744245939068774],[73.91476612285386,15.744354066643782],[73.90694551485616,15.748281200529936],[73.90601683022723,15.746194263624805],[73.89909708154251,15.744849738744625],[73.89275202556922,15.748280542572711],[73.88604170292331,15.74979425442426],[73.87848256845366,15.749030983336029],[73.87524066986583,15.750693010123202],[73.8722417898169,15.755702313217006],[73.87207097875886,15.758690673041384],[73.87649568638635,15.76506690900504],[73.87477169269368,15.76746197243197],[73.87730482142062,15.768328150396004],[73.87960362819902,15.774061319515546],[73.87589477903828,15.775151446977391],[73.86970759478966,15.782922768132783],[73.86573523292519,15.784690866905857],[73.8649599985131,15.790909532775762],[73.86725578785043,15.796534559150565],[73.85647553641874,15.800762637691411],[73.85267507706534,15.797233089594453],[73.84988104973209,15.788780630007574],[73.84674235229905,15.786440577597334],[73.85166646124075,15.780784004457516],[73.843280230821,15.781131419964948],[73.83968192205097,15.774771790716754],[73.83779010330025,15.767106126962329],[73.82976980430645,15.764529488127035],[73.83081427728392,15.752635875303227],[73.82721142393687,15.747717460096284],[73.82523462725523,15.741550421830464],[73.82312287217688,15.73986471323988],[73.81760394107488,15.739045365287394],[73.80902279689975,15.742473983634188],[73.80661732955443,15.73824734984729],[73.80084484537021,15.735055957133966],[73.79736847122184,15.734566743463793],[73.7942829046463,15.736333789184995],[73.78997757683187,15.734936623042879],[73.78843508594572,15.72822373897062],[73.78491127895376,15.725385397326045],[73.7734820890524,15.72814761158857],[73.76365482796626,15.733487902421805],[73.74250460815102,15.735612183429526],[73.73459734506771,15.73051794485529],[73.73118112929731,15.721484547709547],[73.72829115829848,15.719756664021542],[73.72434708258565,15.720699706455918],[73.72075186312186,15.724377387700093],[73.71116380812452,15.725828597795728],[73.70298117906732,15.722946917541487],[73.69425667185766,15.722771345516598],[73.69261128254898,15.72773225204559],[73.6859393808478,15.729655084265117],[73.67686731545473,15.729220229342834],[73.67538205174372,15.727022158467594]]]}}]}