{"type":"FeatureCollection","features":[{"type":"Feature","properties":{"shapeName":"Himāchal Pradesh","shapeISO":"IN-HP","shapeID":"1811400B21086746745937","shapeGroup":"IND","shapeType":"ADM1","displayName":"Himachal Pradesh","coverage":"context"},"geometry":{"type":"Polygon","coordinates":[[[77.57602127409129,30.397443669214223],[77.57260502418491,30.406570200304557],[77.5731077447741,30.41244031792239],[77.58617390227836,30.421642357844533],[77.59182334242148,30.423468177495344],[77.59455535455912,30.426660770166787],[77.6226640143967,30.434722457410032],[77.62593718244125,30.434753731522136],[77.63190066013297,30.431307158374352],[77.63698421644433,30.433247526734718],[77.64325130853241,30.431903553580156],[77.64605447083377,30.4334704468135],[77.64898730314981,30.445208479599042],[77.65235871364878,30.448110567279173],[77.66296626396708,30.44710224696154],[77.67075591422349,30.44425293258873],[77.6902318180796,30.448081043785177],[77.69792460569386,30.45592064728673],[77.70718617069612,30.45930297384932],[77.72096507400468,30.473066071426505],[77.73170612205904,30.473199749693954],[77.73938970283996,30.476077002553204],[77.76434713374628,30.491140867933403],[77.7756552217642,30.494373471923847],[77.78219436414452,30.500333822377733],[77.79985021026806,30.50112573945696],[77.80827501883769,30.50484680509944],[77.81503566061421,30.505197492251853],[77.8185114840953,30.508132312856205],[77.81980754643777,30.52414370086267],[77.82172843646768,30.525822815302497],[77.82584327832274,30.52631551609298],[77.82778518713367,30.53106571709624],[77.82350057716465,30.542018846137324],[77.82033928350894,30.54525152166647],[77.81999320485079,30.548095013194985],[77.82258472946111,30.553842477551783],[77.81784048839212,30.561088248817423],[77.81398074112829,30.560140391479298],[77.80635996336554,30.554557354888388],[77.79962965320458,30.557724255278572],[77.7971622290541,30.55412367560181],[77.79409345738111,30.55326034084834],[77.78356050765557,30.559896723575175],[77.77724097192119,30.557623488869165],[77.77401479385082,30.557905106060144],[77.76750775725878,30.56540930873396],[77.76712612238335,30.571213606997123],[77.76064505608619,30.577580956559345],[77.7566215773871,30.585668572591494],[77.74285839279936,30.59391295029039],[77.74323734800029,30.596223328767454],[77.74678033761684,30.597526790874596],[77.7432396943998,30.60155645263597],[77.74608484575421,30.603957500585672],[77.75188335862379,30.6018420471892],[77.7556216824073,30.604754966118445],[77.76434083206458,30.595985645229455],[77.7716595782625,30.59696591295648],[77.77020168172668,30.60496580273309],[77.77105601190121,30.610595168864645],[77.76892417857796,30.61458040034901],[77.77109670558357,30.616440317387983],[77.7802362820652,30.612902449009873],[77.78670612660785,30.614372839428494],[77.79624409693481,30.613711515600325],[77.79253566549073,30.62097953046368],[77.78612328527848,30.624488709811718],[77.78604005457078,30.62999999092804],[77.79061041863166,30.634066748518542],[77.78637289745151,30.636765475502795],[77.78672830152064,30.641767469238953],[77.78122056073211,30.646733744662743],[77.78748783697485,30.655686228804246],[77.79247918661218,30.65699750427572],[77.79207474620664,30.660230995785724],[77.78851478831268,30.662343880245164],[77.78443752388426,30.65962150251846],[77.78117657652085,30.66003406675719],[77.7745668831531,30.664827839998374],[77.77249624666028,30.669160427670676],[77.76419850838083,30.67088989803253],[77.75974000433574,30.673150043691063],[77.75914193027408,30.6758375709759],[77.7473929940305,30.67991559717608],[77.74673878604335,30.68310334986509],[77.74839326540443,30.687811314571317],[77.7469209482133,30.69449889981282],[77.75256417560793,30.69671230538261],[77.75038332121963,30.70017956375012],[77.75580615953572,30.70699025008254],[77.74560393805673,30.713935210908506],[77.7473978664926,30.71703953181554],[77.7466753398315,30.71978994870855],[77.73657611648802,30.724217464506516],[77.73728631107693,30.730402897959905],[77.733175760474,30.735400812142196],[77.72834242359679,30.734210330254804],[77.72151137546156,30.741662635235066],[77.70877797909134,30.739784474468372],[77.70503543322603,30.742812901062308],[77.70241880609338,30.746331245960477],[77.70515138955953,30.750848913886323],[77.7089445599827,30.75255319516269],[77.70376322295097,30.765226500188607],[77.71510957111516,30.770790101966064],[77.7213498305257,30.77585883494596],[77.73185876019888,30.79193547732903],[77.73292562727806,30.801141769067918],[77.7349551802197,30.804551448133513],[77.74558666704706,30.813210341989624],[77.74835807839473,30.82170202456779],[77.76126416240356,30.826133171493858],[77.75766467055229,30.835197088155912],[77.744005882777,30.84666134747578],[77.74585252345543,30.851186739626435],[77.75416887392919,30.855538629472118],[77.75717875654375,30.8600512569355],[77.7560833562762,30.87274464484671],[77.75820980689427,30.87686603087348],[77.76319245904301,30.880469011181173],[77.77339288568804,30.877608894803497],[77.77611964807116,30.875479162445746],[77.77736403752185,30.863223065621813],[77.77921388608414,30.860437798011535],[77.7862268233015,30.85722108680486],[77.80566865855043,30.853282160918116],[77.80358036567068,30.86505422250056],[77.79884103479304,30.86811304902855],[77.80136747556273,30.89339270714752],[77.80881145140286,30.896766669661382],[77.81526760382395,30.904451124329093],[77.81585210703662,30.91039147461988],[77.81092102627001,30.916702579350016],[77.81328497078793,30.921938086927373],[77.81151471026486,30.923343047991665],[77.80491318887124,30.923661276205713],[77.79181030015329,30.921800467399486],[77.78651446924535,30.920328461119233],[77.78471648850925,30.91721961138457],[77.78263899787079,30.916803485748574],[77.77178051036438,30.918680383777946],[77.76750593367875,30.917394700682085],[77.76587170234421,30.919749441417313],[77.76278214006227,30.918249893891073],[77.76392808942919,30.93051817275344],[77.75272598914007,30.93387453798208],[77.75402885981406,30.937610718372483],[77.75073556411726,30.94356373771102],[77.74899180209844,30.953549382953817],[77.7540795364742,30.964546523386435],[77.76657321561419,30.97020490226447],[77.76915559357829,30.974260851971422],[77.772369643494,30.97441823126071],[77.78749928240985,30.971397843320787],[77.79365041906279,30.96882265555315],[77.8139663061,30.953902078281217],[77.82434479500402,30.950568544670563],[77.82860889014694,30.953359452953027],[77.83471251220949,30.952115975283505],[77.83757947196402,30.95324194253167],[77.83767546234203,30.95524888527822],[77.8321738166227,30.959660309763276],[77.82417146057838,30.957179293013866],[77.81436106626002,30.96185431578077],[77.81628201468045,30.972854127682865],[77.82241774432792,30.976616073406383],[77.82404914237604,30.98054486864655],[77.82415922372759,30.98849278559825],[77.82769329486999,30.99226701888705],[77.83180371611553,30.994064589240494],[77.82197729854748,31.00436521250488],[77.82499113644424,31.009870022976898],[77.80992531564277,31.011057634557893],[77.80749638789548,31.016284366595112],[77.80699017285987,31.026838242706177],[77.81143879543684,31.031704116035716],[77.81745063393188,31.033106803307206],[77.8228610027335,31.029350874679945],[77.82980834227386,31.02883106339703],[77.8213536198053,31.042808336745487],[77.82160270287063,31.046785397809835],[77.81602198833832,31.05005390978457],[77.81678039371187,31.056761709915268],[77.81134277810939,31.059172531660984],[77.82294411396528,31.058734826830094],[77.82203664215348,31.05525890749032],[77.82434895510212,31.055518332708527],[77.82891410264617,31.058338471727208],[77.83804488282453,31.072721614810046],[77.85122150885422,31.073439256557965],[77.86372749581196,31.094037492938124],[77.86045530603272,31.10166525709486],[77.86380566810627,31.108579286349375],[77.87322075698724,31.115039965928425],[77.87843785684872,31.116400515422843],[77.87802077984209,31.11510228951833],[77.88050792201304,31.114866504527637],[77.8823992511819,31.117791942921453],[77.88875043636034,31.119285069669143],[77.89066707466404,31.121824443311535],[77.88903282895645,31.133060007848666],[77.8940009230077,31.134038409256828],[77.9004354350136,31.142278751499575],[77.89872235405501,31.150305549151156],[77.90860949863459,31.154136871018984],[77.91579816698277,31.15396056673209],[77.92150626262237,31.150549462107858],[77.92477974417896,31.150507943695526],[77.93514711643134,31.15476843829039],[77.94315065196363,31.16133353383852],[77.95147635030628,31.161382074966617],[77.95360293836654,31.166028249111744],[77.95889063592794,31.170996847427016],[77.96731035464315,31.173442528041747],[77.97325784322113,31.166229027405333],[77.98057475865252,31.162196228824307],[77.98470713562192,31.157029478023833],[77.9909268496636,31.160123903372142],[78.00080607289904,31.16202813458905],[78.00861569899237,31.160893727653892],[78.01443963059127,31.157857613253505],[78.02060597572192,31.15162883373569],[78.03032957212257,31.15104414984335],[78.0296984544315,31.164183434065826],[78.0338239664755,31.169781920716925],[78.0410317788207,31.172997426269593],[78.04262823599755,31.178581045245217],[78.0511954751504,31.17996796435132],[78.06594387804282,31.187244168647194],[78.08772516704012,31.187318733701535],[78.09712377183563,31.18429138508463],[78.10360981839273,31.185458233970902],[78.11243589092501,31.19325251980295],[78.12346709391785,31.20022816539686],[78.12859186134118,31.200854261043172],[78.13337146998123,31.208411662668713],[78.14766846495183,31.210670355211555],[78.14840955439999,31.21377596533923],[78.15360403108934,31.218295205882413],[78.15808684624099,31.218984031056404],[78.16021530639034,31.22555688942759],[78.16714242934522,31.224728267087546],[78.17379472262039,31.22691460250704],[78.17974595537649,31.225727815277324],[78.18701549455811,31.22713239865454],[78.19216691499591,31.22484088921536],[78.19564443988615,31.219788264182107],[78.19946889863068,31.217284844388786],[78.20914578533151,31.220204396707057],[78.21243228617149,31.219649240520965],[78.21516118744327,31.22208263861854],[78.21624901401466,31.2297860311783],[78.22031360680768,31.234022702403724],[78.22642428603513,31.235089802861527],[78.23707865474944,31.232746095957978],[78.2431616577813,31.229380734086824],[78.24694267220202,31.230487797948204],[78.25069671829966,31.23338979658018],[78.24949497007886,31.24012370401553],[78.25537789134749,31.238593300681814],[78.260463097864,31.23983186199727],[78.26262619076253,31.245271525257174],[78.26866671695619,31.24866464380106],[78.26907471918179,31.252403025302012],[78.27348714683936,31.255973520353308],[78.27601600407712,31.261596529700583],[78.27994739018825,31.26255594393918],[78.2828570980722,31.266292578258067],[78.29187322088096,31.260027675522863],[78.29641451905255,31.261209077402587],[78.30254235520358,31.25909894416422],[78.30631785666343,31.259975105922436],[78.31043652354496,31.271176419528377],[78.3100489247544,31.274169650447334],[78.30803235516358,31.275620445758413],[78.31114861088417,31.28322654161767],[78.31676740140813,31.28161026095415],[78.31802190319398,31.27900399284582],[78.33185731682212,31.277694073618687],[78.33989898044834,31.28275751031833],[78.34560241023834,31.28066857698353],[78.35196075498962,31.28068539182299],[78.37030690879833,31.28641760943166],[78.38353206002306,31.282559175078422],[78.38628879559391,31.271515691822067],[78.3895056069308,31.274288028038647],[78.396163555999,31.275392896308563],[78.39770646550006,31.266301573595193],[78.4071587149894,31.256294771792234],[78.40282107746914,31.24797286853072],[78.40694329988256,31.242270848650087],[78.41419239340831,31.23968827249316],[78.42072875101124,31.24413599410219],[78.42590184240696,31.244338173440752],[78.43114772788344,31.25282918194529],[78.43424330977611,31.254665661987406],[78.43657528235477,31.25420187966893],[78.44358437478269,31.244430946381843],[78.44998459450093,31.240723548315348],[78.45570350585656,31.241103119213193],[78.45770380246603,31.237859500702115],[78.46173255607245,31.23611029335877],[78.47284913405157,31.21853001527879],[78.47979106303896,31.213863427247535],[78.48144273606307,31.20458941468341],[78.48426435515027,31.201297394653817],[78.48374484594673,31.199020423309282],[78.49698683698979,31.198262750785],[78.50755678472862,31.19595436948884],[78.52651731163148,31.19654740932276],[78.55161639158676,31.19999367553879],[78.56548324804649,31.213562552165964],[78.56806571584214,31.219232446410423],[78.57485084030341,31.221306881956252],[78.57823476702924,31.2253439821934],[78.58949309377029,31.2267506599278],[78.59675813418897,31.225207736767675],[78.60091039357059,31.228180686393046],[78.60933667537724,31.229345446894673],[78.62256544142267,31.224151685751423],[78.62596118009617,31.21795235209478],[78.63654065267195,31.214921131268714],[78.64703405676208,31.214803235465038],[78.64928936441945,31.21095071903111],[78.64906840760565,31.202255783191685],[78.65731274373637,31.195810775569253],[78.65653526443438,31.19365809856046],[78.65999998653515,31.1911644427209],[78.65800067627589,31.185124673066184],[78.66171581633853,31.1893111246586],[78.66734129841304,31.190837241730065],[78.67189659233675,31.196965884039386],[78.6788176292056,31.19633872145661],[78.68676181664028,31.197848680918685],[78.69499464804719,31.19225560298793],[78.7033596845144,31.189088380789695],[78.70969645083423,31.18978747564665],[78.71832603576277,31.187851285620674],[78.72837875332394,31.189734424324516],[78.756405550588,31.187921438325233],[78.76517228759916,31.185842556328556],[78.77915220602053,31.18897921341714],[78.79674192715603,31.19649932882629],[78.80990966615263,31.19837198582515],[78.81640334659303,31.194453494167163],[78.81737869870098,31.189696386581268],[78.81429740091963,31.187630359631015],[78.81046451597777,31.18034788831922],[78.81072002828562,31.171958006212364],[78.81303967597857,31.16897002420606],[78.81806400007504,31.167862659176166],[78.82488185016211,31.163593975705886],[78.8229545704156,31.15782751136414],[78.82733255127525,31.15270183687671],[78.83120218449878,31.14068248471078],[78.83813246503192,31.138430697664806],[78.84146513748087,31.129797706485373],[78.8480036986512,31.12519970800321],[78.8535128084722,31.12217164720243],[78.8652407097651,31.12009435251968],[78.87288350882875,31.108946199075298],[78.88543154861983,31.098809167380413],[78.89064074151021,31.09698503361893],[78.90043606569137,31.09988020503046],[78.90859685850066,31.098947823845513],[78.91230614064935,31.102171672857672],[78.91272746578895,31.107726623787205],[78.92056615777165,31.110810179135665],[78.92592420330122,31.10952354049421],[78.93222872908554,31.100769539265347],[78.93699324423218,31.101699513481737],[78.94511383204261,31.100659300972133],[78.95072823878796,31.0980691476982],[78.96307266014855,31.10126772257519],[78.97298972671194,31.1081691416331],[78.99003959809096,31.108610243759248],[78.998549491491,31.11003739016319],[78.9991917429017,31.111645246914847],[79.0021550020547,31.112509383045886],[79.00891512191004,31.110012428483547],[79.00679613629201,31.1186183844079],[79.00366256105274,31.121630844382274],[78.9995949589035,31.13478055450259],[78.99076065061666,31.138144674566195],[78.98757972428045,31.143376505843687],[78.99082551437009,31.148253098728905],[78.98821347403529,31.154302350870175],[78.99049891298394,31.161355123562778],[78.98590654918169,31.17392117628475],[78.9837280097519,31.176221449962167],[78.98079504538354,31.176244770209077],[78.97919978745757,31.179109729756117],[78.9726537496092,31.18000396243169],[78.95752911341111,31.186683288898973],[78.95831050757111,31.190456718959922],[78.94799404554084,31.198599464996104],[78.94703009754542,31.202881143925655],[78.94383078359367,31.206573423677952],[78.94867952567962,31.213399979316968],[78.94772258454343,31.216864187849776],[78.93112583417354,31.216140164200343],[78.92604480931467,31.220159098448125],[78.92608244962338,31.223186340297335],[78.92205279231177,31.22540064934294],[78.92202961218418,31.231627555043776],[78.91609739766096,31.24868288051979],[78.90609039626288,31.25650879956001],[78.89837497829002,31.259573853136217],[78.88607275978146,31.268626118878906],[78.88467679399959,31.271362764068396],[78.88564343065266,31.275410609615953],[78.8811720519529,31.283704947347196],[78.88199484317616,31.286774822117703],[78.88004068314137,31.287909873290104],[78.87596336840733,31.303194826715036],[78.86817075999869,31.308118968244557],[78.86171640061487,31.316210882101473],[78.85336878876922,31.313279248108138],[78.85136741507972,31.31033692920866],[78.851924083095,31.304693171717872],[78.85660005040575,31.300450779465837],[78.85569196953618,31.295932741770702],[78.85207212814875,31.295078681194333],[78.84202524784031,31.29675149346338],[78.83838900052085,31.294779157926946],[78.83420981324029,31.29486588851025],[78.81663117282382,31.2998496077053],[78.81175238748146,31.3073035757186],[78.80037904943457,31.306723970440608],[78.79156028379882,31.304561371249182],[78.78962115347704,31.307298069573502],[78.77815358754674,31.312597051923177],[78.77868656159808,31.31747262935007],[78.77713143051756,31.32054200277743],[78.7692982595806,31.32448241305596],[78.7679366570533,31.328937699906074],[78.77380901323586,31.33303633843667],[78.76402413196989,31.342265013993178],[78.76454469849052,31.34453475829081],[78.76831646655206,31.34698512518786],[78.76898338659878,31.35033040200074],[78.76173414305435,31.35669711684853],[78.75615503201482,31.35881144955469],[78.74964795140532,31.36616827111204],[78.75008213233497,31.368890067794002],[78.75573731720432,31.37139176217601],[78.75748390711968,31.373725939354042],[78.75275473439126,31.38542735138551],[78.761476948202,31.396985326871768],[78.76074270750958,31.400742111797847],[78.76878967209424,31.405608951006972],[78.77294270402699,31.415605793510345],[78.77926264669819,31.421099980925632],[78.7825415432993,31.428168969563277],[78.78652676454709,31.430016126345873],[78.78892875181899,31.434351482491767],[78.79596154000748,31.436561556026813],[78.79774491862864,31.44345263899139],[78.78764271377679,31.44889602056884],[78.77865252892354,31.451437673811615],[78.77385989201693,31.45731112588697],[78.77447341530484,31.46082385684475],[78.76924506314607,31.47209545260199],[78.76431899497875,31.47458891071574],[78.76312369756002,31.47819423774057],[78.75870489006734,31.482502052252958],[78.75271016986835,31.48220092982208],[78.74856555604815,31.484313515343004],[78.7405916703101,31.480585284528235],[78.73465136915272,31.48293360726157],[78.72600797442333,31.483117993980457],[78.72506358814157,31.484420227045685],[78.72736396876832,31.489889657395214],[78.72371989352945,31.493509595209254],[78.72399750978317,31.49802346148891],[78.72045071580139,31.50726423112748],[78.72242948787834,31.51297255006451],[78.72693945281279,31.517167920236215],[78.7304147085586,31.531755914079486],[78.73489710150206,31.536104635373658],[78.739432391741,31.53703038750972],[78.74414838798083,31.541159222814738],[78.75287408455992,31.540589187275877],[78.75723961117646,31.542274098499952],[78.7613167579256,31.5490620103252],[78.76952030425417,31.543948874428356],[78.77547726107528,31.54371311470889],[78.77980841275915,31.55575825491977],[78.79692109613946,31.56210149597727],[78.80293301368624,31.565759020914317],[78.80567506449718,31.56946229554347],[78.80676650229599,31.577431449870147],[78.81756692899066,31.576922215515847],[78.82085361398528,31.578787031831546],[78.82333119538666,31.584545138384204],[78.8309658368492,31.59399388340187],[78.83609421909325,31.597022232474792],[78.8412031240653,31.596371602427],[78.8416847207706,31.60048995258313],[78.8469346693271,31.60803793525571],[78.84080977066704,31.6229633427859],[78.8299173645721,31.624688708861854],[78.82733900028069,31.629495553567672],[78.81918701904601,31.63746549258285],[78.80980538612118,31.63836964589158],[78.80171956221393,31.647974183205466],[78.7987820604551,31.658321812940457],[78.80017871973632,31.662116269608887],[78.79853598854258,31.67044844793374],[78.80123538105558,31.677786118795627],[78.79851596509488,31.68226073010931],[78.78767744713721,31.67756646673441],[78.76400004184893,31.674600104668592],[78.75595792457348,31.67712744467717],[78.750420933741,31.681364762207895],[78.74937195391576,31.68532859680073],[78.75316736563556,31.688306196644987],[78.75399430887202,31.695251350211766],[78.74505449076014,31.705152709604803],[78.74313791174527,31.71774846410018],[78.73425617869965,31.723581692108873],[78.73446067029262,31.725774554124573],[78.72963712954362,31.732828184917064],[78.73055529579887,31.734528931761815],[78.72783181406322,31.741035445186686],[78.72582060112641,31.758348061887833],[78.72233240335231,31.761240026199005],[78.71962543534652,31.761290171398752],[78.71916957896737,31.765182534673063],[78.70768347180962,31.77209057267672],[78.70528505893422,31.776027041748353],[78.70508802874801,31.781106177176735],[78.707381711536,31.78525480595591],[78.70369717168518,31.793644667299926],[78.70513374401284,31.79998241925358],[78.7023480054347,31.805010440155304],[78.70269733509585,31.807354719798454],[78.71808209016253,31.82365341049689],[78.72890764183738,31.830314663926146],[78.73413514508819,31.83133011552806],[78.7346172906641,31.83394740929935],[78.74237378679831,31.83515791156635],[78.74300490179441,31.838377310715572],[78.74502862287324,31.839517250991616],[78.7432167407081,31.851597416625278],[78.74531965366909,31.854683859845196],[78.74145394608334,31.860971889434584],[78.74417663730158,31.863851555115453],[78.74509643310076,31.868631239948954],[78.749822146417,31.8737284445025],[78.74524985546984,31.877325746867516],[78.7410119605905,31.885228315822744],[78.74769181777188,31.892444783768944],[78.74160614943855,31.901342036067593],[78.74927462774292,31.906254547317072],[78.75264100857461,31.91343048865355],[78.7612383421878,31.92232829625263],[78.76797683959425,31.92491275108545],[78.77129057465872,31.92895564704441],[78.76916186477773,31.93653217911945],[78.7707104758859,31.942547163268692],[78.76551924570796,31.947930120809723],[78.76571826296758,31.95445984271447],[78.7669578042107,31.95952342478508],[78.76964700084524,31.961830326810382],[78.78139048431507,31.965372029271617],[78.77368938279282,31.974243784000908],[78.77611382794684,31.98145017968118],[78.77558463670117,31.987485033472577],[78.78110859208059,31.99349382598887],[78.76828318666573,31.998001022157272],[78.76871588268021,31.999865834112914],[78.76591406875005,32.002781163435166],[78.75521496752785,32.00177535094307],[78.75011433514129,32.00350032146142],[78.74693806477318,32.00150630037471],[78.7378185988758,32.00117156318054],[78.73328578888534,32.005809447008204],[78.73367206715248,32.01311213568573],[78.72869640030335,32.01534393183349],[78.72470767832091,32.01998304383946],[78.72422162327688,32.02596310622756],[78.72066016968799,32.03055129493062],[78.72196510469051,32.039739522133246],[78.71261583087885,32.04602430010421],[78.70623956473769,32.057930903168106],[78.70556441791959,32.06663188828908],[78.69016941397386,32.07125164049933],[78.68197424802852,32.080395124961065],[78.68493251704012,32.08631131647998],[78.67513781539148,32.087739449045],[78.67203458524249,32.08527627328602],[78.66508143539889,32.09421337148871],[78.66331699865378,32.10264905608329],[78.65504569419993,32.10764299218182],[78.64405627993577,32.11048009960413],[78.62164489732685,32.11303124602631],[78.61278559521386,32.117587538640294],[78.60968037439822,32.13124422446942],[78.60503454646356,32.141126429042636],[78.58982911219557,32.1542282242153],[78.59281399469579,32.16067236689377],[78.6042984768012,32.16710881845524],[78.60926646754622,32.17803385293933],[78.60977062364326,32.18409865361586],[78.60608405090494,32.19325714771581],[78.60673070406054,32.199579538963526],[78.61074534603215,32.20711786532112],[78.61071720271262,32.21232236201161],[78.60853917442422,32.21431699614675],[78.58957783634264,32.22699345051017],[78.55508960905517,32.24568547753057],[78.52956000790675,32.24515494027495],[78.51718906827897,32.24145437936756],[78.49850053507444,32.2388665695569],[78.47976813443964,32.2417125884959],[78.454847981821,32.242241709085924],[78.45653754308883,32.247402911545535],[78.47411583585729,32.26492989172473],[78.48001921805314,32.27356620130657],[78.48187396782362,32.27981106190336],[78.4827139635812,32.287686274516716],[78.48044228951768,32.31646976304339],[78.4765129515654,32.333070841265794],[78.47990583629125,32.34808617643807],[78.48384365344147,32.35385061920525],[78.49880447196598,32.361736160969095],[78.5076168326138,32.369154126928365],[78.50989064287106,32.37317177847159],[78.51357997253896,32.39111857713912],[78.53265109193478,32.408380993571235],[78.53476269070626,32.4143938804042],[78.52752122477557,32.419601640113314],[78.51860745870525,32.422124024532074],[78.49966764695282,32.42092505979494],[78.49412787673285,32.42176805217652],[78.48215549085053,32.44111030582126],[78.47802698382338,32.443950080937405],[78.45415153954077,32.4523670210234],[78.45148913965116,32.45855349028302],[78.45340298509264,32.46705284016456],[78.4618542813867,32.47808617860409],[78.46479938379119,32.485230950045434],[78.46115944888749,32.49392737663484],[78.45677964714272,32.49656531592717],[78.45454215577243,32.50138200737958],[78.44784870258924,32.506317171631146],[78.44180479783181,32.50807991383496],[78.43111268011262,32.507050117224004],[78.42530651359682,32.50807828280102],[78.41755093643916,32.51423323506198],[78.41521203784966,32.52245123796753],[78.41054107505335,32.52461533647976],[78.39859088115179,32.52574167419204],[78.37248960742791,32.50875518054495],[78.32643879760595,32.47201920562683],[78.32227218134946,32.473846575813425],[78.29460136846622,32.50408688979611],[78.31116731919829,32.51861200468513],[78.3153132319824,32.52542384962976],[78.31284689659007,32.57371429430494],[78.33422363648567,32.57640379784201],[78.34801111511194,32.58106354338011],[78.35690352912628,32.58925269790183],[78.40517148886732,32.61942185163824],[78.3922680881262,32.62581035647745],[78.38731160300338,32.634366470033775],[78.37958866613153,32.66825333779999],[78.38014313686762,32.681803603588],[78.38407354112012,32.69580625119771],[78.39435639178576,32.71561191302804],[78.39148850407152,32.71896120207818],[78.38778819519419,32.73002634257332],[78.3856873393752,32.7498546955052],[78.38771674139986,32.75693213546174],[78.37754136158158,32.754372827373224],[78.37299225166032,32.75561237286521],[78.36573286433972,32.75352482978829],[78.35662204293034,32.7576799910425],[78.33315228771151,32.74984078034717],[78.33052704304038,32.745365094003546],[78.30419657315491,32.73422211816857],[78.31116687722715,32.7279948914517],[78.3146253775963,32.72119414901838],[78.31507459632378,32.71610398008592],[78.31222449076063,32.709167899682306],[78.30135574179872,32.703144699527584],[78.28919595836497,32.69929435477773],[78.27555222276055,32.69929886476325],[78.25301610278623,32.69105612757148],[78.2459396960008,32.67183264389332],[78.2323961890259,32.671738064568636],[78.21946668324266,32.664700490614386],[78.20403762596112,32.66712943287587],[78.20176093121349,32.670178082222534],[78.19698518532917,32.67030545023864],[78.19280359505524,32.673453632128464],[78.18648909527636,32.67500712165878],[78.17539680684419,32.68096504750666],[78.17117741007323,32.68040889785782],[78.16545095197088,32.68296161243102],[78.15799873947793,32.68401044613822],[78.14880338390535,32.68164765409751],[78.14265494219832,32.681816724878495],[78.14773774841643,32.67158714880424],[78.14753177999313,32.65426729344857],[78.1363993386644,32.65445706832489],[78.12750616916689,32.65213849659782],[78.12076867338199,32.66054273297376],[78.11599411956206,32.66035182147433],[78.1105849248585,32.66260332014646],[78.09257021705027,32.64772097081009],[78.09573247459831,32.64478072735629],[78.09896994718672,32.637115783042546],[78.09890677675762,32.63038494909633],[78.09203180639487,32.628616279188],[78.08723604784264,32.62436355415519],[78.08141418057232,32.62604305811999],[78.07424992394199,32.63078942601736],[78.06789449602044,32.626474341579545],[78.06108862856092,32.6262519719681],[78.05671504944617,32.634448819280074],[78.04682272158738,32.6450082655932],[78.04305740702286,32.64033788292311],[78.03405215472733,32.63690660180045],[78.03356024087103,32.633925752458325],[78.02536575495036,32.6273121651209],[78.02899790864707,32.62336567444379],[78.01583755559874,32.6197566691326],[78.01301382187737,32.62169202326954],[78.01175711832074,32.62504720054673],[78.00288111203507,32.62471142307052],[77.9941251592989,32.62807936365889],[77.98453411291167,32.64166635273294],[77.97012524175558,32.646749238368976],[77.9724338545436,32.652820495985054],[77.97061195616307,32.65524298521282],[77.96556437468388,32.657728227843464],[77.95180381587173,32.658912690673404],[77.94619674387064,32.66167243508398],[77.9423000731537,32.6660877182265],[77.9404908149675,32.674070494969286],[77.93437718207944,32.68120922540377],[77.93096524049317,32.68194648975593],[77.9274518728231,32.68568861372323],[77.91851130731288,32.69067747074519],[77.91818403937677,32.69622722384517],[77.92241006391794,32.69920849643341],[77.92167293065027,32.708409928558424],[77.92473782968612,32.71171035448648],[77.92462307260351,32.71679219810492],[77.92801740451526,32.722143899266236],[77.934304471542,32.72590686299267],[77.9313115823577,32.73200919028015],[77.92629116233944,32.734798009272225],[77.92712427161202,32.73646391297302],[77.93057788873926,32.73691424113759],[77.92914239349166,32.742404360976415],[77.9327701652064,32.746499866910916],[77.93167525362237,32.75040498545017],[77.93431421287296,32.755978461830445],[77.93367564545325,32.760735507498],[77.92796108374023,32.76483218221086],[77.92582259030746,32.77202501273695],[77.9157730671554,32.7739402601125],[77.90378179329592,32.771846060212596],[77.89409485893864,32.77860042684439],[77.8919184440245,32.78292827164248],[77.88408599263808,32.78770731697351],[77.88791991872738,32.798677977950284],[77.88089010575911,32.80429226878195],[77.88198893848936,32.81024804558713],[77.87863446572507,32.81907268831848],[77.87127944914924,32.82249458481332],[77.86926402131711,32.82702101338172],[77.85785712670278,32.83115757161449],[77.84669951817305,32.83903728438058],[77.83913445392422,32.842129737646545],[77.83484350274757,32.84045483478454],[77.8323972518884,32.83629696280311],[77.82605085113711,32.8362564021361],[77.81599426093874,32.84837866070309],[77.80563693185125,32.849813538579795],[77.79719995290614,32.856426582623335],[77.79197057217641,32.855788069541305],[77.78093994141041,32.865586054012574],[77.78391782064466,32.882769294028975],[77.7876099925821,32.88632037680353],[77.78930970121941,32.890595776991226],[77.79319295110601,32.89317230395827],[77.80189437879939,32.893332359802805],[77.80635226210862,32.89531642829287],[77.81052370591142,32.89966265556974],[77.81088053830183,32.90676633079024],[77.80000270557576,32.91215182915165],[77.79518632709451,32.919483969943805],[77.78761083340522,32.923406938911164],[77.78585438268303,32.92637705991055],[77.76602018577586,32.941387815652135],[77.7648633443361,32.94380035885963],[77.76649941362372,32.946195123036006],[77.7634557336932,32.94923894763809],[77.750952907907,32.954613558884176],[77.7499149755631,32.9576058814214],[77.74443078590637,32.961929546601546],[77.74071595037262,32.969046460612894],[77.73307000900212,32.971526950918275],[77.73072128284339,32.97446054244634],[77.72542609423088,32.96960073580141],[77.71964622499671,32.968705437188405],[77.71414072819975,32.97603696452633],[77.71305201858443,32.98256852095428],[77.69724708822172,32.979509306701665],[77.69771026048052,32.98275327958053],[77.69492904491985,32.98327670122846],[77.68953258203884,32.9878776650691],[77.68248588253986,32.98871094497238],[77.68069337523877,32.98383136484307],[77.68208354419208,32.97550662788463],[77.67886218198997,32.969838059888815],[77.67403972191426,32.967337357733356],[77.67366567510804,32.96092681889777],[77.66430066730419,32.95836253026076],[77.6557515561538,32.95891492933577],[77.65321778692802,32.95530095568903],[77.64347199585163,32.94929552510769],[77.64294653171609,32.94654460782257],[77.63920710480141,32.94713300057225],[77.61965127963113,32.94379303425723],[77.60233069555134,32.94282891421905],[77.59568347146931,32.92731095910092],[77.576280692274,32.91411696382134],[77.56380685602028,32.91240691432694],[77.55041551916293,32.9004684621775],[77.54618119778185,32.892621828855276],[77.53921382311572,32.886796648148376],[77.52117301296028,32.879342750405286],[77.51273429667346,32.87748920370183],[77.50137761429025,32.885617288772565],[77.49795514624545,32.884123131709345],[77.49696714046843,32.8801726197432],[77.49043382815432,32.87902598806536],[77.48605956631994,32.87349781468084],[77.48070477897988,32.87047177660209],[77.47534991887632,32.86176050567971],[77.46900668199149,32.85844811674957],[77.46098885156808,32.86004792648912],[77.45211650591718,32.864203021204716],[77.4479102029898,32.87006188130537],[77.44809882674157,32.875049859208794],[77.44478367593223,32.87966721646888],[77.43864277558198,32.878901882554096],[77.43303367608333,32.8756856141693],[77.42850808046292,32.875493509021666],[77.413610208687,32.88403453216883],[77.40531228984622,32.8831655078571],[77.39603084871999,32.87741565983814],[77.39414988880444,32.871269788500676],[77.38792088887764,32.86366754700917],[77.38167336119814,32.86210635559857],[77.37440415529151,32.854735879013106],[77.37606136283607,32.84877832993332],[77.37995428308669,32.84513454060296],[77.37922013761568,32.83901964030519],[77.37634527717825,32.83673570941354],[77.37347365965897,32.823855204257306],[77.36034204820812,32.817645332588114],[77.3521263404872,32.81572798232083],[77.3388359985223,32.81681141157428],[77.33676502965285,32.81900790080295],[77.33602313711081,32.824920784856985],[77.33140252398788,32.826514056428714],[77.32993634947667,32.83033399868686],[77.32706032122934,32.83146467027856],[77.32527525916532,32.835414206699916],[77.32865358579367,32.84294657086634],[77.32252230101024,32.85116893977853],[77.32003660602523,32.85225130049474],[77.31474582814074,32.85059618801978],[77.30932657410266,32.85151870388579],[77.30118042473079,32.84981009426373],[77.29942755738826,32.85216715097251],[77.29012092480652,32.857294645824204],[77.28593676265594,32.864670551534644],[77.27400055013348,32.87379454984965],[77.26738604359241,32.869703313604106],[77.26257422316291,32.86403371403945],[77.25435111691729,32.86387496950901],[77.25527611036873,32.8661985829539],[77.25384129784074,32.868652742838336],[77.24957079142168,32.87266445526848],[77.24653605511816,32.87165774912014],[77.24364686116203,32.87293648949596],[77.24290109688113,32.87589414551109],[77.23700286382848,32.880929261739354],[77.24339065984634,32.89259274129539],[77.23392021947255,32.89373805542995],[77.21932993084991,32.903851877636804],[77.20953666201412,32.904691187067456],[77.19883596538398,32.909052764632726],[77.19317081370656,32.91656003183121],[77.19258498997041,32.92195045633718],[77.18826319783346,32.92882349160783],[77.1784527559044,32.92276062436274],[77.17512239931223,32.91432392814258],[77.17022227179538,32.910755985218316],[77.15714331509493,32.911690243830954],[77.16042796989701,32.91301696134306],[77.164181914485,32.91889667443034],[77.16129038041754,32.931622131831745],[77.1639492202837,32.936985854430134],[77.15937743778296,32.93860042824508],[77.16203368870444,32.949155064352816],[77.16089149788867,32.95298398304569],[77.14905123442172,32.95606397775322],[77.14786168172922,32.96568874861727],[77.14935304769594,32.96796966900549],[77.14972556197627,32.97814603210874],[77.14648781360506,32.9783336613159],[77.14242325135477,32.98100956151036],[77.1353880781392,32.9796145119205],[77.12885695412112,32.98061903346155],[77.11612319303491,32.98475629830145],[77.1118837817994,32.97944852785418],[77.1109020669243,32.975178675769776],[77.09548694880102,32.97105346198605],[77.09080579910939,32.97300814134355],[77.08607703062289,32.97233296896105],[77.08208534599662,32.97552983724429],[77.07989422835621,32.983366022013634],[77.07145318722942,32.98448922829828],[77.06784203614406,32.98749244640441],[77.05907380253963,32.99105865558756],[77.04899824441405,32.999037832143856],[77.04008925648272,32.99819661693043],[77.03300008733204,32.99036267694538],[77.02516524732526,32.991853666612315],[77.01029519996695,32.98910451595992],[77.00752269716621,32.99215420326926],[76.99627204203767,32.997035394433446],[76.99245048934311,33.00183877376221],[76.98902441905405,33.002472025271466],[76.98089342605766,32.9999041807652],[76.97161719156682,33.000452089745714],[76.96813888334567,33.00438160789254],[76.96554497999648,33.00407631551136],[76.9609142922676,33.00910666988165],[76.96176081698066,33.01148772320389],[76.96015151120028,33.0153551903814],[76.95066968647689,33.0184533922175],[76.94155367550015,33.02838992222218],[76.93296283311318,33.02848855368523],[76.92867648041248,33.03203133598961],[76.92582280494439,33.03914256218609],[76.92545677290714,33.04773049687138],[76.91406699119898,33.06391866034471],[76.91112982451173,33.076016011243496],[76.90561455853603,33.078784543875635],[76.90503540748587,33.083567849087274],[76.91008545394219,33.09022799836942],[76.90923859685248,33.0941173369006],[76.89766648948098,33.09896285028169],[76.89700288331936,33.10174943515138],[76.89253921845295,33.10584383943902],[76.89302047739169,33.11048651762633],[76.89118924910859,33.11472244492058],[76.88517123559427,33.121646101087535],[76.87573450270487,33.11843029985669],[76.87036379991297,33.11352199528427],[76.86241469240542,33.11283070167092],[76.85528955650739,33.11429441093419],[76.84933206159546,33.1202422744797],[76.85273431305477,33.12482267356169],[76.8522540862803,33.12677663682474],[76.84285618666233,33.13052231648019],[76.84444243718089,33.13760808526224],[76.83862901048096,33.14135484321863],[76.83490723725825,33.14082447861864],[76.83071917013115,33.14235273083093],[76.82981915433619,33.14658690135473],[76.82516578324807,33.14837990475009],[76.81695676168782,33.15978071461334],[76.81739975958197,33.1668080287942],[76.8130513171255,33.171509437074945],[76.8136152480198,33.17731197059694],[76.81890915204147,33.18003917563949],[76.82247218037706,33.1843200787485],[76.81746077135944,33.19413402951238],[76.82367750209605,33.197575096212475],[76.8291081135343,33.203009845036846],[76.83437950487661,33.20492514020885],[76.83432610272791,33.208408241055835],[76.83138160668625,33.209913325101404],[76.83188552023815,33.212598589102164],[76.8256301844022,33.215331660772954],[76.82822393683443,33.21812003581878],[76.82792600428225,33.22308462518262],[76.83225181278682,33.22960381481076],[76.84466258012105,33.242389407834054],[76.84315982890642,33.246871653589835],[76.83090111131551,33.249306303071826],[76.82426370581953,33.24411438308673],[76.82271613316384,33.23712956062433],[76.82102292473593,33.23600805732378],[76.80707793730438,33.24502853140798],[76.80280584805377,33.253789580104026],[76.79928815589395,33.256068341761356],[76.79246149962214,33.25694812285687],[76.7839789087185,33.253683496312874],[76.77554122369757,33.253633985842065],[76.77123347761841,33.24962940430635],[76.77332934329604,33.24230155814041],[76.77888268346669,33.239714417654],[76.7797223288814,33.23709148924246],[76.7761059064818,33.22067736137507],[76.77195690259487,33.21882259988848],[76.77115527118809,33.21312442948181],[76.76686790788284,33.21098593200941],[76.75819529904197,33.195937566293026],[76.75017049320041,33.191783449608806],[76.74690857026673,33.17921068170307],[76.73489966696968,33.17767122074241],[76.72660585522635,33.18245314915174],[76.71514724909275,33.18150073028852],[76.71424016984474,33.17844942058264],[76.70690094924475,33.17422799689558],[76.69186673566651,33.17434870147059],[76.67987570614895,33.17158297432945],[76.67067710765821,33.172000907393056],[76.66143321431429,33.16453900296784],[76.65457616893457,33.16483245912019],[76.65084956367394,33.16268841701668],[76.64630595234053,33.16231212601957],[76.6383393169051,33.16582502867635],[76.63028875726275,33.167189349153546],[76.61846769528489,33.174372720858855],[76.61770061757568,33.187584141580885],[76.61236170256831,33.19115824128494],[76.6073435795422,33.18908752751378],[76.60536224367354,33.19048744780832],[76.6034977894031,33.196440705933924],[76.60550421431941,33.203835680054965],[76.60260163097382,33.20627184639136],[76.57931851872178,33.20695965886591],[76.56742136584614,33.210284081412226],[76.55343207530132,33.19903224280665],[76.54321212018039,33.200751495271504],[76.52981791230741,33.196623604745014],[76.51609810377141,33.19653648484882],[76.50792572089836,33.1903251900722],[76.4867616140271,33.179453997197754],[76.4789059465806,33.180353157198056],[76.47253893308675,33.18301127272912],[76.46050572856467,33.18006208824977],[76.45505078625706,33.180280839280556],[76.45098247893026,33.182105295330246],[76.44185802378985,33.180940755076506],[76.43441902102319,33.182623440459565],[76.42653097649702,33.188333785042005],[76.42034974628223,33.18573300244594],[76.41009236734646,33.186489241450715],[76.40728265003838,33.183592051075095],[76.40403099215342,33.182827704184774],[76.39703327149857,33.17456024179046],[76.38270816644615,33.16605038520072],[76.37450351429152,33.15418127290593],[76.36813471854015,33.15392819679283],[76.35100026179407,33.14438935316281],[76.33221236413937,33.128105237855266],[76.3207680636765,33.12582199195481],[76.3193686070415,33.12344865257626],[76.31116664534107,33.12040595598256],[76.30619842193244,33.11313919639849],[76.29180442687732,33.10318873931635],[76.29432434048829,33.099512948738834],[76.28882016511307,33.087153679646576],[76.2885390957353,33.07762750692427],[76.28935429080462,33.07269471456374],[76.29495665743019,33.06870696318646],[76.29602528341059,33.060603139315845],[76.29530491719788,33.057554504073096],[76.28528029714221,33.05432670248996],[76.28189975167504,33.051826032184806],[76.28047646093893,33.041527866936974],[76.27841568974452,33.03781456774453],[76.27212437817803,33.035869656023976],[76.26698619621243,33.0367992544235],[76.26084508924976,33.03483644638277],[76.25257922948492,33.0295699150883],[76.247435541745,33.0215737966646],[76.22588577374933,33.023719903887525],[76.21771211616675,33.01740032028357],[76.20740806526055,33.01669189562381],[76.18670375208427,33.02129102297744],[76.18197918501835,33.02028801891754],[76.1736965734699,33.00975100083957],[76.16613438383007,33.00700934899231],[76.14939110027103,33.00813504919188],[76.14148444444885,33.01002376470956],[76.13237008277883,33.00781763827547],[76.12175919432099,33.007971343321856],[76.11230620551828,33.00632592169319],[76.11276368066154,33.002060202417795],[76.10908091947488,32.992176560613245],[76.11153838669873,32.9878545629374],[76.09929259227152,32.96613732328302],[76.09730716188182,32.96431212679181],[76.08736258441274,32.96255844986314],[76.08810323907642,32.95622811457076],[76.07338922998116,32.95290252449598],[76.06628158607839,32.94195072971752],[76.04382647527791,32.93678873741533],[76.03933746264931,32.93278172107472],[76.03695834468783,32.927943884717024],[76.03806138782181,32.92241028776414],[76.03208614219994,32.91674699847857],[76.02278297262353,32.91415320319993],[76.01398710234946,32.90976618945831],[76.00716797126478,32.90258054480694],[76.0037891550545,32.90310923657751],[76.00129722665986,32.900765090447635],[75.98575853269273,32.896228739734624],[75.98073044375695,32.88746532695592],[75.97453832775744,32.886048167902516],[75.95393750589182,32.87339814172873],[75.93318589731416,32.89111624656363],[75.92696062270085,32.8998655543615],[75.92453687553791,32.90624140390031],[75.91580894754367,32.90940059145862],[75.90888229530594,32.913903032410246],[75.90177927054043,32.913589983284794],[75.89382172336065,32.91556658169293],[75.88925197015425,32.918961770568615],[75.88181991136469,32.92056258435019],[75.87802705714842,32.92505932108145],[75.86995425881281,32.92425452248517],[75.86349249731109,32.92679525349723],[75.85614872584603,32.92639661085798],[75.85003181410713,32.92991375363766],[75.84234733051937,32.92931310249139],[75.83710501045618,32.9244182101358],[75.82994595866478,32.91307929942036],[75.82427433013402,32.908636068697604],[75.82225753057452,32.90063498977679],[75.81846282133716,32.89537185677966],[75.80469882467247,32.88648741529863],[75.80132993843955,32.88567090304389],[75.81131877769911,32.87784694700616],[75.81446478113037,32.870829683278885],[75.81567829278987,32.861627091771254],[75.82145685317863,32.86001704666671],[75.82347327005584,32.85392898192191],[75.83117131550938,32.851128962467044],[75.83444283334876,32.846255028451026],[75.84492353615911,32.84455398010385],[75.8474047018384,32.83886600303299],[75.85071684778313,32.83627917703819],[75.85266677136309,32.83752573662531],[75.8567198926699,32.8357880344584],[75.87024546028852,32.82139890168247],[75.86945177717553,32.814363966351664],[75.88379984316668,32.81221913501918],[75.8888079589604,32.80321924348175],[75.89071822910705,32.782786626495124],[75.89809626950364,32.77633895061763],[75.90087930864433,32.77573188343621],[75.90244682210272,32.77021642901417],[75.90927113826325,32.76576725712226],[75.92460413779321,32.74831628222],[75.9260821979139,32.7431201615604],[75.92187130729036,32.735402624656615],[75.92210499592659,32.72972402547214],[75.91831191982664,32.72348472215083],[75.91042681458805,32.717874982727096],[75.91032998248869,32.71473417628482],[75.90111907168875,32.698606671547964],[75.9037519250902,32.695350078078775],[75.9007277880088,32.687649439818756],[75.90084110239707,32.67854564332748],[75.90237553539515,32.675317234843135],[75.90017978693942,32.672991507174174],[75.90043126042161,32.67040805655171],[75.89524328304344,32.66621550951095],[75.89662416251838,32.6628371822228],[75.89571705452431,32.659848350903474],[75.88932620782765,32.6532331753001],[75.89025970293483,32.65144871064956],[75.89658887310077,32.6496536514864],[75.90904876121294,32.659334644944295],[75.91852250469208,32.65397837828283],[75.91833164862692,32.64463766905186],[75.92683267026518,32.64373153754315],[75.93197063483831,32.64659150236224],[75.93673059013662,32.647888813128645],[75.9334179743729,32.646758824889844],[75.93379000266481,32.64265472053319],[75.92897851640862,32.63830233897119],[75.93090437232536,32.633209897515485],[75.93008615262852,32.6314859303431],[75.9270389674719,32.63162252629894],[75.92415428395674,32.63682178113771],[75.91858481004357,32.633179330836526],[75.91884519930517,32.63073476838946],[75.91547974194151,32.62771157869872],[75.91821298656771,32.62198096328075],[75.9158910176281,32.612979406608304],[75.90914260192255,32.60857347807888],[75.90789840021966,32.60172478871323],[75.90199402628377,32.59279913849605],[75.89475372636645,32.589692858834496],[75.88718221580712,32.59082491177048],[75.88094115779415,32.58646180904856],[75.88277737801536,32.5777720310266],[75.88082881897628,32.5707420011654],[75.8793301425199,32.568849708093126],[75.87275374161482,32.56710966578163],[75.86913861997579,32.56347361965845],[75.87627802740889,32.5551207390659],[75.87612858098333,32.550463443141325],[75.85775869278643,32.53791155481724],[75.85846608103839,32.531045404319286],[75.85704893837209,32.52906323287277],[75.8412945193794,32.52361190768755],[75.83935928774599,32.51976227552285],[75.8413393192609,32.51509415942513],[75.83392811396237,32.51543037554069],[75.83436281501653,32.511786890345114],[75.83873440705788,32.5126967060539],[75.84378025389024,32.50912556032926],[75.84903596783423,32.498197908409935],[75.84720407030628,32.497067107679634],[75.85757394885829,32.4839064134401],[75.86776216829693,32.4785278137253],[75.87483388228334,32.471036214110555],[75.87662841708202,32.47240897656403],[75.89092476167231,32.45724952644503],[75.90175045797594,32.452754423275636],[75.90385430787975,32.4441996868393],[75.90788775248863,32.436481928606064],[75.92059007523484,32.429128594832314],[75.91799271337177,32.41443328435168],[75.93220472052998,32.399029621636664],[75.93647378066142,32.39742020501809],[75.9347380648526,32.393384884697014],[75.93284392126196,32.391480736469696],[75.92905737860896,32.39442455242231],[75.92332014162152,32.39125484702166],[75.9216898547894,32.39653207278667],[75.91867149028194,32.39542198414834],[75.91609398477992,32.397037104636404],[75.91140007541799,32.394160957403564],[75.9052049877915,32.395183040687655],[75.90125052126582,32.393535629165676],[75.89376741032034,32.39325560939362],[75.88716549995617,32.396100032154436],[75.87347687553702,32.39554087007179],[75.86410463539681,32.38836053902714],[75.85652736663654,32.384755403512514],[75.84737434507007,32.37385498797309],[75.84778138879328,32.36913402432958],[75.84414959621932,32.35584349600442],[75.83472472378661,32.35703636038848],[75.82701180492685,32.350529160211046],[75.81120736863754,32.34855244254552],[75.80789687020304,32.3411145000106],[75.81347310753198,32.33584183697846],[75.81521307506704,32.33037703048306],[75.80317602126408,32.32852061832937],[75.79779638023504,32.32462671614677],[75.78937401508301,32.31519774278391],[75.7814952384757,32.30909066851143],[75.77297957878982,32.290266583380124],[75.77055113613278,32.28868730751682],[75.74480385881797,32.27690549277255],[75.713323661819,32.27263475006386],[75.66534306505253,32.253436205300964],[75.65506759584358,32.25101821954965],[75.63848871745627,32.252020439657734],[75.63294785937647,32.244924082116285],[75.61786247506477,32.23670714717985],[75.6189718980339,32.234920569952095],[75.6264599586966,32.23233153679576],[75.63662312771524,32.231444896927336],[75.63877319773708,32.22189751108763],[75.63728581579866,32.2185682551532],[75.63181241760344,32.215872940018485],[75.62648589665213,32.215505539369666],[75.62514106926447,32.209346970895794],[75.62719550643777,32.20735394630982],[75.62717703977047,32.204014614643974],[75.62421351291952,32.19032402515167],[75.6312409094197,32.189316732006695],[75.63280890707001,32.186564733298546],[75.63712970387364,32.187156910425756],[75.63744416722368,32.192652460735985],[75.64519358193851,32.19285693485202],[75.65185139805602,32.196913554920776],[75.65501231441932,32.19730285593756],[75.65783632841504,32.19396653061873],[75.66189947671711,32.19303900218777],[75.66315279182845,32.18973252471037],[75.65972999500029,32.187192863663185],[75.65974314543773,32.1835113596791],[75.65676974610182,32.18290358199597],[75.65903008342644,32.18262330254744],[75.6588772189112,32.17739862702642],[75.66720189586933,32.177597247369505],[75.66650453730753,32.165560027582785],[75.66614216590509,32.16432816792292],[75.6643987416528,32.164608703674965],[75.663880539498,32.16237940424117],[75.67305892050496,32.158765597002755],[75.66126670073601,32.13687294736042],[75.65294587036392,32.131178206695786],[75.62893382466599,32.12117511649704],[75.62548474133595,32.11823449498165],[75.62771086362807,32.11690131220219],[75.62650967954927,32.10627209292728],[75.62034712710575,32.0978741240617],[75.61087089349667,32.0931591619817],[75.60084237654925,32.09308306560453],[75.59640747843319,32.08613798874343],[75.59817391931966,32.08229561107293],[75.59424083898595,32.07895078066455],[75.59595515961963,32.075265275771145],[75.59482340543086,32.069865839063034],[75.60069829755746,32.069101433324036],[75.60170399655235,32.065839353349446],[75.62039726298008,32.07258929871828],[75.63133805053955,32.07447443471695],[75.63656850116281,32.071394654969325],[75.64718857848777,32.07301131608798],[75.6542666956655,32.077646875168064],[75.65816910482049,32.077707219084154],[75.66287389188221,32.075788057830344],[75.66319029199998,32.074064594905316],[75.67461823054818,32.070559828678434],[75.67407278249081,32.0671636012842],[75.67825501416186,32.063355383659],[75.69099291288825,32.061262776951295],[75.69830649197668,32.058049813387164],[75.70796802287605,32.04950817779244],[75.7078382450636,32.045040303179896],[75.71070120821341,32.041459721652586],[75.72341823727913,32.03303120433207],[75.72957785313,32.03613799572282],[75.74243107577598,32.03943639456496],[75.75077717306206,32.037748111128856],[75.76491824834709,32.01997599935231],[75.77973357033832,32.00470791718585],[75.79961422002714,31.99381456068786],[75.82166791864276,31.98397811604054],[75.85100296299781,31.98220711316343],[75.85694212419311,31.973860933234988],[75.87421925496592,31.969524687016982],[75.8829843184157,31.968951949471],[75.88263490251626,31.965885772311204],[75.8924567629309,31.96184469375064],[75.90366725438311,31.952783995121422],[75.9103671026728,31.95017612387864],[75.91153179718474,31.93988594140051],[75.91551519305587,31.93107392776259],[75.93661150497088,31.89888053382432],[75.93870975028568,31.891103698952563],[75.94508325500567,31.88365753106057],[75.96115886303487,31.85489290175937],[75.96593416604975,31.83831690244972],[75.97087357419902,31.83347737403445],[75.97119357745943,31.82851776997329],[75.9748231125671,31.82839784569289],[75.9767228966794,31.825358120807206],[75.98646171143928,31.817978882008866],[75.98650324145319,31.812270698200784],[75.9834555595281,31.811637940002125],[75.98191107348367,31.814034342098964],[75.97852504559845,31.81303650724635],[75.97556880947431,31.818785330783104],[75.97323419495041,31.81846729447725],[75.96937396618961,31.823865011763456],[75.96733011206864,31.82384429649501],[75.95806174951466,31.818449236638347],[75.95695085330844,31.816334877980363],[75.94746384171256,31.81304987069331],[75.94177628515364,31.812729230640105],[75.93665079907807,31.81545157269389],[75.95303625221841,31.78963048428241],[75.95307855927501,31.783319153564307],[75.96018221106469,31.781157535703905],[75.96318953797228,31.773911642099364],[75.96337480651646,31.76881502544443],[75.9662016403239,31.766566412304403],[75.97070427680228,31.75679339170976],[75.97232411712596,31.751253854948658],[75.971088285925,31.74923811756461],[75.97511856217584,31.743794022569418],[75.97539201294155,31.742570928392098],[75.97244741179702,31.741513137944423],[75.97261746827019,31.738617589345726],[75.97442437287033,31.73494027644462],[75.97839126129979,31.733721489023086],[75.9794387930408,31.726083360531373],[75.98319271786586,31.721528286614895],[75.98303067077175,31.71888048329196],[75.98869132997446,31.712759383941552],[75.98892347530514,31.707730566525214],[75.99293082654992,31.703462877038856],[75.99162284536027,31.701483808157352],[75.99307566102489,31.69691164609561],[76.00008279063391,31.687599372024327],[76.00153745682799,31.68029038557264],[76.0047506317846,31.675100436440868],[76.00594059590551,31.661921492253803],[76.00891211776249,31.65337273896186],[76.01840911143775,31.648922744698652],[76.01711625877581,31.64535152435607],[76.02100977191452,31.64062743364356],[76.01770459779473,31.632182871513464],[76.02308188344105,31.62533467012682],[76.02762230845018,31.623256638137438],[76.02839555399225,31.619385477066693],[76.03552162413816,31.613598719609957],[76.03698707101395,31.60994615061108],[76.04065866793816,31.61053364484675],[76.04609385359782,31.60334743381361],[76.04909558130623,31.602666947950226],[76.05270008755342,31.60554215952877],[76.05514925164911,31.605654804334783],[76.0579644998843,31.596327610932494],[76.05662944257368,31.59397157643725],[76.05331512270598,31.59343775180291],[76.05749462799011,31.58863820458352],[76.05596075104921,31.58550746655637],[76.05924559719246,31.58120642851649],[76.0643719869732,31.579176355741],[76.0660536646261,31.573469554056718],[76.07201293371074,31.569639966091213],[76.07307615542649,31.56344619842148],[76.07702951612609,31.56052947141113],[76.08150788012547,31.552056633945444],[76.08483656046134,31.548503876704636],[76.08858509629297,31.547640462974368],[76.09195062911506,31.541684016462654],[76.09848926394722,31.536457821582587],[76.09780834096185,31.533067220478326],[76.10201708820516,31.52567038283918],[76.10147455877411,31.5228100054015],[76.10652660128703,31.509866308037843],[76.10965140986747,31.506963627270114],[76.11307060085805,31.49994023188608],[76.12081320364808,31.497602259868348],[76.11946133706186,31.49365475533878],[76.12042744640384,31.48791728262355],[76.11701552098725,31.483067589867723],[76.12080746790498,31.47997791415023],[76.12161828728044,31.47738107627647],[76.12828040542986,31.474101097020935],[76.1287308602392,31.471644247402512],[76.13066169641594,31.47109205190242],[76.13100707528649,31.46359259994501],[76.13463585670763,31.461469622906375],[76.13544577507282,31.458909839763507],[76.13309765348032,31.451950285351355],[76.13895319948897,31.448754618975276],[76.14061694946375,31.441806105201497],[76.14573063077817,31.433937859173678],[76.15254042657044,31.43352345375007],[76.1566918559087,31.430539172272947],[76.16254280344141,31.42126633669096],[76.16012795498959,31.414758349737905],[76.16621223812072,31.412534052954225],[76.16860606779153,31.409711237727283],[76.1663533365024,31.405791268020614],[76.16975811851587,31.39900838362946],[76.1685420834888,31.39630537019069],[76.16091055918028,31.38844763382886],[76.14772750660303,31.37961671913279],[76.14727014285084,31.364566216536346],[76.14859028363621,31.361007017197164],[76.14685480498261,31.359039872989857],[76.14881400546443,31.357970169214944],[76.14932216535269,31.353320586205026],[76.15209073712572,31.352779836194472],[76.1533430901414,31.349384255666475],[76.1589971826594,31.34367389666507],[76.1787887239636,31.340531812471596],[76.18134234416053,31.333712254286166],[76.17978880399639,31.30659228180074],[76.18428566969737,31.30570710251557],[76.18626696334529,31.30214717855483],[76.19095534357666,31.300047033839505],[76.21393649612928,31.299454074122053],[76.23948709629582,31.308516322046895],[76.2500627654047,31.30790015012772],[76.25678133188995,31.31067565075559],[76.26746725752186,31.310683791484088],[76.26894013885497,31.313125283710097],[76.27072917686245,31.302965193138338],[76.27573265824769,31.300644056402216],[76.28452589735635,31.305108028183614],[76.2866821855166,31.307596811634564],[76.28948551580292,31.30681749330956],[76.29301924109393,31.310367921185605],[76.30443718049469,31.313913568274476],[76.31120874488677,31.319503415017266],[76.32259412215512,31.32166181038415],[76.312983892245,31.330054110440734],[76.307561099743,31.342646289184874],[76.33135812918609,31.346597360245475],[76.33024238117905,31.348377635379705],[76.33406649946207,31.349412557363543],[76.33557282686985,31.34919984831698],[76.33770942665397,31.340262056319432],[76.34394021782144,31.34056821201125],[76.34516760306212,31.343265845800115],[76.34680821692673,31.34340833086921],[76.34719141397245,31.34685269344457],[76.35137101807126,31.34711651797023],[76.35189367137832,31.345052274070024],[76.3544360940752,31.34495869404424],[76.3530423767765,31.348895672409096],[76.347054202601,31.349151785721237],[76.34609325947021,31.354452538692815],[76.34240654389978,31.354783028260833],[76.34265068173949,31.363290699186923],[76.34076598303574,31.363523957995582],[76.34170573850223,31.378150768931608],[76.32960398084596,31.37858582702743],[76.33181131846716,31.38391520628568],[76.3310808722585,31.401245007532562],[76.34222975096029,31.400908244500773],[76.34277385873125,31.39827377538703],[76.34337959182903,31.402368151035652],[76.34655430541676,31.402402041632723],[76.3470275962989,31.398322428580453],[76.34848447594187,31.397794203623384],[76.35674181877957,31.40043602556769],[76.35929754013594,31.403218381075774],[76.36778644350106,31.40394848291108],[76.37229467199211,31.409025354767774],[76.37248576341597,31.412787876088156],[76.37060598029346,31.41540763548845],[76.37279894037853,31.424867835346287],[76.37024591037475,31.428756581595028],[76.37111266963957,31.432468547722117],[76.37338220122115,31.43333431219585],[76.37395535871175,31.437225985405007],[76.37514520694997,31.43700602526201],[76.38059267886777,31.4310375261889],[76.37921670060099,31.428436030440874],[76.38320818130966,31.425599320207652],[76.38313763571209,31.4231196255505],[76.38994422182382,31.416592702832627],[76.38798596636968,31.40912522757152],[76.39685275504223,31.40738780007371],[76.39977247734498,31.399505896784333],[76.40329635889712,31.39689274322462],[76.40377778402419,31.392267267820948],[76.3983578140288,31.39340108387108],[76.39441316698748,31.390456964926834],[76.39293615969228,31.391035426399792],[76.39264869161484,31.3895493453436],[76.40107029050395,31.378505720116355],[76.40418129916496,31.37787055842091],[76.40786158189967,31.365930809372475],[76.41848701767529,31.350077006895923],[76.42399988874242,31.349054426841096],[76.42659276711385,31.3444587729704],[76.42511610117847,31.339617351703584],[76.4317317979873,31.32686661216119],[76.4358012461744,31.326124542898587],[76.44022927487349,31.319179347586086],[76.4464443068959,31.31713614092148],[76.4546113241318,31.31176823276666],[76.46379847179762,31.30145889711924],[76.46273599029362,31.29821109944158],[76.45853696192341,31.29535192203835],[76.44096087990887,31.28762626262605],[76.43967313147434,31.279040802343626],[76.44275229845181,31.27722366277994],[76.45928423806892,31.285736913820962],[76.46339071301541,31.293466931588743],[76.47477469609842,31.301957975058897],[76.47953005202243,31.308253582019024],[76.48613538856108,31.3039772804771],[76.48887565711446,31.29621797932883],[76.49206525758306,31.29386659861976],[76.49157810928934,31.28847712353308],[76.49532473799763,31.28869177303673],[76.49724464077907,31.28599379545531],[76.49518738469236,31.281622069303577],[76.49732354250538,31.270544016100796],[76.50113993437868,31.269973279587813],[76.50387476722629,31.266939684422923],[76.52130244575925,31.280258518764818],[76.52740279885252,31.27722928968465],[76.52895650700162,31.270890226300583],[76.53052358298045,31.271112134004905],[76.52886880268379,31.26571420891276],[76.52604104630657,31.264943092902367],[76.52390236692253,31.262335640946052],[76.52376839757098,31.25819710983184],[76.53139314319235,31.2564452228246],[76.53931356659453,31.26110738961851],[76.53994826766528,31.266319547374287],[76.53770087865716,31.27060809470192],[76.54106241487449,31.275018129054665],[76.54289322274603,31.28249325900665],[76.55126995617661,31.278808651598617],[76.54880499520664,31.27433297096086],[76.55017397649569,31.269934210701614],[76.54358450869653,31.258957919587463],[76.54424209884068,31.25622438567969],[76.54918119347796,31.252815701988304],[76.55281391221499,31.25518051607907],[76.55644787871191,31.252458660977634],[76.55999006074303,31.252821904780813],[76.5657441043111,31.262207911692272],[76.56951056692257,31.26146871344315],[76.57193190749895,31.264847917519944],[76.57127187393719,31.266223435069364],[76.57511795063903,31.270291856677602],[76.57912364000053,31.271169195989412],[76.58347623447027,31.27621007049725],[76.58771752857463,31.274257866455002],[76.59232343627637,31.268419879821252],[76.59258412198194,31.265067174200926],[76.61169506189766,31.2498379405365],[76.61214464174793,31.247890525404546],[76.60978450429016,31.243581910898637],[76.59837470003264,31.239648434527798],[76.59470760366798,31.234349581171788],[76.5952341053577,31.22675591190211],[76.59276861078847,31.225947115943846],[76.59189013839067,31.223028004486267],[76.58859761793994,31.22284849141111],[76.58896033609211,31.21919827320513],[76.5923518266326,31.217545276475636],[76.59131661438741,31.21421713386686],[76.59268195660121,31.214309245708836],[76.59319233712483,31.211694035812357],[76.60087411498696,31.21257102453628],[76.60116352252709,31.214904383077716],[76.60358751582854,31.21441916672157],[76.60623839212968,31.216750337772517],[76.61414939400117,31.217890643120835],[76.62774934661697,31.226556428853943],[76.63175780997608,31.223824685668262],[76.63438718779582,31.22471694325886],[76.63589069269699,31.223174973264804],[76.64177368762746,31.22273518474582],[76.63716914356831,31.22080985331087],[76.63684861748838,31.21770582094994],[76.6345362443526,31.21786140922465],[76.64229066717515,31.214235057634497],[76.64539324065565,31.20912093473324],[76.61775449762806,31.19291368486895],[76.6112148423097,31.182346237621744],[76.59998199089178,31.178514538590417],[76.60172865626562,31.175759683756883],[76.60765204933274,31.17790199483995],[76.60753516773447,31.174433647952362],[76.60903996710793,31.17330180682901],[76.6031138207045,31.16501861390251],[76.60528165760599,31.16020208350108],[76.6017912023656,31.15315668356978],[76.6065510741205,31.15165043335867],[76.60727506503555,31.148523728316228],[76.60993402078437,31.149447772313735],[76.61238964556355,31.14822716841099],[76.60894286461563,31.14313417901814],[76.61062810768189,31.140621416569584],[76.60431020149146,31.133861959944706],[76.60417857225116,31.130647908534208],[76.60163829383286,31.128599836346705],[76.6020126712191,31.12379407639051],[76.61336566601807,31.122262629701442],[76.61696931886574,31.116175349086323],[76.6242140564607,31.116644582487915],[76.62506132408049,31.11514457712397],[76.63073283672847,31.11688072067526],[76.63297639981178,31.1155577695313],[76.63606851690241,31.11637389654279],[76.63859073469193,31.10810390155727],[76.63779454348258,31.103750368297003],[76.63187998354964,31.10002351511615],[76.63216743545739,31.097877600280423],[76.62565631871735,31.091379277415363],[76.62313867694586,31.079622646336222],[76.61803411173496,31.078230956576718],[76.6179286665886,31.070226432068345],[76.62339084662254,31.057524925848828],[76.62179849115327,31.056812339987726],[76.62261919828505,31.05503266584238],[76.61096144283943,31.045884577326447],[76.615986260111,31.036569846989075],[76.61700253587001,31.0298599364337],[76.62906806626751,31.023532075669326],[76.62672070644636,31.022100530503607],[76.62681406745551,31.010898194585067],[76.62471386650836,30.998826576934192],[76.63380009204525,30.995933326658886],[76.63802097462973,30.990295454190385],[76.6515596980757,30.98772248209936],[76.65906937669573,30.981445884884465],[76.66122982764898,30.980898910630675],[76.66247701175854,30.9822991502965],[76.66575087060754,30.98075451694508],[76.6683357270235,30.976803388558263],[76.67288915065477,30.974191816872597],[76.67321612753673,30.968831639073308],[76.68361007554847,30.967911710049066],[76.69973166204885,30.970919791228283],[76.70959404726258,30.969772775785156],[76.71137023756484,30.964940038889647],[76.71684834562707,30.9598606598215],[76.72227039791728,30.961099231416856],[76.73372716789451,30.949324640075226],[76.73716370176001,30.949607480718786],[76.73604601968013,30.94774224768549],[76.73717144613607,30.939881381553356],[76.73973437916753,30.938080685063426],[76.7399400933676,30.935501420596278],[76.74685535227253,30.9320516450192],[76.74980230700312,30.9274437236267],[76.75692301959667,30.927662092130696],[76.75953912570644,30.926080911590475],[76.76002861500982,30.92271213538135],[76.76603621794828,30.920863352518026],[76.76687432634543,30.916580134673296],[76.77204781569483,30.909454147786956],[76.7714147890838,30.90707493498352],[76.77604841610025,30.90582978622469],[76.77673348031908,30.904286662733107],[76.77606142729884,30.906026052304778],[76.78680825601207,30.913394209042625],[76.7981364267665,30.915291252735045],[76.81111873103058,30.924061269927048],[76.82237924696598,30.928598909224085],[76.82512167866257,30.92640367569459],[76.82736332743605,30.9212767624785],[76.82603490418379,30.920707977302122],[76.82927480581672,30.91667728568475],[76.82643093995152,30.913185516556975],[76.82995400313841,30.907197641548333],[76.83401390672564,30.90455169217333],[76.84101643426548,30.891713901969116],[76.84456278897109,30.88931552157219],[76.85106273785553,30.890006966762964],[76.8560370904694,30.884298238713157],[76.86037734298543,30.88372604591904],[76.86297172334007,30.87767401825085],[76.8671653519371,30.87609132946664],[76.86955500354352,30.873178073439068],[76.87834949220874,30.87579848117707],[76.87592343188385,30.88095793985258],[76.88527295991877,30.883018668431312],[76.88730739071238,30.885584650857535],[76.8952822825635,30.88702239078631],[76.89492743365321,30.890472612916774],[76.89906968220929,30.892753953875264],[76.90859327320351,30.894213201083424],[76.90950948562303,30.897054219100642],[76.91684865591726,30.900822486498132],[76.91665711084421,30.89347123831958],[76.91477896535045,30.89164079635211],[76.91739007862384,30.883517543936158],[76.92233008415282,30.880530248540143],[76.92464825501546,30.873931309999094],[76.92836440388616,30.871481001897827],[76.93308756149543,30.874496113255116],[76.93637646173556,30.874629946481683],[76.93835592551525,30.871449512523135],[76.93699654452165,30.86899769754207],[76.94368399965371,30.85921411067466],[76.94417777392097,30.855114784706203],[76.945929870509,30.853482917325763],[76.94971991299836,30.853272555762185],[76.95122748906437,30.85057946267955],[76.94397319159816,30.837712003899565],[76.94892826636601,30.824490437911155],[76.94261563957448,30.817485326685542],[76.94591896316481,30.818471237597933],[76.95054508745204,30.81376468705102],[76.95305766182699,30.81931061246043],[76.95863847158073,30.825084479709695],[76.96145765533521,30.82058612724701],[76.96473764159273,30.825707353927545],[76.96833810631951,30.825447723853728],[76.97189469463281,30.823221789797774],[76.97389147703286,30.818597545419472],[76.98122870337285,30.814325289650576],[76.99851610099107,30.811861156213297],[77.00247912486815,30.806392166387294],[77.01041094070479,30.810419352125667],[77.01223446862927,30.809900537891657],[77.01195663498324,30.80023434262842],[77.0151064014572,30.792863533337623],[77.012982845211,30.7887279125334],[77.01809248769989,30.786298955565133],[77.01856840345931,30.780080466488283],[77.01423303238852,30.775440545138437],[77.00109824808813,30.770043525993415],[77.00812453067734,30.768863948078813],[77.01039886644905,30.76680945871271],[77.01467018584346,30.767643017099413],[77.01859499898163,30.765314660686297],[77.01890458358136,30.75446368538332],[77.0162879196178,30.750217585063975],[77.02066712218625,30.751980084168775],[77.02107272950333,30.748656493953742],[77.02360768270864,30.74858521406298],[77.02391443132704,30.746964318052633],[77.02400294682353,30.745356333637147],[77.02075723309069,30.744774425429778],[77.02052074530394,30.740055285001997],[77.02974590697765,30.73369019921592],[77.03565766147194,30.735413593290698],[77.03606135986905,30.737021890369423],[77.04782787344779,30.73802696319515],[77.04371990190803,30.74629576034278],[77.04477818917798,30.748009877614304],[77.04702549823602,30.74805124549616],[77.05050803662385,30.745701145197227],[77.04934757138027,30.749323805443733],[77.05740560500588,30.74201282212612],[77.06430917503232,30.742258553102257],[77.0696338768952,30.73765692073178],[77.07929975923379,30.740637214767396],[77.08294252023737,30.739285076711333],[77.08707596799859,30.74043046040439],[77.09580040963124,30.738773838408214],[77.10110444844592,30.73405061049646],[77.10935346390094,30.72923629436539],[77.11401938804684,30.728118310167208],[77.11566148772496,30.72278985096413],[77.11384053437207,30.718078987678616],[77.12017867241934,30.71881756268928],[77.12429605920163,30.721847605750174],[77.12795555671724,30.7161472616285],[77.12882540977989,30.710806481704743],[77.13758810796554,30.706242358555414],[77.14217141854634,30.699521964296192],[77.14785505755233,30.699524706395213],[77.15481153206079,30.692656805663933],[77.1611965154535,30.69098490948868],[77.16717552771145,30.683959706342794],[77.16371126824305,30.68380472251408],[77.16592832024568,30.68225008839566],[77.16207126972435,30.682010778991945],[77.1608708869428,30.680260260347342],[77.16596723616212,30.67623085970257],[77.16880495934741,30.669786788989317],[77.16859041111488,30.663387230104718],[77.16630528927153,30.662195142408056],[77.1648693700191,30.65661778429646],[77.16293590806679,30.655264769899496],[77.16343041535934,30.650918817155606],[77.16478229092873,30.65142222031206],[77.16475882513687,30.64676787965161],[77.1674794071108,30.642457247347714],[77.17689500803145,30.6370282160194],[77.17570510050443,30.633759958929723],[77.17290276195817,30.632861600415385],[77.17133943824227,30.627708580515616],[77.1725760006719,30.619250485370827],[77.17057907364308,30.61350266249679],[77.1724593445508,30.609373436834307],[77.17079275230645,30.60434956083044],[77.16943880881529,30.60499250366134],[77.17230448308062,30.601312428737156],[77.16307243761693,30.595308441552756],[77.16433136899543,30.592614837041623],[77.15835211509071,30.589963509643788],[77.16000618212506,30.587764681208103],[77.15669979887288,30.5851604348605],[77.15210400889613,30.584474375020488],[77.14747604126597,30.578218255680856],[77.1396017697098,30.579419564222192],[77.13950998883722,30.576231775389804],[77.13810822443023,30.576043703422638],[77.13716638756723,30.573210829402864],[77.13813749872871,30.570841814776266],[77.12452517810809,30.565264057347203],[77.12279910122228,30.56334323647314],[77.12778884916347,30.558757910978063],[77.13530998848988,30.545456178547692],[77.14470655590628,30.539080090874105],[77.1514681723549,30.53699894159868],[77.1689573073314,30.536086214567117],[77.17142472429535,30.535060502808065],[77.17240917184554,30.5323063243739],[77.17873504788918,30.531107678489267],[77.18533603478522,30.526717081449632],[77.19293056736865,30.52559988529335],[77.19566842574211,30.52262101682622],[77.20680883422911,30.505819245446933],[77.20796149580784,30.490446350856573],[77.20944121511688,30.489013028622754],[77.20765958910883,30.484209006075993],[77.20776792772871,30.474423093970373],[77.21072468397736,30.46477852843625],[77.21348399950973,30.46566327001604],[77.22037139896275,30.47718802443708],[77.22647027163241,30.48045576156096],[77.22817160442374,30.478561296195664],[77.22946906095153,30.479793990175633],[77.23684804637578,30.4785286395106],[77.24344618830733,30.47563348275723],[77.24627998495652,30.476971627868167],[77.247775062762,30.475726309534323],[77.25120137200291,30.47854396992963],[77.25825947202115,30.477706720512387],[77.2635795520519,30.481574093424673],[77.26890606761333,30.481333849222786],[77.27201160373762,30.48010743934909],[77.27646689001737,30.47482690748399],[77.27767188025803,30.471252984701295],[77.27684393899327,30.46423356199131],[77.28038178485649,30.463532653080847],[77.28398520144725,30.465295530651883],[77.29052305115188,30.46290375692211],[77.29554715875437,30.46657885554358],[77.29872199720792,30.464433255074045],[77.29889476928821,30.460467454759375],[77.30578532003123,30.45704701842156],[77.30542859094707,30.453543862365816],[77.30865523434473,30.453879086455004],[77.31728640749466,30.448240824304232],[77.3204871749206,30.448887262814846],[77.32084472955651,30.445835469441267],[77.32728251053172,30.449440882470583],[77.3295683222812,30.453394162970095],[77.33386623180799,30.455251843600184],[77.34280704525322,30.457456904441834],[77.34747086015484,30.455414509278313],[77.35416376536568,30.45824795699018],[77.35535741886743,30.453341994170433],[77.36374511982929,30.44126415312399],[77.36425142289984,30.432655880767705],[77.36740205804469,30.440266679194767],[77.3775489280308,30.438962870760804],[77.38713031303715,30.440051863438715],[77.38997880792101,30.439473771383227],[77.38918448430914,30.433027568014342],[77.39083017994334,30.430029567111628],[77.39823348455899,30.429752335415753],[77.39941937212508,30.42724888627287],[77.40262681583019,30.429265397299634],[77.40727175083946,30.42716777551457],[77.40515458880142,30.424144516267777],[77.40307912476226,30.423882601444326],[77.4034110908873,30.42078862540285],[77.39788553291345,30.41620397254205],[77.40471361032004,30.408649184558854],[77.40845463264266,30.40880117149829],[77.4083966418995,30.414187884912874],[77.41385607308868,30.41697769646356],[77.41610200323281,30.42393036060795],[77.42051528339155,30.423678859993302],[77.43411506622571,30.431106528354928],[77.44327724072664,30.442728293448216],[77.44736727021521,30.446349008969705],[77.44926630064101,30.446128702649332],[77.45366204209216,30.456095030296314],[77.45647038318113,30.45566810943984],[77.46344210120168,30.4478233263734],[77.45881809065033,30.441875485180983],[77.45893859605242,30.43287756756892],[77.45155916236881,30.43202171512046],[77.45129301849963,30.42873977882787],[77.44418560636215,30.421550837485604],[77.44285867341493,30.417416468777986],[77.43195616306971,30.41581326081434],[77.42867038806844,30.41064284132686],[77.42231347163849,30.409731654619904],[77.42141046714858,30.403260270392458],[77.4365043090987,30.40321220902026],[77.44323091550575,30.395401322066046],[77.45202380876302,30.40008090525496],[77.4600350680101,30.400244612870893],[77.46290919632061,30.40172097217217],[77.46767200826149,30.399843631464318],[77.4705095095629,30.40026079549417],[77.47636711091694,30.405129319698638],[77.48937539086576,30.410623552227914],[77.4946109241569,30.404801571148635],[77.50247582808127,30.404674290892324],[77.50540128882204,30.409145867932565],[77.50650131451502,30.427544152906844],[77.51849113939195,30.44334845916698],[77.52319335278035,30.443537501260156],[77.52931944979302,30.436642384893354],[77.52869559138777,30.431180143502935],[77.53231531599423,30.42052786586426],[77.54356159542898,30.406228984294334],[77.5517170459573,30.39901137534317],[77.54983676157485,30.396677609336844],[77.55054504544712,30.395050408542616],[77.55892541795289,30.388108323805902],[77.58102482554516,30.377701333491753],[77.58196030413256,30.3792468139901],[77.58561061098452,30.379557401302083],[77.58468606938567,30.38534598997638],[77.57602127409129,30.397443669214223]]]}}]}