{"type":"FeatureCollection","features":[{"type":"Feature","properties":{"shapeName":"Jammu and Kashmīr","shapeISO":"IN-JK","shapeID":"1811400B42025667129192","shapeGroup":"IND","shapeType":"ADM1","displayName":"Jammu and Kashmir","coverage":"context"},"geometry":{"type":"Polygon","coordinates":[[[74.133484414022,35.10748800859642],[74.12910109537279,35.105049358732],[74.11491694676835,35.104216122815444],[74.11058644366807,35.10133237700194],[74.09239123197995,35.096031890895574],[74.09124938701541,35.09005275148121],[74.06550075953282,35.04802250136629],[74.075533629716,35.041649972955554],[74.08435561132058,35.03955863312126],[74.09686931480667,35.03367662602335],[74.10283245563011,35.024982447747504],[74.10727210044416,35.02237585285775],[74.10736941224388,35.018995199397466],[74.10313023097706,35.014176771394716],[74.09394685533721,35.010398841521976],[74.09001857200695,35.00568234597779],[74.08069525321883,35.00364509684999],[74.07591839252535,34.99836485271612],[74.06441422384046,34.99816559686644],[74.05966406646706,34.993129910268465],[74.05944137231148,34.99111397485143],[74.06468633431984,34.98826550877493],[74.06567605857384,34.98263106120203],[74.06295810417225,34.97055197539794],[74.06345993812425,34.96434789523795],[74.06675787002621,34.95401104937048],[74.07189755846639,34.94575613107469],[74.07316230463977,34.93947844829364],[74.06498179470827,34.92962438412417],[74.05815306602318,34.928403452093335],[74.05444496515895,34.92471587460108],[74.04303330767704,34.92135628794762],[74.03884141103197,34.914518971072425],[74.03728065110778,34.90276129547823],[74.04135736397058,34.89402915734371],[74.03784852291125,34.89239472810607],[74.03128057605147,34.88280429829575],[74.02949837961319,34.877137862337975],[74.02491597543246,34.875016819906136],[74.01615563801948,34.87532140686892],[74.00205160386679,34.87099169505956],[73.9934309176495,34.866574496115504],[73.97352731600512,34.86484441673548],[73.96354003622082,34.84121388884353],[73.9541696349321,34.834950793150824],[73.93804395031731,34.83445185712833],[73.93481342709595,34.8330177931532],[73.92698619581967,34.8202422672897],[73.91731438639675,34.813989356167326],[73.9126711123725,34.81390491164552],[73.90798882092207,34.81583455102145],[73.90041251156248,34.82133555519505],[73.8966012427814,34.82126306359015],[73.88690597205823,34.81679732084177],[73.87457262243345,34.81792582391927],[73.86658336202947,34.81099054280628],[73.86082087250105,34.8115678076598],[73.85328179561509,34.81684039676276],[73.8488802735049,34.817213284852926],[73.84294321706238,34.81531572717449],[73.83266923007375,34.80315887998722],[73.82032073395493,34.7954695941076],[73.81020740616316,34.79484186058039],[73.79866840081178,34.797097077283524],[73.79190386932999,34.79404107180426],[73.78511870803777,34.793449914111875],[73.77298458408183,34.79638227563561],[73.7611510391148,34.790281929526486],[73.75654940020718,34.789969142109726],[73.74926615722603,34.78665564482708],[73.7370716386352,34.77335607997537],[73.7305915263488,34.77096209872889],[73.70577157091867,34.72487306654989],[73.7007605877024,34.720052598670975],[73.69076086625154,34.716225524629124],[73.68553945986639,34.709135186456194],[73.68051152454268,34.6950664346017],[73.67493872506623,34.68952062359318],[73.6695200944589,34.689203680034495],[73.66664767833743,34.68416942696729],[73.66272115750184,34.670532563470545],[73.66613818445103,34.665651969108865],[73.68241488933967,34.65957025079376],[73.69341533491541,34.65715357206602],[73.6954326716675,34.65356773556488],[73.68949569517503,34.643082188557344],[73.6593894857761,34.609954000024516],[73.65674581845514,34.598613376980495],[73.6600623212289,34.58852372095282],[73.65685125102505,34.57762495560041],[73.65006238508062,34.56778986270831],[73.6386778010247,34.56571924306951],[73.62780356066139,34.574107245285916],[73.61761008338351,34.585629556821516],[73.60722372164429,34.58610380451529],[73.59675907891449,34.58951680602655],[73.57936459762288,34.5873513265679],[73.56757905323485,34.58915880651654],[73.55656873697063,34.59296311191878],[73.5527495818796,34.59268302782152],[73.53471450746719,34.57719189292686],[73.52222774535494,34.57422604968298],[73.51019713157433,34.575083000854136],[73.49995145050013,34.580073620677865],[73.47504762655842,34.57367553563546],[73.4685148819795,34.57353801972374],[73.45967227146281,34.5778726945382],[73.45584679762203,34.577798219386466],[73.4469765037233,34.57375042647675],[73.44208418346454,34.56486119524652],[73.4405069762858,34.53793434976325],[73.43416754825796,34.53192389605482],[73.430033836392,34.52552415130077],[73.42915882879618,34.52091786160105],[73.43672585316898,34.503973287051],[73.43362281256464,34.49057499378199],[73.42147518243826,34.47021677009275],[73.42460338754887,34.441815866293666],[73.41941345363972,34.417295461971946],[73.41104050211669,34.3995145881446],[73.40848175792934,34.3863442110204],[73.39366655810898,34.381044827441144],[73.39054879950692,34.37668436719673],[73.3900754439461,34.374199166582514],[73.39652755215172,34.368911202245556],[73.40069420703577,34.35790973828102],[73.40764900977939,34.35422938768892],[73.41282181730753,34.35413130429913],[73.41779287040947,34.35170869580685],[73.42428333847431,34.35299704509487],[73.42549881115593,34.34895774786111],[73.4229712277293,34.3432301046941],[73.42338610925344,34.33920001600484],[73.43149971445911,34.331886034148056],[73.43731965933483,34.3290912185538],[73.44206342609328,34.31766370707982],[73.44368034150244,34.30887701200231],[73.44872526217176,34.30512986887942],[73.45281240627173,34.29688405165609],[73.45304755377197,34.27784192599938],[73.46090840359955,34.281662678904866],[73.46700963794007,34.29557010519477],[73.4740654499492,34.29548804793461],[73.47780577428091,34.29017050811865],[73.47856158531988,34.282933946160256],[73.46964479731702,34.263992309614764],[73.46926019530616,34.251306828019494],[73.47379343828464,34.24508625688185],[73.47713453243944,34.23431811844847],[73.48359700810175,34.22857234191389],[73.48875739192954,34.22614966899067],[73.49230410865607,34.21970415534622],[73.48844885386706,34.20491913976838],[73.48737153488958,34.18793941837271],[73.49138828790211,34.15613173606704],[73.48823590104246,34.144317627055955],[73.49272280712188,34.140328680105085],[73.4945429672623,34.13358380429736],[73.49200396445167,34.11995056164767],[73.49788772564511,34.10720027967932],[73.49560375993343,34.09243873775591],[73.49670949980998,34.08398428282493],[73.49792625259101,34.08026289308316],[73.50321119591774,34.07561501350665],[73.50752344255642,34.059868906008944],[73.50756448388677,34.04155679826215],[73.51417555706684,34.02291175196132],[73.51416968477986,34.00617058621839],[73.51570815121357,34.00009079879004],[73.5362579308046,33.951636772416805],[73.54882905011209,33.93107775216737],[73.55694000438939,33.92375607656555],[73.57387146074598,33.911913087558844],[73.5782426422573,33.91038979425883],[73.58538150890445,33.899017723596955],[73.58911646849708,33.883919431646746],[73.58528007114262,33.87705163084422],[73.58489101528454,33.864141498261176],[73.58168815298734,33.86179533883512],[73.57797535483274,33.85109773432231],[73.57422395337517,33.84941340167336],[73.57206659532159,33.845404480666446],[73.56989362364982,33.82794665091626],[73.56690480024042,33.82324250760939],[73.56052954560226,33.80182772502502],[73.55759834103361,33.78317668733507],[73.5597342383353,33.776437066355356],[73.56565392764844,33.768618584522244],[73.57867718520788,33.75987093538987],[73.58712521432932,33.75796538041453],[73.59050377362138,33.75373726290513],[73.59319993040276,33.73637467813842],[73.5967098063212,33.727846299662076],[73.59684169786954,33.715836286507965],[73.59034841628124,33.6984823784548],[73.5738265773212,33.68672743728132],[73.56238597252752,33.675488377441525],[73.56109886459171,33.66391563351891],[73.5675718083221,33.647951918255785],[73.56835312073542,33.64070114746136],[73.56058956833465,33.62106245944756],[73.56370426727483,33.61636594268953],[73.57258868628315,33.6179259048381],[73.57751578391986,33.61577813604151],[73.5886848468678,33.60421407159134],[73.59544552008532,33.60435468243588],[73.60077925361003,33.60761514220792],[73.6029663755441,33.60722502162605],[73.60464432429029,33.604521447415664],[73.60013806849952,33.592874248356395],[73.60422395855142,33.58789378300696],[73.61232507088653,33.583842231860274],[73.62022037380001,33.57381207500589],[73.61819178475076,33.54362660030614],[73.62068582418635,33.54119011975763],[73.63018515168483,33.53751351395812],[73.63233140566325,33.53311609595431],[73.63133586302098,33.52892536779535],[73.62431004845405,33.52878181242295],[73.6142774369855,33.520891056932726],[73.60649874797224,33.51958299064489],[73.6047753372863,33.514113531364046],[73.6087375940021,33.50047024336851],[73.59938605733419,33.50465287839381],[73.59683881607413,33.50453225020851],[73.59576680613998,33.50008498864065],[73.5969325974948,33.496980342877066],[73.59524065838633,33.49058548804845],[73.59968246544543,33.48727456410347],[73.60076795460049,33.47798931471152],[73.60516449914547,33.47604743742164],[73.60935135893675,33.47998307259547],[73.61232110482456,33.47981356308685],[73.61419986566409,33.471703098552894],[73.61701657366177,33.46834672395562],[73.62162170701572,33.46775005331989],[73.62358345961127,33.46530689222226],[73.62411811351217,33.45716751446844],[73.61726520756952,33.45158181897227],[73.61105233689364,33.451918612631005],[73.59722163313256,33.44409352903676],[73.5871361189786,33.4431453809114],[73.5875560966453,33.43541301736337],[73.58355096334083,33.433100047659764],[73.58191012130413,33.42904780175684],[73.58358285173688,33.426406332884426],[73.58997551572531,33.42594333524738],[73.59063996540493,33.421788594829025],[73.58501395062945,33.42033456636926],[73.58147687282582,33.4143155151591],[73.57317145484899,33.40789324960332],[73.57267514643434,33.40103842719918],[73.566745191174,33.3979420549901],[73.56412648533995,33.3939467147581],[73.5577569538683,33.36805806603127],[73.56145276757599,33.36225611946452],[73.56475926132094,33.36025081714888],[73.56799026424267,33.36032475537985],[73.57057364113336,33.355856819669555],[73.566651844538,33.35147056559049],[73.56504535317941,33.3421278161544],[73.57427789451316,33.33383437183073],[73.57933503676196,33.33852083001511],[73.58602548777543,33.340631078699005],[73.59005162638601,33.33656218235467],[73.58967219867134,33.3319699808867],[73.58223301085161,33.32897933532155],[73.58128022981356,33.326114357415065],[73.58473183022295,33.32400901284245],[73.58642016708706,33.31989075974087],[73.58897287729059,33.30488304055774],[73.59344645416775,33.30300593572866],[73.60330739668717,33.294914343091534],[73.59719901265532,33.2823476457059],[73.59831510471713,33.271669700943164],[73.60455777790082,33.26038274114296],[73.60484505284052,33.25132817325516],[73.60736702538986,33.24932763945111],[73.61005492395884,33.24938962843606],[73.6142811326547,33.24289998810377],[73.6244758792522,33.23654976556929],[73.62650564868778,33.231122332442],[73.62463498616029,33.22269534568949],[73.62795802597464,33.21534157592572],[73.63061368670293,33.21357447851011],[73.63348593573784,33.216236137829355],[73.63558820191179,33.22565875099639],[73.64013144763095,33.226394752737576],[73.6444908486356,33.216758594738735],[73.64836340497698,33.213663416763154],[73.65242994891071,33.21304586905876],[73.6568957948868,33.207705155934946],[73.65568913827127,33.19428383835566],[73.65841189776148,33.18436257570602],[73.65510520459048,33.177726931269774],[73.6556546043368,33.168880985802446],[73.65282204287104,33.16474612426026],[73.64719081337535,33.16333764259758],[73.64563627877618,33.161623471118844],[73.63682355790405,33.141946212892094],[73.62737347964276,33.14198253772855],[73.62531150290926,33.13967661603465],[73.62439152475213,33.13419539163209],[73.62798269011898,33.13201110542542],[73.62970087979664,33.127732551726524],[73.6248391202239,33.11151923278385],[73.62465535815437,33.09973615097704],[73.62710565951721,33.08954648927238],[73.63205365466223,33.08602710135693],[73.64279890503559,33.08804935785088],[73.6517982041957,33.084843337704285],[73.65742987386585,33.08494722200936],[73.67104629170251,33.08885015107461],[73.68775829682164,33.08808163471849],[73.70194698461324,33.082000432868654],[73.7205931335061,33.07102120156094],[73.73446586764283,33.066296960500324],[73.73779381136006,33.06271471628901],[73.73966852169616,33.05505215382448],[73.7388500325049,33.045723778745526],[73.74255826542134,33.03899730581486],[73.74786957519984,33.03250218570895],[73.75517610700484,33.02835864473053],[73.77049526259799,33.013433808744935],[73.78010666750441,33.00748797863298],[73.78790034490828,32.998120789598715],[73.78942133282152,32.99316552741698],[73.77892703400937,32.97434500965073],[73.78095034994794,32.96961660917776],[73.7856447731462,32.96538802991893],[73.79076414798283,32.96503269865957],[73.79695611665875,32.969257822094164],[73.807535944069,32.97218576217085],[73.81495553963236,32.98367686195189],[73.81746149522024,33.00005418312719],[73.82014123978144,33.00077670691559],[73.82186716125864,33.00535221825942],[73.82881753261319,33.00709546293939],[73.8419976602757,33.00711913256458],[73.84501771451443,33.00556579956191],[73.86039613286505,33.003596596833916],[73.86296216059259,33.00159559004044],[73.89570358865717,33.002005522588775],[73.90609936653732,32.99629531540808],[73.91502969215162,32.99356274782042],[73.92469031036262,32.98576463665421],[73.928241171916,32.98467205087587],[73.94077648796929,32.98808593586358],[73.95749773136293,32.98660019325217],[73.95997678330639,32.985055105688105],[73.96206597000986,32.9766807690645],[73.96769951805726,32.96884519837744],[73.99645034127064,32.95982038800361],[73.99819407993328,32.9550829969549],[73.99704154411876,32.95155520359026],[73.99413934255722,32.945937646048094],[73.98912659235486,32.94220397545854],[73.98742880611229,32.93539311846956],[73.99180800508748,32.9331631174951],[74.01344726954011,32.929497232066296],[74.03253057188772,32.92915653105308],[74.0405194711692,32.93179157449538],[74.04772015717913,32.932007570764995],[74.05148783431298,32.93035183193717],[74.05196434116385,32.915664730662456],[74.05451330359591,32.911401296938834],[74.05914396617197,32.90896538990421],[74.06754316826436,32.90754556110636],[74.06919001284382,32.90595905424823],[74.0809220194376,32.905659032904964],[74.09269634207112,32.90277882561452],[74.11143597144894,32.895360237052785],[74.12133633653474,32.89599196782183],[74.12784600698723,32.89474368559951],[74.14275832636781,32.8895630908753],[74.15329738284066,32.888844768311],[74.16282262044678,32.88400243256973],[74.1713813992663,32.88438396902086],[74.17736143650205,32.88266539559669],[74.1864907021207,32.87285847083996],[74.20159836195654,32.87036329000273],[74.20560788892084,32.8613413545242],[74.20861389620342,32.858900271642426],[74.21212489681261,32.85829097630807],[74.21341376903968,32.85079736229659],[74.21651264325772,32.8449371285576],[74.22516121497819,32.843059296342744],[74.23481431069706,32.843452400028696],[74.24345436818516,32.84202815618676],[74.25432450234916,32.83763864031948],[74.26364682939726,32.82986236225929],[74.28327078639194,32.829725773838675],[74.30088456980064,32.82297936540806],[74.3040676260423,32.81509435403018],[74.30071150037799,32.80820599380428],[74.3013586961161,32.8043687251033],[74.3051709647221,32.80237919558084],[74.30837176897899,32.792208218428414],[74.31110304090475,32.79114225084237],[74.31834977545458,32.79167674731684],[74.32454643153955,32.7806514483039],[74.32973405138847,32.77621306857861],[74.33893722859204,32.77364046145681],[74.353688085682,32.762990982644965],[74.36991527004233,32.758684604977304],[74.3841548366151,32.75800550081493],[74.38601389740063,32.7600675261059],[74.38535849645075,32.76460581726775],[74.3871466550076,32.76828206257949],[74.39637182656264,32.76602809023137],[74.40217850960971,32.77964017686378],[74.40561085103786,32.7824196395224],[74.41498576366592,32.783718048525486],[74.42930325639475,32.77961261642241],[74.44273858464987,32.779583457827016],[74.45232888184216,32.785858314250106],[74.4596100326471,32.78857090006386],[74.46396444620535,32.776364265072004],[74.47531447386888,32.77693533537325],[74.48492452231937,32.768678605417335],[74.48478175576616,32.765216490272394],[74.49735720674983,32.76618017196023],[74.50273478884037,32.76584704683398],[74.50278237799074,32.76480008407236],[74.50459076840434,32.76656088540324],[74.5110629018543,32.76437178145568],[74.50949245809159,32.76318205080571],[74.51529834163796,32.75651955999774],[74.51315682717086,32.75180822747899],[74.50977799299449,32.751046799730204],[74.51053942119904,32.74562162883086],[74.51334718467126,32.74433671989817],[74.51696396549846,32.7440035954134],[74.5192958365675,32.74747760775324],[74.52557761431382,32.74757278680261],[74.5327139027961,32.74480613987146],[74.53598566228237,32.7452820325056],[74.53658052756174,32.74998146779819],[74.54235072014376,32.74944608850461],[74.54235072104188,32.75247990174455],[74.54288609898492,32.75010043994979],[74.54746656100798,32.74575792410883],[74.54800193984948,32.75265836057321],[74.55091677980857,32.756049092724254],[74.55418853839637,32.75902341893874],[74.55561621560622,32.75807163441982],[74.56263562518518,32.76021314925657],[74.5703093873799,32.75997520386039],[74.57513572727936,32.75696518529338],[74.57599233288664,32.75301528093513],[74.57408876417185,32.75058822932385],[74.57903804300946,32.747947027799],[74.58253287663871,32.75349117277818],[74.58977833558089,32.75095704668877],[74.59356167843481,32.75638221824789],[74.61315854224046,32.7580263686159],[74.61321564904154,32.76042486474387],[74.61715603627175,32.76093882821209],[74.6220101377067,32.759682472866075],[74.62435152642621,32.75539944322384],[74.62641927842856,32.75608948601882],[74.63504482453152,32.75031929341333],[74.63507456775056,32.75139005188544],[74.63760274496377,32.751568510631216],[74.63856285715298,32.75881158982452],[74.63056786909067,32.766578151069666],[74.63308057911115,32.77388785482623],[74.63159579599886,32.775429745602025],[74.63966140691383,32.782192935644844],[74.64793003438808,32.78040833944749],[74.6542356058115,32.78076525883182],[74.65899452804717,32.78748723608254],[74.64394443674632,32.795815349747215],[74.63367825252413,32.80803031310728],[74.64081663587768,32.81922329708448],[74.65599045843084,32.832629180248944],[74.65870304450038,32.832165185737665],[74.66123716945896,32.82727539321087],[74.66644818952255,32.824705575258804],[74.68347323326378,32.836643331637106],[74.70460284662482,32.841830556849686],[74.70484079237713,32.82104993007795],[74.69784517737344,32.81086583679479],[74.68138525569265,32.776191141584036],[74.6772509419556,32.77089684043966],[74.67656982134093,32.76107561600702],[74.67314339801385,32.75400861598541],[74.66582655534609,32.746477622822795],[74.6607563992037,32.734742120838746],[74.6548843655163,32.72822953521154],[74.662289248472,32.727163537497404],[74.66346946138037,32.72575489689609],[74.65736059225839,32.716884265045906],[74.65783648376322,32.71034074776287],[74.65291813841236,32.69702885275592],[74.66633829771564,32.67561370452091],[74.68179448411877,32.67287494490006],[74.6819729434331,32.67061445680008],[74.69216060501799,32.66611132618374],[74.69558702924326,32.666039943439785],[74.69513493231358,32.66059097732108],[74.68871038711569,32.65170369048468],[74.6805369388407,32.652560296026365],[74.67975171606093,32.64999047822852],[74.67739604951839,32.65077570071094],[74.67187569997645,32.646004881302986],[74.66964495585228,32.63865829549451],[74.6674142108298,32.63886649832102],[74.66081120631759,32.63550550961554],[74.65397025605301,32.637557795111206],[74.65554664935797,32.63309630486003],[74.65221540343367,32.63153180959495],[74.65649843416446,32.63077038194422],[74.6545948654499,32.624393427033624],[74.65535629185769,32.61630325975227],[74.65054978136976,32.61439969093061],[74.6384621191786,32.614827993244376],[74.63774828012458,32.613257548977856],[74.63974702803858,32.60826068088397],[74.6386048866301,32.60364452642],[74.64162382875435,32.60283551010025],[74.64098137342609,32.59990877246008],[74.64547855443573,32.598766631880835],[74.64547855443573,32.59748172297515],[74.64958312495389,32.597303263419064],[74.6519744833592,32.599730313197654],[74.65886302277437,32.59705341944351],[74.65611474574013,32.59198516750092],[74.64939752762615,32.58962236271992],[74.6480840649167,32.58562486810001],[74.64934041992694,32.58254108721991],[74.65459426986678,32.581341838585104],[74.65135106512838,32.570129818252155],[74.65177936748285,32.56338404604145],[74.65745438176396,32.56524002669437],[74.66223709857479,32.56406219344103],[74.66544937072462,32.56527571853019],[74.66851887632112,32.56880921721739],[74.6718025312984,32.569344596189865],[74.67280190525531,32.568309530220574],[74.67388773307516,32.55825154921217],[74.67255523506475,32.552778788773026],[74.66113382277717,32.55415887699411],[74.66160971428201,32.54606870867525],[74.6696998815438,32.54026282372075],[74.68149308496794,32.535854872860796],[74.68964273866754,32.534724628358504],[74.69083247012492,32.531393382495025],[74.68976171244225,32.52300578244137],[74.68228376052144,32.51351520370764],[74.6813914630514,32.51003524161473],[74.68537705889656,32.50807218593087],[74.68584700355433,32.5062459501608],[74.68520454822612,32.499964172902594],[74.68056459976492,32.49189780018264],[74.68553445092095,32.4905102769622],[74.68803288491489,32.48604878839342],[74.69451691655092,32.48604878763564],[74.69439794277628,32.48783338308908],[74.69630151238931,32.487357490842214],[74.69689637766885,32.48949900621136],[74.70100094818679,32.48979643880614],[74.70141735325365,32.49223538657668],[74.70457013986356,32.49116462880744],[74.70611678815283,32.492711278027],[74.71045930442335,32.49247333261661],[74.7140284969986,32.48759543765914],[74.71135160369016,32.478196566558154],[74.71450438850349,32.47760170100082],[74.71521822665915,32.475936078957716],[74.71706230893557,32.475995565123924],[74.71676487674506,32.47706632227545],[74.72756734441208,32.47540311768296],[74.72870948582056,32.48075690451617],[74.74541330189754,32.478544005898414],[74.75055293823539,32.47925784465542],[74.75276583642813,32.47797293506051],[74.7551928857983,32.48218458143049],[74.76418724871587,32.48061413686747],[74.77061179301523,32.4821131976301],[74.78442735926558,32.47831857393999],[74.79727644876283,32.47660536218086],[74.79916098217677,32.47751907508456],[74.80087419339111,32.48220185429966],[74.81214570021393,32.47972959363659],[74.81987894884685,32.49876528240429],[74.82071176077721,32.49704017300013],[74.82880192803884,32.49477968442568],[74.8379033656467,32.49424430636469],[74.84176998951398,32.49115100677079],[74.84861094067702,32.48883103274528],[74.85587067564558,32.493102165600305],[74.85911864055646,32.49274524538981],[74.86804161974845,32.486070857070445],[74.87700028990491,32.49317354901791],[74.88412677597074,32.490311057755946],[74.87681707131617,32.47751907508456],[74.8991923326675,32.46748250827778],[74.90044155056285,32.46708989735231],[74.90600948835686,32.472479376017645],[74.91871581040277,32.46353855137397],[74.93192181852874,32.47121231384847],[74.93892933171838,32.47079590744045],[74.93640710314907,32.46913028528735],[74.93650228145003,32.46732189513102],[74.94094463288803,32.46347440171644],[74.94745483783811,32.44725599554641],[74.95208050937441,32.44622806821451],[74.96007549833502,32.4554794127892],[74.96087499714139,32.454622806328075],[74.96932684410274,32.459476907271835],[74.98448163045657,32.4500875538082],[74.98910730289117,32.45260026426769],[74.99224819131535,32.45111548108309],[74.99727361225462,32.45682618728205],[75.00018607257664,32.45614090270044],[75.00812395473639,32.46310796400837],[75.01052245115511,32.462708215388375],[75.01314937657418,32.4648782832262],[75.01463416058476,32.46385035685],[75.0193274474143,32.46810286824899],[75.01384516847418,32.471586398841],[75.0155012746842,32.471986148218036],[75.01567259508704,32.4784963539019],[75.02686557927257,32.49648507965941],[75.04189504884778,32.48656391676553],[75.04379861666405,32.48799159324233],[75.05447644847516,32.48138858834284],[75.06386342278267,32.479722965898986],[75.06843198661977,32.477474375774364],[75.07018089059522,32.479687274166395],[75.084636117515,32.47163279870432],[75.08377951100948,32.46930092664036],[75.08520718821916,32.46877744599732],[75.08625415042837,32.471014138715475],[75.09234557067447,32.46925333796122],[75.09900806072636,32.477533861681934],[75.10785965619255,32.47358395633478],[75.10838313774616,32.46815878533664],[75.11019152815993,32.467492536121426],[75.10785965619255,32.459973440114425],[75.12003059849866,32.45460775445383],[75.11803185238142,32.44329341786408],[75.12218996069385,32.44029529653227],[75.12383178818237,32.436262110982966],[75.12847173754187,32.43451320691855],[75.12890004079463,32.431979080932365],[75.13403967533588,32.42787451057268],[75.13293322668869,32.425947147251804],[75.12822189360344,32.425804379167516],[75.12672283356642,32.423841323717454],[75.12658601386028,32.417327549760785],[75.132082568827,32.415542954176544],[75.1307619681042,32.41072454520713],[75.13186841764968,32.40883287429426],[75.1396492554332,32.411723918781775],[75.15319314778537,32.42143211933302],[75.15940948865324,32.41857676667257],[75.16173937803865,32.41911611165938],[75.16421401745754,32.42254253491507],[75.16816392323653,32.42330396257694],[75.17834801671313,32.42178110765019],[75.17949015722314,32.42492199634381],[75.18367800785632,32.42477922815351],[75.18710443208158,32.42696833225506],[75.19114951616154,32.42615931574437],[75.19305308487628,32.42397021096372],[75.19194320825778,32.4222148361506],[75.19676161693161,32.42089423426495],[75.19733268853406,32.42207206822491],[75.20090187931254,32.42018039633501],[75.19936712741259,32.41703950786075],[75.2010446476624,32.415504755719724],[75.19740407225981,32.409936816618995],[75.19190751729326,32.411685720224966],[75.19297018474845,32.40110758869781],[75.20890305497056,32.39476870496571],[75.2126459475856,32.402441276773345],[75.22406736077164,32.39753363853583],[75.22299660219068,32.3948270015008],[75.224305306524,32.39399419017906],[75.2295639148399,32.39122925670557],[75.23224080904663,32.39155643232641],[75.23476898536137,32.3881656999975],[75.24488169511221,32.38444184446263],[75.24723141390933,32.38815975203363],[75.25145495640533,32.390866388640006],[75.25651131083151,32.38934948266444],[75.25434005314554,32.3784931916461],[75.2582316609575,32.374308909368835],[75.25773197487729,32.371632015875264],[75.26783278734052,32.37259569725887],[75.27249652947859,32.37641473307656],[75.28948588135682,32.37046607985468],[75.28698744826119,32.36297077709543],[75.28816528063396,32.35554685983351],[75.29864680630129,32.35482112326008],[75.29900372582813,32.34661198315462],[75.30485125167797,32.34444667329785],[75.3221618303221,32.34450616043716],[75.32555018214896,32.33791505383476],[75.32585951252554,32.32911104735308],[75.33165941059725,32.32692798957067],[75.33568886219466,32.330044965198525],[75.33523123972769,32.33522381000135],[75.33656981933252,32.33731726302276],[75.33924947945202,32.33595306924199],[75.34133827089676,32.33811498776344],[75.33830524229057,32.34120199292238],[75.34140744027533,32.346092764438154],[75.34927828925025,32.345024652092754],[75.3555370809051,32.337049181205266],[75.36263322727056,32.33615088987095],[75.36166883011754,32.33432555064555],[75.36334142670124,32.33347387095428],[75.37161381182835,32.334485829788086],[75.3751716407151,32.337839361627495],[75.37630633059825,32.33523910645715],[75.37988362867212,32.33504570511458],[75.39384557988951,32.327559565088556],[75.39946810381177,32.33066229428934],[75.40209016395526,32.33054668564101],[75.40386910579723,32.32773613162899],[75.41075838272918,32.32894230266468],[75.41900739459095,32.3200466246675],[75.4267429024869,32.31837482996911],[75.43102006182892,32.31594404669813],[75.43170417383355,32.317320188366516],[75.44104300023847,32.31842985977162],[75.44830267501995,32.326469038975034],[75.45033752353015,32.324647770687065],[75.45888717456808,32.327428150674564],[75.46565855839879,32.32696843897421],[75.46753143707002,32.325555537365204],[75.46884732702745,32.32838708597664],[75.46601999734997,32.3299534946503],[75.47159091665243,32.33375538526719],[75.46855823299934,32.33897008703068],[75.47517528716254,32.34031526175288],[75.47507985104507,32.338847877466634],[75.47851720417411,32.33896921799295],[75.48439852823815,32.34164813570776],[75.48914421110317,32.34599461562208],[75.49463677575328,32.34103565848673],[75.48748484311037,32.339870872464616],[75.48650788032309,32.33733089160465],[75.48502133561453,32.33795782312592],[75.48016003597918,32.33432807515903],[75.48576912918963,32.32420465796661],[75.48209885278891,32.32043846870946],[75.48627383056403,32.31711824530199],[75.49034103206462,32.31700280915235],[75.50265209089389,32.31127482516238],[75.50487027567213,32.31272586124585],[75.51209740898244,32.307935936155026],[75.50341341040226,32.29166453415205],[75.50930624637664,32.283752892302594],[75.51815969776217,32.28128005355971],[75.51864733563774,32.27957960606209],[75.52094780160444,32.278993777983686],[75.52093401515978,32.277011736833074],[75.52561246810893,32.276216160336496],[75.52543425762791,32.27745987431753],[75.52887414131109,32.27843025469117],[75.53342603870473,32.27765453330259],[75.53646180088431,32.28265153454676],[75.53940376277853,32.30012841272335],[75.54285763592561,32.30786035554852],[75.5421773193031,32.32187537940995],[75.53708899922576,32.32599987927934],[75.5394797665398,32.336227378171785],[75.55978194079422,32.35712889855709],[75.59666691997207,32.377677041631344],[75.60953556130157,32.37679361321626],[75.63107575774796,32.37949013548933],[75.64766928675927,32.387453765912454],[75.67405436523084,32.39362257679627],[75.67902478951197,32.389719888557366],[75.68698878300208,32.39050836399074],[75.70118199830283,32.39957828528314],[75.71137611967289,32.411042801408236],[75.71483582019125,32.40748368547268],[75.72249291324768,32.40545692021213],[75.7235322442685,32.41018764666944],[75.73191149388013,32.42293712038597],[75.73175311550567,32.4251358505881],[75.72762038280342,32.42892833677174],[75.72842924924142,32.432505586802506],[75.73057038102617,32.43288625369502],[75.73734517665834,32.429649438251815],[75.74248520286508,32.430402219866785],[75.74374282360161,32.43203983048344],[75.73508007107618,32.438975026876484],[75.7295911715524,32.438952312089],[75.72726121299662,32.44574612028379],[75.72874362186163,32.44742222541426],[75.72852439879631,32.45269366494316],[75.74047604437534,32.45502005225488],[75.75251897585525,32.45530807668508],[75.75890054115831,32.46047324235149],[75.76270892544913,32.45977513413206],[75.77679087362218,32.46501909840167],[75.80088835359521,32.48537060888064],[75.81289258655097,32.4882721463196],[75.82054812642029,32.49230374520096],[75.82604636752467,32.499516727370626],[75.8245009463341,32.50181363748707],[75.8260037864819,32.50389045680204],[75.83323705887891,32.50428791263114],[75.83176605143146,32.51059552759939],[75.83436281501653,32.511786890345114],[75.83392811396237,32.51543037554069],[75.8413393192609,32.51509415942513],[75.83935928774599,32.51976227552285],[75.8412945193794,32.52361190768755],[75.85704893837209,32.52906323287277],[75.85846608103839,32.531045404319286],[75.85775869278643,32.53791155481724],[75.87612858098333,32.550463443141325],[75.87627802740889,32.5551207390659],[75.86913861997579,32.56347361965845],[75.87275374161482,32.56710966578163],[75.8793301425199,32.568849708093126],[75.88082881897628,32.5707420011654],[75.88277737801536,32.5777720310266],[75.88094115779415,32.58646180904856],[75.88718221580712,32.59082491177048],[75.89475372636645,32.589692858834496],[75.90199402628377,32.59279913849605],[75.90789840021966,32.60172478871323],[75.90914260192255,32.60857347807888],[75.9158910176281,32.612979406608304],[75.91821298656771,32.62198096328075],[75.91547974194151,32.62771157869872],[75.91884519930517,32.63073476838946],[75.91858481004357,32.633179330836526],[75.92415428395674,32.63682178113771],[75.9270389674719,32.63162252629894],[75.93008615262852,32.6314859303431],[75.93090437232536,32.633209897515485],[75.92897851640862,32.63830233897119],[75.93379000266481,32.64265472053319],[75.9334179743729,32.646758824889844],[75.93673059013662,32.647888813128645],[75.93197063483831,32.64659150236224],[75.92683267026518,32.64373153754315],[75.91833164862692,32.64463766905186],[75.91852250469208,32.65397837828283],[75.90904876121294,32.659334644944295],[75.89658887310077,32.6496536514864],[75.89025970293483,32.65144871064956],[75.88932620782765,32.6532331753001],[75.89571705452431,32.659848350903474],[75.89662416251838,32.6628371822228],[75.89524328304344,32.66621550951095],[75.90043126042161,32.67040805655171],[75.90017978693942,32.672991507174174],[75.90237553539515,32.675317234843135],[75.90084110239707,32.67854564332748],[75.9007277880088,32.687649439818756],[75.9037519250902,32.695350078078775],[75.90111907168875,32.698606671547964],[75.91032998248869,32.71473417628482],[75.91042681458805,32.717874982727096],[75.91831191982664,32.72348472215083],[75.92210499592659,32.72972402547214],[75.92187130729036,32.735402624656615],[75.9260821979139,32.7431201615604],[75.92460413779321,32.74831628222],[75.90927113826325,32.76576725712226],[75.90244682210272,32.77021642901417],[75.90087930864433,32.77573188343621],[75.89809626950364,32.77633895061763],[75.89071822910705,32.782786626495124],[75.8888079589604,32.80321924348175],[75.88379984316668,32.81221913501918],[75.86945177717553,32.814363966351664],[75.87024546028852,32.82139890168247],[75.8567198926699,32.8357880344584],[75.85266677136309,32.83752573662531],[75.85071684778313,32.83627917703819],[75.8474047018384,32.83886600303299],[75.84492353615911,32.84455398010385],[75.83444283334876,32.846255028451026],[75.83117131550938,32.851128962467044],[75.82347327005584,32.85392898192191],[75.82145685317863,32.86001704666671],[75.81567829278987,32.861627091771254],[75.81446478113037,32.870829683278885],[75.81131877769911,32.87784694700616],[75.80132993843955,32.88567090304389],[75.80469882467247,32.88648741529863],[75.81846282133716,32.89537185677966],[75.82225753057452,32.90063498977679],[75.82427433013402,32.908636068697604],[75.82994595866478,32.91307929942036],[75.83710501045618,32.9244182101358],[75.84234733051937,32.92931310249139],[75.85003181410713,32.92991375363766],[75.85614872584603,32.92639661085798],[75.86349249731109,32.92679525349723],[75.86995425881281,32.92425452248517],[75.87802705714842,32.92505932108145],[75.88181991136469,32.92056258435019],[75.88925197015425,32.918961770568615],[75.89382172336065,32.91556658169293],[75.90177927054043,32.913589983284794],[75.90888229530594,32.913903032410246],[75.91580894754367,32.90940059145862],[75.92453687553791,32.90624140390031],[75.92696062270085,32.8998655543615],[75.93318589731416,32.89111624656363],[75.95393750589182,32.87339814172873],[75.97453832775744,32.886048167902516],[75.98073044375695,32.88746532695592],[75.98575853269273,32.896228739734624],[76.00129722665986,32.900765090447635],[76.0037891550545,32.90310923657751],[76.00716797126478,32.90258054480694],[76.01398710234946,32.90976618945831],[76.02278297262353,32.91415320319993],[76.03208614219994,32.91674699847857],[76.03806138782181,32.92241028776414],[76.03695834468783,32.927943884717024],[76.03933746264931,32.93278172107472],[76.04382647527791,32.93678873741533],[76.06628158607839,32.94195072971752],[76.07338922998116,32.95290252449598],[76.08810323907642,32.95622811457076],[76.08736258441274,32.96255844986314],[76.09730716188182,32.96431212679181],[76.09929259227152,32.96613732328302],[76.11153838669873,32.9878545629374],[76.10908091947488,32.992176560613245],[76.11276368066154,33.002060202417795],[76.11230620551828,33.00632592169319],[76.12175919432099,33.007971343321856],[76.13237008277883,33.00781763827547],[76.14148444444885,33.01002376470956],[76.14939110027103,33.00813504919188],[76.16613438383007,33.00700934899231],[76.1736965734699,33.00975100083957],[76.18197918501835,33.02028801891754],[76.18670375208427,33.02129102297744],[76.20740806526055,33.01669189562381],[76.21771211616675,33.01740032028357],[76.22588577374933,33.023719903887525],[76.247435541745,33.0215737966646],[76.25257922948492,33.0295699150883],[76.26084508924976,33.03483644638277],[76.26698619621243,33.0367992544235],[76.27212437817803,33.035869656023976],[76.27841568974452,33.03781456774453],[76.28047646093893,33.041527866936974],[76.28189975167504,33.051826032184806],[76.28528029714221,33.05432670248996],[76.29530491719788,33.057554504073096],[76.29602528341059,33.060603139315845],[76.29495665743019,33.06870696318646],[76.28935429080462,33.07269471456374],[76.2885390957353,33.07762750692427],[76.28882016511307,33.087153679646576],[76.29432434048829,33.099512948738834],[76.29180442687732,33.10318873931635],[76.30619842193244,33.11313919639849],[76.31116664534107,33.12040595598256],[76.3193686070415,33.12344865257626],[76.3207680636765,33.12582199195481],[76.33221236413937,33.128105237855266],[76.35100026179407,33.14438935316281],[76.36813471854015,33.15392819679283],[76.37450351429152,33.15418127290593],[76.38270816644615,33.16605038520072],[76.39703327149857,33.17456024179046],[76.40403099215342,33.182827704184774],[76.40728265003838,33.183592051075095],[76.41009236734646,33.186489241450715],[76.42034974628223,33.18573300244594],[76.42653097649702,33.188333785042005],[76.43441902102319,33.182623440459565],[76.44185802378985,33.180940755076506],[76.45098247893026,33.182105295330246],[76.45505078625706,33.180280839280556],[76.46050572856467,33.18006208824977],[76.47253893308675,33.18301127272912],[76.4789059465806,33.180353157198056],[76.4867616140271,33.179453997197754],[76.50792572089836,33.1903251900722],[76.51609810377141,33.19653648484882],[76.52981791230741,33.196623604745014],[76.54321212018039,33.200751495271504],[76.55343207530132,33.19903224280665],[76.56742136584614,33.210284081412226],[76.57931851872178,33.20695965886591],[76.60260163097382,33.20627184639136],[76.60550421431941,33.203835680054965],[76.6034977894031,33.196440705933924],[76.60536224367354,33.19048744780832],[76.6073435795422,33.18908752751378],[76.61236170256831,33.19115824128494],[76.61770061757568,33.187584141580885],[76.61846769528489,33.174372720858855],[76.63028875726275,33.167189349153546],[76.6383393169051,33.16582502867635],[76.64630595234053,33.16231212601957],[76.65084956367394,33.16268841701668],[76.65457616893457,33.16483245912019],[76.66143321431429,33.16453900296784],[76.67067710765821,33.172000907393056],[76.67987570614895,33.17158297432945],[76.69186673566651,33.17434870147059],[76.70690094924475,33.17422799689558],[76.71424016984474,33.17844942058264],[76.71514724909275,33.18150073028852],[76.72660585522635,33.18245314915174],[76.73489966696968,33.17767122074241],[76.74690857026673,33.17921068170307],[76.75017049320041,33.191783449608806],[76.75819529904197,33.195937566293026],[76.76686790788284,33.21098593200941],[76.77115527118809,33.21312442948181],[76.77195690259487,33.21882259988848],[76.7761059064818,33.22067736137507],[76.7797223288814,33.23709148924246],[76.77888268346669,33.239714417654],[76.77332934329604,33.24230155814041],[76.77123347761841,33.24962940430635],[76.7676362953357,33.24840937560356],[76.75428270209329,33.24877494358623],[76.73697224831517,33.261204626562574],[76.73858125136314,33.268402887605134],[76.73229791324326,33.27586378519959],[76.73253713101013,33.28171817325358],[76.72747353256949,33.28340424646035],[76.72984514690319,33.28909860060372],[76.72834658543115,33.29094892213334],[76.72955276324461,33.29632732309864],[76.73212287471347,33.2990295113089],[76.72832847090348,33.3043005066275],[76.72843375614963,33.308305043447376],[76.72506911804953,33.311081526023486],[76.72580947896398,33.315208087315455],[76.71921714194588,33.32406484332972],[76.71742260714723,33.32913720610503],[76.71264513559925,33.33114484177571],[76.70460444844173,33.32790006298302],[76.69570127800017,33.328102075638185],[76.68236758333978,33.336709734249666],[76.67316092785927,33.339640063526645],[76.6706270086147,33.342021805217826],[76.67226520241809,33.34913594379117],[76.6591707542704,33.3566052254464],[76.65847563970027,33.36423714876247],[76.65144638458577,33.37133806197136],[76.65098353572057,33.38383282950224],[76.64021007645078,33.39165757064575],[76.63910967346533,33.39742874702523],[76.6362397304058,33.401686621769386],[76.63810957366968,33.40375890214193],[76.63184271873672,33.40942142261309],[76.63574840494584,33.411492974840144],[76.63675051067969,33.41563841598213],[76.62918350606975,33.4240247550494],[76.62838297959087,33.435229389453184],[76.620235716308,33.439769081659506],[76.61579459556202,33.440019212224286],[76.61295766558914,33.43915233447569],[76.61092069974973,33.43528464106623],[76.605828734309,33.432044743163374],[76.60032824831467,33.43170912206483],[76.59291807607883,33.42562856768819],[76.581567504036,33.42604534680498],[76.57759300418127,33.42969454279768],[76.57982431154915,33.43835148559316],[76.57691668685823,33.44344835774007],[76.57630885439778,33.453086305553256],[76.56910712634192,33.46438467895831],[76.5693064669951,33.4663465855935],[76.56329663803137,33.46275617979683],[76.55737108900763,33.46230565160431],[76.55342963008712,33.46440331954267],[76.54916432671018,33.46439652547957],[76.54595457253822,33.4683734006382],[76.53910244543476,33.472821602930196],[76.53441962667341,33.482437242909555],[76.52760323904363,33.48363536470936],[76.52263107113242,33.493622047639235],[76.51450952302304,33.49509917199788],[76.50859061075249,33.499127179035156],[76.50702311166714,33.51029027520934],[76.50239206191719,33.5162357918544],[76.49924577012689,33.5177409839942],[76.49184549552865,33.51700867675447],[76.47904403470767,33.526931454948055],[76.46991434238907,33.52778353125359],[76.45912596300082,33.53399215073222],[76.45845094464175,33.53861717986098],[76.46463044380317,33.54533228044943],[76.46236162458553,33.55171450664318],[76.45779032717508,33.55437387053706],[76.448756452758,33.56378478346193],[76.44680722896567,33.564103693826894],[76.44334615402488,33.55988673209316],[76.43992540894891,33.547524407645994],[76.43584109813543,33.54229529606579],[76.42636340925566,33.53738168658401],[76.41516021212357,33.539182676017504],[76.41019489386639,33.54322717584802],[76.37988398446544,33.55302378247478],[76.37923778495912,33.558311526954355],[76.37471374432243,33.5659800839976],[76.38068337816884,33.577058632502144],[76.37100526975922,33.5841869891882],[76.36642248918452,33.585852306914774],[76.36000023379228,33.594642282171776],[76.35860731868922,33.60378647435141],[76.3468833358474,33.605043757177725],[76.33620544923906,33.61060765541106],[76.32945934759357,33.604368905490446],[76.32213585829112,33.60236671028065],[76.31740041891521,33.60727957991281],[76.30646855611803,33.60965155003413],[76.29955637484125,33.59833531931491],[76.30178206684047,33.58985449844408],[76.31009310198272,33.57870378341437],[76.30974540456037,33.5715663214915],[76.30229685270223,33.567463164411265],[76.27783098171602,33.567616681032916],[76.25960217483271,33.56511294959688],[76.24570421690134,33.54563146039493],[76.24118753616187,33.548402691935905],[76.2318840467853,33.54527804835823],[76.22498891732909,33.54768598630204],[76.21973280004158,33.55541653904805],[76.2091015413863,33.56655654872225],[76.20545304463963,33.56780754255345],[76.20540009793677,33.56929806377565],[76.20643942446611,33.57337088178025],[76.21783261438242,33.57375167183238],[76.2251804192831,33.57737431154737],[76.23136577456194,33.587041405951766],[76.22787763877142,33.59419465475486],[76.2240836706444,33.596935445334054],[76.2241793555952,33.6004016155855],[76.23066738203909,33.60313465061222],[76.23860578881494,33.60253817558112],[76.2402987466129,33.60493870635918],[76.24092332726372,33.60968143157368],[76.23719166179308,33.61768318111433],[76.23277316691411,33.62325975637668],[76.22774356880865,33.62572675360792],[76.22932975824176,33.62992171105083],[76.24885767365447,33.638769081552994],[76.25215636283622,33.637888628820406],[76.26453131793346,33.64331505547972],[76.27043249656174,33.64340948493259],[76.27407285996196,33.65242375641475],[76.28000541674328,33.65478396362096],[76.28447828844293,33.66133193881592],[76.27346980025044,33.66945319762942],[76.27046020779164,33.67568988701322],[76.26616954317763,33.67963151761893],[76.26955806748111,33.68519931250631],[76.264674872309,33.68952190317037],[76.26565169675575,33.69752837215293],[76.26313807045358,33.703971711212944],[76.26613359619324,33.70703889987033],[76.26319207716841,33.71218441058096],[76.26707926796416,33.71719283601465],[76.26736722113196,33.724785223941524],[76.27111925590162,33.730854113855344],[76.2657384677239,33.73388079203028],[76.26721453538136,33.740475051217516],[76.26542427746165,33.74647749401953],[76.26273813450524,33.74900259361806],[76.25122665500015,33.7509233940001],[76.24590387100011,33.75624617799997],[76.24185855500008,33.75731073500003],[76.21567045600011,33.75773655800003],[76.21290260800009,33.76007858300011],[76.21077349500007,33.76838212600012],[76.20076666000011,33.775195290000056],[76.19650604800006,33.788785820999976],[76.18433871900004,33.79939037500009],[76.17445974000009,33.798888053999974],[76.16640276499999,33.79656307500011],[76.16190607700008,33.79996965700008],[76.15961436829127,33.80670363623278],[76.16273891800017,33.815018137000095],[76.16536214900003,33.81769718300012],[76.15765989500011,33.82662733300003],[76.15738082800004,33.83047846000005],[76.16022731300012,33.83499934800005],[76.15375295400008,33.84169696100008],[76.1525808720001,33.847055050999984],[76.14928787900004,33.85018060400006],[76.14895299900019,33.85336197000004],[76.14699952800015,33.85419917100012],[76.14538093900006,33.86022702300005],[76.13818100500015,33.86876647900016],[76.13739961700014,33.87613385200018],[76.12400439200019,33.8861244580001],[76.10363248700008,33.89231975000007],[76.09514884400005,33.89963131000013],[76.09079539600009,33.90124990000015],[76.08337220900006,33.902645236000126],[76.07248858800011,33.908003326000085],[76.04825160200005,33.91241956400006],[76.03342615800011,33.91957066100014],[76.033687783,33.92096599700017],[76.04786866000018,33.92911320800005],[76.04935701900013,33.93536431400014],[76.04350280900013,33.95094246400015],[76.03893851000004,33.957987361000164],[76.03377886800018,33.96165864500017],[76.0269324190001,33.970688019000136],[76.02455104600017,33.98061040800013],[76.01829994100012,33.97465697400014],[76.00530161100005,33.97614533300009],[75.98892966900007,33.9720771530001],[75.97950340000006,33.972474049000084],[75.97305384700013,33.9622539880001],[75.9681918760001,33.95907882300003],[75.96581050300011,33.95362150900007],[75.95896405400003,33.956102107000106],[75.95251450200004,33.95481219600009],[75.94894244100016,33.95550676300007],[75.94229444100006,33.95977339100011],[75.91887760300017,33.96324622700007],[75.90835987000008,33.96711595800008],[75.88950733100012,33.96870354100008],[75.87482219500009,33.962452436000035],[75.85249682000006,33.962154764000104],[75.84505502800016,33.954018405000056],[75.84068917700017,33.95352228600012],[75.83255281800012,33.95689589799997],[75.82640093700013,33.96086485300003],[75.8197529360001,33.97039034699998],[75.82739317600004,33.980808855000134],[75.83156057900015,33.99251727400019],[75.84168141600009,33.998867603000065],[75.84356667000014,34.00372957400009],[75.83850625100018,34.005714052000144],[75.81737156300017,34.00720241],[75.81499018900013,34.012461276000124],[75.79881669500003,34.02337590400009],[75.79683221700014,34.027940203000185],[75.78274242500004,34.03220683100005],[75.77976570800018,34.03677113000015],[75.768156513,34.04123620500019],[75.76835496100011,34.052547728000036],[75.76597358800018,34.05482987800008],[75.75396749700019,34.056318236000095],[75.75039543700007,34.05403608600011],[75.7376947790001,34.056615908000026],[75.73779400300015,34.06118020700012],[75.74196140600003,34.07050725200014],[75.74037382400013,34.07427776000014],[75.73511495800005,34.077849820000154],[75.73263436000013,34.08350558200004],[75.7256886880001,34.08777220900015],[75.72142206100017,34.092931852000106],[75.71884224000013,34.10106821099998],[75.71626241799999,34.103151912000044],[75.69532617800002,34.11317352500009],[75.69016653500006,34.11416576400006],[75.68589990800012,34.117638600000134],[75.68589990800012,34.12031764500006],[75.69056343100004,34.12498116800015],[75.68272474300005,34.13093460199997],[75.68183172800013,34.133415199000126],[75.68441155000005,34.14055931900009],[75.67964880300008,34.142940692000025],[75.66853572700018,34.14482594600008],[75.66952796600015,34.14879490200019],[75.6776643250002,34.152763857000025],[75.67964880300008,34.160007200999985],[75.68361775900019,34.165067620000116],[75.6845107740001,34.17816517300014],[75.68768593800007,34.18233257700018],[75.68986886400006,34.19374332400008],[75.68718981900014,34.19741460800009],[75.68024414600006,34.19959753400002],[75.67101632400016,34.19701771300004],[75.66357453300003,34.19791072800007],[75.65940712900004,34.19999442900013],[75.6516676660001,34.21051216200004],[75.64561500800005,34.211405177000074],[75.6404553660002,34.209023803000036],[75.63827244100014,34.20951992300007],[75.62497643900014,34.199895205000075],[75.61872533400009,34.199795982000126],[75.60711613900014,34.19453711500012],[75.5992774520002,34.195430130000034],[75.59530849600003,34.19711693600016],[75.58768073621519,34.20396305327853],[75.58377071653314,34.21159509305829],[75.57973483120156,34.21438713040163],[75.57222430906353,34.211408676803046],[75.55515421750579,34.211656568329886],[75.53932517007263,34.223569039334734],[75.53423473086968,34.22406524850339],[75.5229991782175,34.22909124075301],[75.51486657454188,34.22691957861184],[75.50822455260374,34.22983417849065],[75.50474814162436,34.233743570765796],[75.50183157330667,34.23461184577059],[75.49711334026188,34.23340097029404],[75.49584019843383,34.23968076752561],[75.48881131073034,34.24827213806685],[75.48407575906504,34.25937065103966],[75.48258287225048,34.26346186005213],[75.48307113894691,34.270399356223436],[75.47435319752356,34.28094312281712],[75.46067142635172,34.282760623031436],[75.45661150030662,34.28734296977598],[75.44456210993991,34.28150036978019],[75.42712514192851,34.28414537808874],[75.41343665854475,34.282962415799545],[75.40421898971903,34.28531990242658],[75.39530355637544,34.29298436387256],[75.39336129183175,34.295097120641],[75.38909172235549,34.30983507086444],[75.39446190689239,34.316067638141305],[75.38443788400008,34.32778289300012],[75.38291380500004,34.33514927500016],[75.37789704500005,34.341245591000074],[75.38532693000013,34.34899299200009],[75.38507291700017,34.35172363400011],[75.38075469300009,34.356613387000095],[75.3811627227372,34.361671578048],[75.38434661201029,34.365129120242784],[75.37370582800014,34.37071111700004],[75.37798116488534,34.37986018512572],[75.37788354080283,34.385341075021586],[75.36967336900017,34.38802370200011],[75.36589344071052,34.39249879383107],[75.37202649876821,34.40661450225258],[75.37186249600018,34.41301571900004],[75.36457574200017,34.41704669],[75.36038973400002,34.41704669],[75.35062238200015,34.42464351900003],[75.33620391100004,34.428054340000074],[75.32860708200008,34.43735658000003],[75.32845204400019,34.439217028000144],[75.33294812700012,34.442317774],[75.33155279100015,34.447589043000164],[75.3334132390001,34.45115490200004],[75.33899458300004,34.45472076000004],[75.34163021700016,34.46014706700004],[75.34922704600012,34.46247262700007],[75.35294794200018,34.46727878400009],[75.3504673450002,34.47859650900011],[75.34190609266432,34.48720328672903],[75.34643637400018,34.49317001800006],[75.35152993524673,34.51384629934864],[75.35814568783837,34.52068257720322],[75.36597107799997,34.520921700000144],[75.36659122700007,34.52293718499999],[75.3631804060002,34.527743342000065],[75.36442070500004,34.53239446200013],[75.36333544300015,34.53813084300003],[75.3534130540001,34.54851834400017],[75.3461263000001,34.561076368000045],[75.33403338800014,34.56758793600005],[75.32566137200001,34.567432898],[75.32174823000008,34.562856197000144],[75.31966452799998,34.56364998800018],[75.31155961649876,34.57434177205653],[75.30656697500012,34.576846765000084],[75.29892673500018,34.5859753630001],[75.29208028700003,34.586669930000085],[75.28582918200016,34.59321870700006],[75.27610524100004,34.59381405],[75.26915956800008,34.59708843900012],[75.26509138900019,34.60145429000016],[75.25397831300012,34.60294264800018],[75.25318452200008,34.60631626100019],[75.25822013400017,34.61254876099997],[75.25853020900018,34.61797506800019],[75.25217367800013,34.629602867000074],[75.24519699900009,34.63487413700017],[75.24070091600015,34.63657954700005],[75.23418934800014,34.635649323000166],[75.22794097288505,34.63112287285446],[75.21831331720364,34.63266329762473],[75.20883604644933,34.6362869602454],[75.20752292800017,34.638905107000085],[75.20783300200003,34.64340119000019],[75.22318169800008,34.6527034290001],[75.22690259400014,34.66231574400007],[75.23341416200014,34.67239317000002],[75.24969308100015,34.68479615600006],[75.25728991000011,34.68727675400015],[75.25197523100013,34.69994020300015],[75.25303568600003,34.70250762100011],[75.25822633600018,34.70619130799997],[75.25655193300008,34.711940092000134],[75.26163095600015,34.717521436000084],[75.2621890900001,34.72667484000016],[75.25130323700012,34.74864300900015],[75.24880585600016,34.77084550799998],[75.24539927400019,34.77793119800009],[75.24458169400009,34.789922366000155],[75.24049379600007,34.79251136900001],[75.23231799900009,34.8020497980001],[75.22468725600015,34.805320117000065],[75.22005430400014,34.81131570100018],[75.1992060230001,34.81758381200018],[75.19811591700011,34.81976402400011],[75.18012916400005,34.82943871700007],[75.17740389900007,34.83230024600016],[75.15928088300018,34.833117825000045],[75.15219519200019,34.83107387600012],[75.14592708200007,34.8336628780001],[75.1444281860002,34.83815956600017],[75.14551829200019,34.84551778300016],[75.142384236,34.855873793000114],[75.14524576500008,34.86473090600009],[75.13938644400014,34.86800122400018],[75.12862164500001,34.86950012000017],[75.12276232400006,34.87304296500014],[75.11812937299999,34.87876602300008],[75.11349642200008,34.88094623600011],[75.10586567800004,34.888304453000046],[75.10286788600018,34.89675277599997],[75.09223935000006,34.902203307000036],[75.07616028400014,34.904383519000135],[75.07002843600014,34.90233957000004],[75.06893832999998,34.898251672000185],[75.07220864900012,34.89102971800003],[75.07466138800015,34.88844071600005],[75.08038444500016,34.88639676700012],[75.07847675900007,34.880537446000176],[75.07970312900011,34.876313284000105],[75.07466138800015,34.87345175500019],[75.06921085600015,34.863232010000104],[75.06948338300009,34.84333757100006],[75.06771196000011,34.83965846300015],[75.07098227900008,34.82834861100014],[75.06089879700016,34.82412444900001],[75.05640210800016,34.82371565900013],[75.05217794700013,34.82589587200016],[75.04699994200007,34.83461672100003],[75.04073183200012,34.837069460000066],[75.03269229800003,34.835979354000074],[75.023562659,34.83802330300017],[75.01388796600003,34.83761451300012],[75.00898248800007,34.83516177400014],[75.00693853900015,34.83230024600016],[75.00339569400018,34.82194423700014],[74.99767263600006,34.82044534000016],[74.99453858100003,34.822216763000085],[74.98690783700016,34.82194423700014],[74.9817298320001,34.819627761000106],[74.97205514000018,34.807909119000044],[74.97014745400008,34.80095969200016],[74.96469692300002,34.79782563600003],[74.95802002200014,34.789922366000155],[74.94698269700001,34.79101247300002],[74.94234974500006,34.79005863000003],[74.9334926320002,34.77943009400013],[74.92804210100013,34.77534219600011],[74.9140069840002,34.77575098600016],[74.91005534900017,34.77670482800005],[74.90896524200014,34.779021304000025],[74.9010619720001,34.80695527600011],[74.88021369100016,34.81226954400012],[74.87231042100012,34.81772007500018],[74.86399836100003,34.82085413000004],[74.84696545100007,34.82385192200013],[74.83769954800016,34.823443133000126],[74.83388417700007,34.82153544700003],[74.82162048200013,34.83134640300017],[74.80486009900005,34.836115617000075],[74.79613924900002,34.844291414000054],[74.79382277300004,34.844427677],[74.79123377100007,34.83747825000012],[74.77910633900012,34.83543430100019],[74.77079427900014,34.837750777],[74.76616132800007,34.832163982000054],[74.75771300500014,34.82862113700014],[74.7436778870001,34.82889366400019],[74.74095262200012,34.83012003300013],[74.73631967000011,34.83475298500014],[74.72950650600018,34.836524407000184],[74.73223177200009,34.84797052200014],[74.72787134700019,34.85737268900016],[74.7248735550001,34.858599058000095],[74.71588017900012,34.85314852700003],[74.70497911600012,34.85451116000007],[74.70538790600017,34.86077927100007],[74.6999373750001,34.87127154300009],[74.68794620700004,34.86745617100007],[74.68631104700012,34.86868254100011],[74.68385830800014,34.87290670200014],[74.67704514500014,34.87808470700003],[74.67609130199997,34.88503413400008],[74.67241219300013,34.89157477100014],[74.66777924200005,34.894027510000114],[74.66764297800017,34.89866046200012],[74.6649177130002,34.90193078000016],[74.65510675700006,34.8956626690001],[74.64597711700014,34.89607145900004],[74.63412221200008,34.90342967599997],[74.61967830500004,34.9076538380001],[74.61804314600016,34.91065163000013],[74.60523439700006,34.91501205500009],[74.60210034199997,34.91487579200009],[74.59569596800014,34.90942526000009],[74.57616138718748,34.89933463448614],[74.5768106298384,34.9105843432684],[74.57157581609789,34.93771019871343],[74.57157581609789,34.965787838705126],[74.58680436671307,34.98958244901479],[74.58823204302428,35.00290743068024],[74.58728025821796,35.00956992126686],[74.58299722928376,35.01337705844088],[74.56634100145885,35.016232412187435],[74.5572990502892,35.019563657533126],[74.55063655933878,35.02432257944122],[74.53540800872378,35.03146096222798],[74.53160087129447,35.04097880678489],[74.53350444000904,35.0547796803682],[74.53921514615291,35.059062710165904],[74.54159460727067,35.066676985008314],[74.53302854760585,35.07429126055263],[74.51542053587292,35.094754625467544],[74.4982884174413,35.10665193004428],[74.47259023844674,35.11569388207192],[74.43975367609858,35.11807334325272],[74.42975994012221,35.112838528779605],[74.41929031174288,35.102844792525445],[74.40168230000972,35.08095375119842],[74.39168856403359,35.06572520070682],[74.38026715084766,35.05763503352745],[74.36313503151774,35.0566832489597],[74.30840742850245,35.060014494203756],[74.30079315364401,35.057159141159616],[74.29841369252631,35.05287611152505],[74.29722396196723,35.04454799812771],[74.2817574655997,35.03740961470896],[74.26867043034991,35.03503015374844],[74.25320393308402,35.03740961470896],[74.24963474230555,35.04454799812771],[74.24844501174653,35.054065841920476],[74.24963474230555,35.06715287777638],[74.24368608951102,35.07310153007302],[74.22702986258446,35.06715287777638],[74.22584013202555,35.07429126055263],[74.22821959314331,35.08261937412527],[74.22227094034878,35.08618856542637],[74.209183905099,35.084998834948124],[74.16278441509769,35.08618856542637],[74.133484414022,35.10748800859642]]]}}]}