{"type":"FeatureCollection","features":[{"type":"Feature","properties":{"shapeName":"Kerala","shapeISO":"IN-KL","shapeID":"1811400B45534780755480","shapeGroup":"IND","shapeType":"ADM1","displayName":"Kerala","coverage":"context"},"geometry":{"type":"Polygon","coordinates":[[[75.53658682930386,11.693938824344887],[75.5464298198906,11.67544718916635],[75.56685368173004,11.629412051707682],[75.61855597176917,11.487497315618233],[75.61955866140782,11.481121472867406],[75.61802859242542,11.47736258753094],[75.62731824774662,11.473406494591716],[75.63402352365725,11.462173863290316],[75.63751840938866,11.4627343707634],[75.6372679797487,11.465581622245773],[75.64251300553742,11.46632936712878],[75.64540222823965,11.468466630052262],[75.64835447135232,11.468053649761366],[75.65362622830898,11.466468984937865],[75.66031274020996,11.46202548954308],[75.6642523099733,11.462608473873113],[75.67530045070082,11.451072474638032],[75.68066503237242,11.450866083234699],[75.68269165500955,11.448435709682645],[75.69784504088997,11.425147903724216],[75.71282579303062,11.394232253398755],[75.71572731187246,11.393082275978246],[75.7305385025117,11.359612673946483],[75.73574527444237,11.345402329530064],[75.73644794204752,11.338400942067603],[75.73319961511552,11.33504413076216],[75.73675412023569,11.329912169782478],[75.736689486451,11.324989724769843],[75.74148404215904,11.32148716283726],[75.74640260310554,11.321513645142183],[75.74827890076476,11.318374089823028],[75.76241636392403,11.281059758125627],[75.77508388952941,11.238676086030258],[75.77973922792798,11.2283059267084],[75.78777543608544,11.202886350124317],[75.79868912326945,11.177594592192788],[75.80160836856679,11.16636428173462],[75.80326237361736,11.164173238104878],[75.80533523344054,11.164888733569526],[75.80931975220575,11.163002101699107],[75.80510558093478,11.160472798913405],[75.80430656452383,11.156937339614126],[75.81434467278356,11.14967059221044],[75.81620101077549,11.146381703202392],[75.82601071698434,11.1226885584086],[75.83022006070895,11.116728733810715],[75.84093942433071,11.083615688878925],[75.84803163966849,11.058501191580177],[75.84881025084775,11.049732193044512],[75.85020636844489,11.049023278961162],[75.86256875970442,11.001685140754123],[75.88756847610782,10.898047746529155],[75.91000390482026,10.793443581823846],[75.92249834932488,10.761303007987955],[76.00017939366293,10.593020932776206],[76.03189666504854,10.517543451005503],[76.0370610463793,10.508264658287787],[76.03937685557105,10.508825502528726],[76.04034063288657,10.507171340352865],[76.06711712170049,10.4560159094787],[76.0819027507783,10.422756678786214],[76.08345122893583,10.42188881905817],[76.08280703446917,10.42084890186621],[76.09908149177299,10.38106289767823],[76.10046569411621,10.381759535684132],[76.09959830333574,10.379860952244506],[76.1166660224428,10.333945722066261],[76.13492731150828,10.26663836392353],[76.1438070574805,10.242166596258919],[76.15349415263621,10.209086240409198],[76.16286807711758,10.183573530314476],[76.16569222496231,10.183391198943811],[76.16836837716059,10.181278847152017],[76.16647847631305,10.178341539919979],[76.16745670572483,10.171108588163625],[76.18502296376346,10.123300325834254],[76.19324938479245,10.085346699253625],[76.19478997574178,10.083582951579697],[76.2023755916477,10.053671267160446],[76.20612033748718,10.046396070640638],[76.2206781349443,9.998922259930604],[76.22566588593061,9.990426959650184],[76.23119582678474,9.986795216037104],[76.2340442605832,9.98797768507866],[76.2405691152589,9.982334284270198],[76.24102052407906,9.967886710491314],[76.23715658347948,9.963358420804113],[76.23771991699415,9.956803117447588],[76.25203258037993,9.916950644042942],[76.26096193401709,9.881465976548794],[76.26151017852992,9.872798678863498],[76.26951362512898,9.834494719752383],[76.28404298731411,9.749617928892588],[76.29632733384013,9.62813747277935],[76.29789078511678,9.624085585478243],[76.30118418142489,9.587317672593276],[76.30792983211597,9.541753650495023],[76.32027159356504,9.48272775911375],[76.34027659883525,9.40958928569628],[76.35185948599018,9.379096174544683],[76.3584033903398,9.368737546132772],[76.37256899053043,9.333915119530069],[76.3838822726073,9.31166183639396],[76.38542692484003,9.305521598748],[76.4378793979729,9.1905124513973],[76.46201305579737,9.141037829387425],[76.46388462921652,9.133659795095816],[76.48974280984136,9.080100935676423],[76.51670027145583,9.017727312800448],[76.52083283796975,9.003144493978475],[76.52691661804432,8.970495239025757],[76.53439141238691,8.951548292286096],[76.5374317011772,8.937982463935414],[76.535605438781,8.936339629163376],[76.54083411702821,8.939283910708964],[76.54175953358613,8.938337904922797],[76.54054747540081,8.936133153384226],[76.54414357251866,8.936263967595798],[76.5439304130815,8.933615291681786],[76.53548840446915,8.934020377251834],[76.54032362691012,8.932264235577717],[76.54244213642107,8.913428611232648],[76.5477719434097,8.902752135896625],[76.55597076010832,8.89248302594651],[76.56013084381604,8.889701308677203],[76.565626485196,8.880213341293373],[76.56953997596833,8.883082538241496],[76.57289024012552,8.883213250737173],[76.57953372092776,8.88147202511459],[76.59266873609516,8.87447605607539],[76.61378047477861,8.856283402279182],[76.63270328950753,8.835417189369187],[76.64468960197172,8.819959905655695],[76.65071956218097,8.809054987225712],[76.67174025750869,8.7840744250125],[76.6903752358509,8.755476515093681],[76.6993413377697,8.738575886597943],[76.70410447849393,8.734607683234328],[76.71414967715619,8.721831987043268],[76.71570331254176,8.721711705724438],[76.78729707337561,8.633819792750478],[76.89189219159819,8.501807785929604],[76.93105306961638,8.457160977973404],[76.95969724933079,8.42159510387135],[76.96760748224439,8.409740229420153],[76.97284009331594,8.398228834406972],[76.97304313412968,8.395276712294836],[76.9711551466937,8.395295252129982],[76.97096410467717,8.393486943963381],[76.97320508240912,8.389761146685423],[76.97583369037268,8.388747999433479],[76.97562005033687,8.386134474192682],[76.97866562840758,8.385487717481373],[76.97965520264306,8.382065221352406],[76.98441200844795,8.380241834853557],[76.9864758923048,8.375797145146047],[76.99155163776474,8.378173956926378],[76.99773469245801,8.374946479318016],[77.00373014568227,8.368948454156735],[77.00353717767777,8.365929306374484],[77.00839647407003,8.361609529372402],[77.00997379263974,8.357216147610597],[77.01608848464156,8.3568800354151],[77.02595302760864,8.350124077463194],[77.0779027505079,8.307168187927859],[77.09779810741458,8.29248867977566],[77.09949689348205,8.298319998935332],[77.10149493352353,8.298648444799316],[77.10297102453711,8.306402047633503],[77.11228687652864,8.30400225952254],[77.11615852018177,8.309400726362368],[77.12211477721523,8.308617698915054],[77.12393073773177,8.311868747388875],[77.11951316632089,8.315340875732717],[77.11859329865648,8.32026435942262],[77.12911704514197,8.321532792013883],[77.12868901857033,8.324564705561729],[77.13534414692855,8.325259523795191],[77.14128500234648,8.328888270767308],[77.14509004849768,8.328569590157068],[77.14822419416721,8.331711641557535],[77.149958134905,8.328502632842213],[77.15332077066029,8.326934361277125],[77.15848857097902,8.327742394396497],[77.16848117956958,8.332553534658402],[77.16987603683036,8.327576593097495],[77.16898641005167,8.326686688960983],[77.17283108358504,8.318757080693052],[77.1802919477525,8.323434005256969],[77.16928724056895,8.334717382953304],[77.1695575876554,8.337904219729152],[77.16654339492412,8.342540308394897],[77.17507657984284,8.35001897508674],[77.17388001759619,8.358523387673078],[77.17188468687364,8.358779309838068],[77.16914900152484,8.363339461809579],[77.16760376718379,8.3633676782322],[77.16582004899946,8.360172093174395],[77.16285786872312,8.361556707328093],[77.1591081066911,8.358966881702997],[77.15704257173077,8.359753670951996],[77.15594991671472,8.356507215519162],[77.1523848465085,8.35507467547309],[77.15297157844137,8.360919569795362],[77.15517767998072,8.362780084229957],[77.1565948001892,8.367156104581461],[77.1597306230133,8.36803382680806],[77.16080124235546,8.373644706778098],[77.15937104806633,8.381189724133518],[77.15589923556301,8.382451276463899],[77.15477164147228,8.380919726895781],[77.15164927990271,8.381063954913865],[77.15067447307214,8.384458134764637],[77.15372334077338,8.387151319951544],[77.16056963870889,8.389355478942917],[77.16571879000232,8.38665191913425],[77.16766810003286,8.383723029823733],[77.181713313399,8.396144702134563],[77.18257455521133,8.404911647134016],[77.19685899532755,8.419615802270112],[77.1960286708323,8.428892305671754],[77.2032492141017,8.435084160774403],[77.20240634283692,8.436290430587356],[77.20597543749562,8.44399788947335],[77.22699535039071,8.446731115514014],[77.22517214945302,8.459625204407711],[77.21298840884894,8.470381766709512],[77.21011431108117,8.478939083149022],[77.21049868671652,8.483460478228443],[77.21252268627305,8.485771792126343],[77.210424206498,8.491866360994857],[77.20109780469177,8.497662777479821],[77.20127547528531,8.500969788757327],[77.21027899113737,8.50615192402747],[77.21351972281364,8.512028502525766],[77.2224871982565,8.511302020228634],[77.2293596964556,8.508198883370302],[77.238725936748,8.496029892456802],[77.24371963637812,8.496954742481327],[77.25120577105287,8.505539598079848],[77.25605586240839,8.505306087024868],[77.25728593451011,8.5071690825439],[77.26161393400568,8.50627529103725],[77.26524526394725,8.512081139640436],[77.26682337033945,8.519997590247788],[77.27417206277572,8.533842519835408],[77.27456159743573,8.537748603615583],[77.28375606367617,8.54685140048988],[77.28226547744713,8.550612402211843],[77.27420600561872,8.559764954319883],[77.27494905069926,8.565768914310782],[77.27056465497016,8.571775743731743],[77.26895922003035,8.579013088433456],[77.26640155561803,8.580897552951846],[77.26633663257583,8.58526457406955],[77.26351494701328,8.588744809313813],[77.2616075002716,8.58809323221337],[77.25708722177937,8.590641550687945],[77.25680882668628,8.594841289134653],[77.25508189460432,8.597507978987021],[77.25066638572534,8.59885369685465],[77.2463520882328,8.603589690871823],[77.25198069015629,8.608350636354823],[77.25144280681191,8.620337841286961],[77.24835490461663,8.624261305880536],[77.24511152830019,8.624213662417459],[77.24399388844111,8.621942651262913],[77.23456320929841,8.62697158137469],[77.23210362654208,8.635771420222625],[77.2297846894165,8.637190276877671],[77.22933222058431,8.639914279584179],[77.22474258945716,8.639203602574126],[77.2200554596807,8.645056160607734],[77.21417618557211,8.649261488072668],[77.21160690504486,8.654916486206313],[77.21229052656933,8.656972749144765],[77.2077705301481,8.660897717028234],[77.20824329821077,8.663775783856389],[77.20085477716975,8.668967151607596],[77.20676568365442,8.679830264420918],[77.20789330379631,8.679285978991057],[77.20674320690772,8.684534695318167],[77.1956650453817,8.702954914130517],[77.19494266245104,8.707880387798715],[77.18989575650495,8.712483068830092],[77.1847991647405,8.713497589762447],[77.1843240314137,8.716143480822105],[77.181328240671,8.717236273351682],[77.18053448209942,8.721177943641441],[77.17719002824552,8.72496950680398],[77.1787115084355,8.732019693545976],[77.16999157904053,8.741850180160423],[77.1703871225315,8.747120484788084],[77.17246905084744,8.749632328748504],[77.17294190245343,8.747480967542113],[77.1769811564672,8.74379282919942],[77.1832086337496,8.741497538157377],[77.18822041377143,8.74259844267307],[77.19104904151447,8.741642236905557],[77.19824447777,8.753551663631981],[77.20005484537556,8.762787291259109],[77.19686125369213,8.768312686031987],[77.19884280515657,8.769439022529316],[77.20380025866328,8.768971890995186],[77.20937222540135,8.764876837935025],[77.21753311882196,8.76768967091441],[77.21834299945795,8.771110780211119],[77.21442666372113,8.77501309323136],[77.21304194754158,8.77862477685658],[77.21971899119946,8.778572130795073],[77.22402111562158,8.783228456942737],[77.22971675791639,8.78466360073648],[77.23120453152029,8.79093569065813],[77.23045159958176,8.797866289140686],[77.23265731933711,8.801753497088889],[77.23195413070911,8.807153885202998],[77.24230703020396,8.809366299470366],[77.24788715274649,8.817038293156473],[77.2464839240856,8.820632731747128],[77.24707721910994,8.823721590957268],[77.2531315012055,8.827776811335818],[77.26399115562349,8.84206893499998],[77.25979898948371,8.851429679461678],[77.2628581267253,8.853265377671155],[77.26251184145464,8.85527372686652],[77.25727493104617,8.861650015163885],[77.2600483438403,8.86526587431989],[77.25833876990457,8.874972032966614],[77.2553310809759,8.879340102790419],[77.24490300686483,8.880189610050467],[77.23757246488891,8.885792980883378],[77.23830851568663,8.891958891359241],[77.24015261053954,8.894589601660705],[77.23846253004545,8.897858591391177],[77.2278630421068,8.903702299510265],[77.2211487048899,8.904065647688624],[77.21816840289932,8.91665910407752],[77.22379541480474,8.924266442295595],[77.2213048859852,8.927519190106208],[77.21036716617242,8.932000017402112],[77.20626561489196,8.929646991678023],[77.20294134977573,8.923143711185617],[77.20096406710553,8.924675540602967],[77.19464924303485,8.924233644267888],[77.1927129127618,8.926313512430124],[77.1923726488985,8.928498196442654],[77.1970563578904,8.935544113918873],[77.19380257818463,8.943433368419644],[77.19688668679446,8.95180523401392],[77.19620524368457,8.954698625123994],[77.1946098914355,8.957483674131757],[77.19141845121717,8.959274421665912],[77.1906193557545,8.965734678300285],[77.1854686045616,8.970301412868384],[77.17812079606757,8.969217450167667],[77.17348586110406,8.991342464601434],[77.16159106001788,8.995159140869584],[77.15607356172875,9.003943903379403],[77.1567730097719,9.007618419634326],[77.1526705152604,9.007303400733946],[77.14926840303997,9.009693892210198],[77.15064367792587,9.015011331028395],[77.14700999349995,9.021366285015706],[77.15366253021857,9.02207069251071],[77.16093707301631,9.029217952922114],[77.16203787934523,9.033351384879206],[77.1605168483129,9.035680435122362],[77.16384518010243,9.038180308416113],[77.16701279699942,9.044890538208623],[77.17265130644215,9.04669655717645],[77.18284811826649,9.046771682017907],[77.18692886276833,9.0427751547668],[77.19245217854724,9.0435511550065],[77.19717519062944,9.046550661534809],[77.19520267891173,9.049451953319462],[77.19671144255052,9.056634893988091],[77.20533416075702,9.065842984418191],[77.20879007307983,9.07415400203438],[77.20567553763297,9.084505235099373],[77.20906998812235,9.090077792350055],[77.21206627114182,9.099888866730586],[77.21865584584049,9.10092890921705],[77.22072431380022,9.105326810855049],[77.2260796149766,9.10745876075623],[77.22806620149821,9.116240331564782],[77.23095199263602,9.116764951823617],[77.24144225801255,9.124269739224458],[77.24693209178419,9.12388342675543],[77.25339670274201,9.139641657767928],[77.26083565610136,9.144556966438044],[77.26205964032039,9.149598820814644],[77.26779965130542,9.153421294028597],[77.26583570771886,9.16492337071547],[77.2682456855052,9.17533717823435],[77.26428277571418,9.186162688434855],[77.25919246407189,9.186495110199601],[77.25247415809805,9.189546390942395],[77.25673062654417,9.19643313428964],[77.2563019271344,9.19942665356135],[77.26368196897745,9.198455602787563],[77.26642945998569,9.200554976252942],[77.27067666769958,9.200882944509123],[77.27070234244871,9.205152713163617],[77.27577732164573,9.211742232987213],[77.28221741937607,9.216893150524893],[77.28209594109852,9.220914084255424],[77.27703276756094,9.228075039588091],[77.27528876209865,9.234843703930592],[77.27932326492294,9.240953706531165],[77.27898643981052,9.251998815371676],[77.28246183210025,9.256109061882125],[77.28155581286426,9.26135600984532],[77.28354679484252,9.268338692055789],[77.2827296064117,9.273336509808876],[77.28845019671861,9.274283688061708],[77.28778391447572,9.281978147236213],[77.28313586410908,9.291922041556427],[77.28296704371773,9.301419846029333],[77.28841598617765,9.301760194243059],[77.28968513050262,9.304138379691636],[77.29360341288867,9.304871701722846],[77.29945927330768,9.311021161307833],[77.29942733460607,9.314330089548138],[77.30262524718603,9.319096251190915],[77.3017592829302,9.324697051897965],[77.29721153665153,9.329334214770611],[77.30091602808481,9.330225183529828],[77.29997996289751,9.336804627972164],[77.30572528831574,9.337897754831738],[77.31553881326286,9.33497031052506],[77.32002156104085,9.337633759269274],[77.32521031456356,9.337223226160404],[77.32595538265011,9.346657917816561],[77.33325038098519,9.356432584821391],[77.3357077583775,9.361147927740584],[77.33566929611031,9.364032128671036],[77.33724581607774,9.3650901133938],[77.33679383682737,9.377336902555164],[77.33457228426512,9.378905265883123],[77.3344763172433,9.381323356799921],[77.33651948055982,9.387430988543422],[77.3394100767861,9.387517228496181],[77.34132172764333,9.38991337801236],[77.33969953822516,9.393779275625883],[77.34381980770114,9.402201197481862],[77.33644384510784,9.412367180132899],[77.3396341067365,9.420825221897775],[77.34452322180628,9.424523622629769],[77.3454424112427,9.429360778710901],[77.3484922769722,9.43461854879498],[77.34928227250104,9.441200231004384],[77.35630857125993,9.447674712822288],[77.36021915059241,9.455545349699737],[77.36592394492337,9.460188301875416],[77.37281280683368,9.456734770705824],[77.37415142865937,9.453592972241282],[77.37711998248263,9.452883276506926],[77.38085801521197,9.4551616823778],[77.38689078535145,9.455753823897078],[77.3925367067936,9.459456056981326],[77.39152665096964,9.468850659858653],[77.39719520816033,9.470432394745155],[77.40200397431785,9.477728363778697],[77.39888516289024,9.4814716248728],[77.39915625378175,9.49646975013189],[77.40232756095791,9.501042193354156],[77.40963786478882,9.505664907192168],[77.41232049024705,9.509082635352339],[77.40823623692575,9.514864822819677],[77.40034025398745,9.517961914005753],[77.40323686712955,9.523106266951942],[77.40043192706221,9.52746881084054],[77.39587774165959,9.523409562428602],[77.3851030741557,9.519336810032256],[77.38005741866448,9.52546671362294],[77.37685144280654,9.524933281800065],[77.37326288435058,9.526953936085619],[77.37288486788911,9.529991777340573],[77.36866775194068,9.534882971862066],[77.36548900312067,9.53519478813165],[77.3650102397018,9.552834035162052],[77.36118892506077,9.55804164022462],[77.35283144791667,9.559686570280562],[77.3501893697154,9.567185998199164],[77.3528988655804,9.57296353118935],[77.35806370056036,9.57401265327909],[77.35981705119654,9.577484528650148],[77.35822260175435,9.584030261704177],[77.35489740598348,9.586787590251262],[77.35740206979406,9.594536020478381],[77.36077708343562,9.597940256164506],[77.36231674462861,9.595666448539303],[77.36607000559869,9.59605996694169],[77.36573276995615,9.599848164593677],[77.36269914486864,9.600304584781828],[77.36105476167307,9.602365849241547],[77.35451365018567,9.60417371941568],[77.34540520212528,9.588066091189276],[77.3421537706157,9.581113061205984],[77.34183084872892,9.57656085938216],[77.33942423962488,9.573424915282233],[77.33243438282214,9.578914890912317],[77.32531294798308,9.58013422612942],[77.32557655770489,9.583527355221284],[77.3237862656493,9.585231389177288],[77.3261451301943,9.588703562564044],[77.3244955134139,9.593413745542447],[77.32986041129243,9.599069788017328],[77.3280770874685,9.600255913666803],[77.32492994317687,9.597787154079265],[77.3223336152747,9.598392455717091],[77.31774607812049,9.602609345833057],[77.31529576418127,9.600814249323632],[77.30373576969309,9.598845471316883],[77.2944869463948,9.58934550850186],[77.2899960742534,9.588792906993355],[77.29026579251914,9.584878164507971],[77.28040624957495,9.579685845667447],[77.27685473314972,9.575851343598867],[77.27194011670564,9.576559605980087],[77.26964118955304,9.572874617524327],[77.26377907236805,9.573849110058228],[77.26137326366293,9.57693134446129],[77.25828467874804,9.576604245693062],[77.25299506418183,9.583071783168927],[77.24270154961549,9.585323624800546],[77.23705690647597,9.581166481987994],[77.23424929302239,9.581648071167141],[77.22245544999772,9.592854419819606],[77.22214711225962,9.597790980480765],[77.21706721658303,9.601722603797915],[77.21436590437025,9.600814569073316],[77.20980157788635,9.6050611308383],[77.21043515246974,9.610939675652315],[77.20888475551077,9.61355033919148],[77.19813035040642,9.614461238638398],[77.19699079434939,9.610948976458157],[77.19075001211935,9.609327248095463],[77.18860863599281,9.606208400267521],[77.17402408221494,9.611291698707474],[77.17023413494701,9.609777700879125],[77.16582739901511,9.61294070168897],[77.16774081955343,9.615092302811407],[77.16907196559933,9.624051916645783],[77.17456597384209,9.626655111082275],[77.17622459443662,9.629552544544696],[77.17411587566394,9.632943249388012],[77.17401170971856,9.637382487232788],[77.17923344578523,9.644935613300147],[77.17954947310218,9.655617686673391],[77.18111262254492,9.65928355901443],[77.18747282231728,9.661515779549877],[77.18678125070251,9.666488509776864],[77.19407597684808,9.670632517685567],[77.1945367640798,9.67419917252935],[77.20051680401042,9.686073530260437],[77.20668323358272,9.694728998866912],[77.20454336033768,9.70165952490282],[77.20191031289998,9.703970107888695],[77.20526591843982,9.71316868150707],[77.20467440477469,9.716635997661516],[77.20606897547289,9.717648293261714],[77.20567765945367,9.720288426986691],[77.20352284722546,9.722183017835748],[77.2075013733294,9.72483112072706],[77.21159767305869,9.724341955240142],[77.21560815493224,9.726750456721728],[77.21834648671788,9.72615756906282],[77.22063493502272,9.729714662319006],[77.22387498667432,9.730446063265012],[77.22180365488546,9.737467000577768],[77.22264286910871,9.740061577030648],[77.21980911018876,9.742159870319139],[77.22020175301967,9.745111638041148],[77.22527143844474,9.753336926806499],[77.22759899490543,9.764777713329218],[77.23252664680263,9.7691431251048],[77.22835477001185,9.77179841019484],[77.22510937607927,9.776144316762824],[77.22278883815588,9.788367107662763],[77.23613845096318,9.790632555883066],[77.24028804324671,9.797493350492964],[77.24185549831459,9.796367235526116],[77.24679666985682,9.798458529415488],[77.24522601948144,9.803350312344888],[77.24691881109102,9.808570940863525],[77.24128353648163,9.816212454052827],[77.23271496512722,9.818013996226217],[77.23281914634397,9.822093760327213],[77.22512051249383,9.820914426928832],[77.22440534303492,9.822611529871116],[77.22187122885606,9.823059737693281],[77.22394550801738,9.824456048022265],[77.22387855388428,9.829311100101366],[77.22664588418563,9.831331021217093],[77.22552990980311,9.833903490001203],[77.22762359796444,9.838703617219252],[77.22303085417485,9.845490259054234],[77.2264226681089,9.846944831584622],[77.22823317674992,9.849751555269549],[77.23728223269532,9.851990989022642],[77.2360023418246,9.855124131208113],[77.23640510866876,9.860214044099514],[77.23278173780061,9.862154496874512],[77.2262355894594,9.861464790218285],[77.22142250599859,9.863744458719104],[77.2125414844187,9.877498074020313],[77.21536346462864,9.878003697656705],[77.21761736462595,9.884960145510316],[77.2208404632715,9.885094908356772],[77.2181813898434,9.896984500916718],[77.21834772998623,9.904908890535514],[77.22267473774174,9.906571252556853],[77.22448587610181,9.910282100183162],[77.23015827359035,9.913083174101168],[77.23046176940909,9.921278705155482],[77.23179871947,9.924659601641872],[77.2357342001022,9.926986425021322],[77.23442706422722,9.931199910858803],[77.23632542091654,9.935991079022985],[77.24799737513355,9.94746460774829],[77.24664028035235,9.952017253500593],[77.24938364989012,9.95284380702635],[77.25014576081423,9.951275504222412],[77.25289895522626,9.953550432614515],[77.26094725201249,9.952586013663714],[77.26847261431905,9.961010255507585],[77.27098009165307,9.962529965110697],[77.271773848428,9.961431754396962],[77.2727897980986,9.964293512469489],[77.27211300287196,9.970246746490593],[77.27080858080744,9.97101027402831],[77.2726035432042,9.976435396349874],[77.26789635674237,9.98000507462913],[77.26703776226518,9.98390596325027],[77.2643369719736,9.987272703589333],[77.2667619525235,9.990392716686001],[77.26102916309506,9.991828232158129],[77.26074047869874,9.99586031497293],[77.26519460794839,10.002202714131183],[77.26492640783546,10.004276030240817],[77.25472824853821,10.01244661221902],[77.2553387561817,10.014060677692234],[77.25787888817462,10.014364463760257],[77.25825436509878,10.019140301103883],[77.26109354265651,10.019168056804762],[77.26271226727262,10.02167914529145],[77.26389717657342,10.029307110386844],[77.26164522412364,10.033562375965825],[77.25657779526658,10.03677131373123],[77.25089596187429,10.045755161489783],[77.23579550652708,10.05852457987415],[77.23162566531873,10.066876466631822],[77.22304055059006,10.070677527262854],[77.21852938999794,10.079353521555952],[77.21054251192595,10.083169322022734],[77.20404877309507,10.088492743930303],[77.20366811917994,10.09898478243332],[77.20118377975268,10.107203462288817],[77.20361207688262,10.112830917521645],[77.20614887522753,10.114163841794843],[77.20750044626803,10.119140602793522],[77.21100422711737,10.119279872412287],[77.2163547762059,10.116430585843096],[77.21772397039567,10.118586511025281],[77.22746529954001,10.122661223359968],[77.2304533593814,10.122294167054912],[77.2296827450048,10.123686717728106],[77.23359351657676,10.128138607104898],[77.23853582179285,10.130844223014716],[77.24453557704899,10.131863816774489],[77.2518982302031,10.12556508196432],[77.25365900092349,10.126280013688525],[77.2554205459917,10.124757311221957],[77.26771637837689,10.122207643029055],[77.26694431950934,10.125434965175975],[77.26812058611875,10.127808609979578],[77.27236770579772,10.128619229377524],[77.27485322740789,10.131305088444217],[77.27453091637554,10.140834052251012],[77.2712317528833,10.142356348519643],[77.27303624011701,10.149286827141646],[77.27172171020892,10.150940850334838],[77.27280744280739,10.151433949688956],[77.27271936389211,10.155723780758532],[77.27131857415718,10.155899585430905],[77.27208636962041,10.165957754286477],[77.27515832312615,10.176532016711631],[77.2745943967234,10.1849353629334],[77.27748141855317,10.189488290739428],[77.27851570463532,10.194506269813521],[77.28023600984548,10.194506832122244],[77.28348859209694,10.1976901952891],[77.28569984008458,10.204439791778386],[77.2829423265727,10.20860223287302],[77.28705359133629,10.20972449370948],[77.28913319121901,10.21460258811314],[77.2932903338425,10.21505125264928],[77.2952790897955,10.218546066864459],[77.2881699358247,10.232322311327675],[77.28093978148009,10.236741185955493],[77.280355963682,10.235488886750051],[77.2720364520367,10.235083841245133],[77.26945725590535,10.237008740286404],[77.2677969060539,10.234585238328759],[77.26463410861841,10.235122015895074],[77.26431999650964,10.232658299280452],[77.25911824975468,10.23045950223318],[77.25729564350168,10.259481886309125],[77.26355594702116,10.263896088071743],[77.25088350583457,10.281475569717584],[77.24680895162336,10.283690643690434],[77.23909020179909,10.29566774647486],[77.23952030797061,10.298773144711793],[77.23566019599079,10.303154648980108],[77.2348496631779,10.308959140127403],[77.23141682138821,10.30879294330985],[77.23056023015411,10.313553194829328],[77.22734294720168,10.316573766283017],[77.22717091263829,10.320999249061922],[77.22897470277931,10.323037419522025],[77.22876276594927,10.331128984237404],[77.23253975951083,10.336018839966183],[77.23284203272244,10.338780634000285],[77.23567741130486,10.340013822071002],[77.23525271029641,10.352869869019992],[77.20862283551999,10.353555530704126],[77.2041169543268,10.354279868961816],[77.20175746724931,10.358063899123003],[77.19539245699863,10.354656969536682],[77.17599452062097,10.358574913364139],[77.16125606207876,10.348636448351616],[77.15118857801092,10.33819968965468],[77.12837172822209,10.32631631118783],[77.12015477363953,10.31803481324859],[77.1094273943505,10.31543960573847],[77.10200032480405,10.315610826958837],[77.09568781928509,10.308748303613644],[77.09142847623006,10.315060116029677],[77.0887264121274,10.312591693936536],[77.08878684718643,10.310986397509643],[77.07846607144616,10.302893942849593],[77.065978024743,10.298167886199414],[77.06338137434564,10.294695672268752],[77.06316746661186,10.291716708404792],[77.06016416236014,10.29111940084965],[77.05535861127302,10.287077064290921],[77.04361949900537,10.28406357385063],[77.04946776057538,10.278363039699453],[77.05284560929998,10.272306260564594],[77.05099490733816,10.268225976676323],[77.05160732569827,10.263767206057102],[77.04843174343966,10.259426909772941],[77.03963854206025,10.252879054184396],[77.03122739776444,10.252108128198135],[77.0150960789163,10.245613900689543],[77.01104037585131,10.241182459797706],[77.00536843201199,10.238960757020061],[77.00326170300768,10.234407927380264],[77.00015421574255,10.233380564544493],[76.99854197247123,10.229619111695591],[76.99567234112703,10.230350708660975],[76.99031768763597,10.227658287267204],[76.99035597922327,10.22501424646835],[76.98353874448215,10.221860558688284],[76.98359357405383,10.219659293726579],[76.98176439123462,10.219706553096088],[76.97983384162046,10.223265935120134],[76.9727410872935,10.22498552992213],[76.97066750252993,10.229047429225037],[76.96527642055746,10.230051535648522],[76.95857701064563,10.233467821348775],[76.95072347310452,10.231702543391469],[76.9483636132262,10.23301826431941],[76.94720600642185,10.236215819370903],[76.94407045039735,10.236031141045723],[76.93962575435647,10.238154604674655],[76.9219064781907,10.231588762547368],[76.91187581337142,10.234259902237332],[76.90973542090015,10.235691605560788],[76.90954211243415,10.23846315736082],[76.90774630562105,10.24030861417228],[76.90256797525055,10.239575083855183],[76.90479006859861,10.247249811157813],[76.90333503948517,10.251154110482808],[76.90139193321994,10.250492030645939],[76.90067690928808,10.251771836434958],[76.89738239996734,10.261434542481824],[76.8912820190263,10.26225648207278],[76.88394995260933,10.270072614242093],[76.87326407997803,10.27567536990166],[76.87437009743391,10.292996992548012],[76.87315101711805,10.297546227649867],[76.87013772719362,10.29807879028203],[76.86828189225824,10.295237634180687],[76.86439027905634,10.294645393355575],[76.8620469391961,10.291151618569291],[76.85955101509492,10.29120208718608],[76.85769029512106,10.292966326188763],[76.85494275380715,10.292118791195762],[76.85098690387589,10.289117792886497],[76.85207254394788,10.284329841023848],[76.84856899127064,10.28452150124193],[76.84813001064244,10.286725035174795],[76.84232730264047,10.28943819009926],[76.84181926492313,10.291538224761297],[76.84443693769472,10.294375169912653],[76.84030216491847,10.299076513749661],[76.82992965969254,10.30315321540764],[76.82839177536717,10.30712561525263],[76.8326814159018,10.317347441677738],[76.83739841555976,10.335869420191418],[76.83580003329327,10.339638843403918],[76.83603448459927,10.345440737438347],[76.84149290518376,10.350060322828922],[76.8416518162592,10.353046900430794],[76.84590973368788,10.356828115930957],[76.84489179065568,10.362280113938905],[76.84861912624666,10.367415641613002],[76.84369494813467,10.376971187243322],[76.83400047781048,10.382639902233766],[76.8304892948432,10.388784078339494],[76.82332847696378,10.394582747961252],[76.83370268180222,10.402830890102052],[76.83212279764405,10.405122281905793],[76.833272493884,10.40734390256771],[76.83024759233622,10.410796109698037],[76.82432399624983,10.409591430183188],[76.82221825179906,10.414118539425203],[76.82288563627479,10.416623200184524],[76.81603791900115,10.423003113104613],[76.82802766482631,10.449745552019586],[76.83032883597052,10.497251770739558],[76.84308859699598,10.536679351345192],[76.84200416425973,10.540192900105538],[76.83526184721667,10.544611390169043],[76.8356209011408,10.557426954320539],[76.83899409030401,10.560141678453078],[76.83969989033454,10.563631265057857],[76.83472626625439,10.569847447933759],[76.83392512802274,10.573395449241103],[76.83798363023814,10.581484540239],[76.83715755387591,10.586212303627656],[76.83860189752906,10.596327759920065],[76.83746688335411,10.598273242129642],[76.83241129878404,10.599242754810097],[76.82632151347183,10.596069158410483],[76.81747601127823,10.602736865086452],[76.8160223763501,10.607228769658974],[76.81853219289714,10.610644671953972],[76.8166688013336,10.613037270571517],[76.81671322122774,10.615929539217854],[76.81166426712282,10.61963762578962],[76.81012200440875,10.623840723749995],[76.81488056552166,10.628961161568528],[76.81427234229395,10.635048105047817],[76.82080581271154,10.633568569627915],[76.83086294998395,10.636917989748017],[76.83940902482868,10.633573385786722],[76.84655446894034,10.635135986485368],[76.85294583486315,10.634379758907661],[76.8595584594337,10.631683304690524],[76.86761451137578,10.6327428784689],[76.87315102699952,10.637166130789169],[76.88212093597846,10.638965535985793],[76.88250165097904,10.645923277499158],[76.88410873342906,10.64798809885171],[76.8806300263559,10.655868268403266],[76.88110780791618,10.66076902235623],[76.87790173593854,10.666930147203203],[76.8782262756911,10.674403438788131],[76.8773150004124,10.676320595790905],[76.86982167472382,10.67632024356768],[76.86704736541105,10.679165901625032],[76.86604445388853,10.684785170613921],[76.87061359444401,10.69223756602226],[76.86750057086181,10.694280944315857],[76.8821928245574,10.716794665950458],[76.88716114049252,10.717700178502929],[76.89115685585946,10.716523556338641],[76.89217887544639,10.718474247936467],[76.89290272802087,10.720987202130997],[76.8884769918224,10.727987515107431],[76.88816689967452,10.7317856533655],[76.8898873899376,10.73655230712993],[76.89599385965961,10.744781208112489],[76.89627986348314,10.752516607326603],[76.90115783944341,10.757086280736337],[76.90365879051693,10.761832364246876],[76.90265390180242,10.771505780035998],[76.9053877923173,10.772147483488949],[76.90761022972013,10.7787061624851],[76.90728614721,10.783407270025698],[76.90070425041208,10.801592758042144],[76.90075956417569,10.808025012328178],[76.88905959689485,10.810299291563624],[76.88482572646801,10.809101547607902],[76.87013074189395,10.80904720112731],[76.86532984946989,10.81361698300546],[76.8640357373699,10.81799698903727],[76.86055609604887,10.81919922479662],[76.85882328449335,10.817386489942677],[76.85185498007093,10.819275373997046],[76.8499713458708,10.81797334203666],[76.84824284263537,10.819528153062825],[76.84749258498141,10.823768064055253],[76.84515578755139,10.826823492599292],[76.84647248778919,10.82804862889112],[76.84742819194526,10.827054219550298],[76.84861670349031,10.831244663122837],[76.85091212451837,10.830300168105385],[76.85326215413257,10.833645341653197],[76.85385616421586,10.839684388747225],[76.84884843649427,10.847079068139148],[76.84848686099915,10.850116577432768],[76.84174626782313,10.85280542600807],[76.83916210580487,10.857067642247541],[76.83200956320586,10.860854545551426],[76.83082362443574,10.87065872572868],[76.82838585187616,10.872638198008037],[76.82619545468462,10.87205025162335],[76.81940388840442,10.874268396897696],[76.81675627298773,10.87347679473768],[76.81440499022375,10.876721798968564],[76.8119263407255,10.876558549338165],[76.81152796754138,10.878610654906065],[76.8081989197946,10.877529591896327],[76.80128804376994,10.880782424465998],[76.79186226583546,10.881837623031588],[76.79098777477095,10.885186818156326],[76.78149170366548,10.89115062038335],[76.77667174809278,10.889901471739043],[76.77444417771645,10.890836391471264],[76.77134887340318,10.888340192864991],[76.76796020087774,10.887764883299102],[76.7653518274659,10.891913540697823],[76.76131262555441,10.894190158919328],[76.75533062549985,10.89393013460133],[76.75247142898601,10.895795784865197],[76.74900970815658,10.8925624886928],[76.74074814593199,10.891062695353854],[76.73853620803823,10.895271793955198],[76.71779407938179,10.905552930913245],[76.71486331229262,10.908699864104143],[76.71259899273633,10.907665271013588],[76.70803061485053,10.910193326067853],[76.69517395614861,10.910318372105527],[76.67671126569473,10.918146250933734],[76.6620260224516,10.929733420120467],[76.65905766535936,10.930588113269302],[76.65576055272093,10.93909542162447],[76.66468993061257,10.943574007639468],[76.66579279049026,10.947515548572099],[76.66355644806518,10.951023476182513],[76.66744578583446,10.959679214195175],[76.66674702230758,10.968425819197236],[76.67385236472659,10.97448647385281],[76.68600113391663,10.989292612284412],[76.68537067019909,10.993586959302425],[76.68845763724818,11.001439964288092],[76.68909067553734,11.008571459862853],[76.6997058516541,11.026658177893516],[76.70815423740666,11.031841825249595],[76.71584879560037,11.040534221929056],[76.71815228260134,11.041000446474293],[76.74179377593951,11.0382171696703],[76.7492292141912,11.033963458275739],[76.76656342212057,11.029179068227158],[76.77361276176813,11.033624938276473],[76.78240674198693,11.034545491405986],[76.79180419783714,11.037445810586725],[76.79381163425649,11.042007158545433],[76.79311114865918,11.043480554181572],[76.79729683255584,11.047549898804883],[76.80077283210672,11.053978576918693],[76.7980906351449,11.05667183773438],[76.79619185445074,11.055943529291689],[76.78775711590397,11.044785368578683],[76.77812140348419,11.042178632962937],[76.76890538845673,11.043517912739885],[76.76198970195375,11.048067091056305],[76.7606609562063,11.052401413131015],[76.74648747779064,11.056751507188222],[76.74380952986009,11.067560960870269],[76.74383627090944,11.07313317541177],[76.74966885687778,11.075639531103084],[76.7500929569133,11.07902533667073],[76.75265175769445,11.077534725286863],[76.75461893341938,11.07909507176706],[76.75447945020859,11.084238912076025],[76.75162918923687,11.093268967018192],[76.74782182543218,11.093372622646323],[76.74340625367117,11.102598114502706],[76.7442558865551,11.108338315895491],[76.74863301401521,11.11285653688664],[76.74985498960126,11.119149822851824],[76.74677909428804,11.132688963644089],[76.74806348661669,11.135479816017911],[76.74625360769461,11.137476566700458],[76.74308017330787,11.134390312692963],[76.73812606872052,11.134460068055317],[76.73451871301724,11.136296960887366],[76.7313655877424,11.131710591838175],[76.72368218303129,11.138907484588202],[76.71890432161449,11.149461950441504],[76.71204553529992,11.150928473443248],[76.71177924231033,11.148205131076697],[76.70826979937976,11.146724125786438],[76.7119829577589,11.143980074865098],[76.71209973784751,11.142321928187556],[76.70630922447555,11.14162505810126],[76.70407364741509,11.149362901361005],[76.70019005527033,11.153631351836916],[76.6949643944642,11.166808360807101],[76.69797454298008,11.174204692786512],[76.70246146792412,11.175847668643298],[76.70509584936,11.179991919541823],[76.70720694237998,11.17988708213261],[76.7143447562016,11.18768896615629],[76.71651307100684,11.186426432638926],[76.71991748201609,11.187789246473244],[76.72275286419179,11.187172948585388],[76.72862158129914,11.191436136207859],[76.73017544306015,11.193687017932682],[76.72689474354026,11.201571371163983],[76.72692429272321,11.207481749109126],[76.73551976143386,11.215652279481978],[76.73454195512859,11.21807401762112],[76.73157207090034,11.217279033330946],[76.72949469255133,11.220796318376138],[76.7255466840142,11.223371646498027],[76.72519106884101,11.225717977257638],[76.72293741408375,11.225073602786965],[76.71928889847244,11.227453298429161],[76.70580407484184,11.240444064160286],[76.70700608537068,11.238310447068368],[76.6981870673083,11.239575199856272],[76.68424724518962,11.233866182680115],[76.685288039566,11.231316481041938],[76.68264546998628,11.229929007273077],[76.684346650064,11.227947003729875],[76.6763529106599,11.220249954184222],[76.67146414593307,11.218961540672645],[76.65529493165467,11.209909946884956],[76.65237157746321,11.2098107898031],[76.62891880669147,11.194251381096308],[76.62465763017497,11.1958038936027],[76.615478767671,11.192351260065024],[76.60791038145226,11.194050961492735],[76.60084907894,11.197600322414283],[76.53384183477418,11.185680250525456],[76.51570288187733,11.194647053275036],[76.50937006994138,11.208279143944479],[76.49580969799536,11.211453654399605],[76.4723380706875,11.208833542459193],[76.47344132672221,11.195016119935286],[76.46659657568561,11.19340450107203],[76.45841393225535,11.187765637059615],[76.45161286808766,11.19947487685367],[76.43859358826819,11.19904787721422],[76.43933147881559,11.203043489753883],[76.44893268245373,11.205554602497617],[76.45306208869451,11.2394545086324],[76.46627370679947,11.245205038624906],[76.48708527971893,11.258369930001809],[76.52166340321345,11.270664462945895],[76.52679273318014,11.288647323998859],[76.54219764284849,11.29670326400567],[76.54572606807936,11.300396525879169],[76.53932677721912,11.30470678698461],[76.53727212175518,11.314126046727093],[76.54994046572578,11.331075533056229],[76.54741733255298,11.345552719495437],[76.54783047134538,11.35896837110648],[76.50815900619108,11.354208716200233],[76.51509193585596,11.359771595855715],[76.5177257774044,11.371646340713179],[76.46035580872693,11.388889462120371],[76.41559944517824,11.423255076386527],[76.41868184609073,11.441866009961204],[76.39790351802334,11.43636016756541],[76.36865137289766,11.456295285661321],[76.34757555784245,11.46366706864471],[76.34220449482609,11.467675752100961],[76.32601222528592,11.454063100160791],[76.30513237411665,11.467872026209776],[76.29483743392393,11.4658322001459],[76.29151937347139,11.469893884047815],[76.29456754228335,11.474150162926582],[76.284414711077,11.483003598940762],[76.27346353360292,11.477119326792229],[76.2646734403944,11.481328161728834],[76.24722594592458,11.467987698647654],[76.24847099114541,11.487785519164872],[76.2514166055896,11.502397608592112],[76.24801734102864,11.515671559293368],[76.24649610068886,11.515576380636656],[76.23974677948152,11.52673150309296],[76.24444755556547,11.525220529676854],[76.25023547100963,11.527031072934557],[76.25148013085325,11.536925642701922],[76.25010851929706,11.535786110936575],[76.24479388665021,11.541644356369874],[76.24609531193494,11.545501479547385],[76.24225337377163,11.550161241711768],[76.24420901243336,11.553307360057865],[76.24066230648647,11.555025932918687],[76.23611369513019,11.562934671152638],[76.2334053536003,11.567909180814693],[76.2341379422909,11.571160994607832],[76.24905653999707,11.580029570400631],[76.2534924765656,11.585482868887212],[76.26130452721193,11.590435915686024],[76.2645836906127,11.591024247994026],[76.2649083740957,11.59397143662103],[76.27428340889476,11.593758082072144],[76.2755977950724,11.597523711525303],[76.2789878321388,11.600891232321787],[76.28607589097176,11.590277170241382],[76.29598747242204,11.59022601154958],[76.29910692255179,11.582886398246911],[76.30046605830532,11.573186274953311],[76.30236480486347,11.571306998869511],[76.31051857554219,11.57747436691935],[76.31590535099117,11.576675866488957],[76.32119352645628,11.58627262413921],[76.33586040454172,11.595815545912588],[76.33993812711095,11.593209480860539],[76.34037905079512,11.587279254212012],[76.34738376752927,11.58924634565412],[76.35455837903989,11.589391723591929],[76.36708277607103,11.598409918207851],[76.37796207664428,11.601990364911536],[76.37825549695877,11.608589287963257],[76.38391319711094,11.61212870228909],[76.38327159967378,11.624124514010356],[76.38807684174046,11.629747244125733],[76.40659822182677,11.634338572812139],[76.42708872608392,11.633525846742835],[76.43003975018273,11.630868373185967],[76.43246081856958,11.63136966897424],[76.43452964405881,11.635844074365368],[76.44340840727409,11.643702824102222],[76.44403746602653,11.64727319720974],[76.44109460402039,11.651400624591032],[76.43635372265055,11.653548539707518],[76.43133537055408,11.666481118384091],[76.42944583532083,11.66632333123948],[76.42816247425817,11.670061591988931],[76.42611290954694,11.671223536804746],[76.42066975223749,11.672580368676398],[76.41911036404082,11.670976028264677],[76.41591436038085,11.67289289362799],[76.41401244276975,11.681693498541108],[76.41258180830613,11.682841803161159],[76.41302704390367,11.686059935708501],[76.40842310441073,11.689793970856371],[76.41023937394768,11.691081957854548],[76.41080836954359,11.693748682711389],[76.40961606261645,11.6944539780191],[76.4123586335519,11.69509995739054],[76.41175819692104,11.697906977090138],[76.40981374587786,11.698829222520763],[76.41085043136015,11.700130924329509],[76.40886533244868,11.706468141751508],[76.4074298803202,11.70752592412784],[76.40521907340538,11.70593506947473],[76.40344433747556,11.707838160707611],[76.40364192910883,11.711698197803917],[76.40558653825549,11.71127319721017],[76.40851313267018,11.715132911018424],[76.41255391920986,11.715548289874443],[76.41264522307699,11.712266813758617],[76.41398894463855,11.711331027489564],[76.4160393402914,11.713034813185477],[76.41657203137342,11.71777164662296],[76.42409441666311,11.720369550391379],[76.42742528170176,11.726055115521799],[76.42208383793692,11.738363847350882],[76.41814888192087,11.742681032678988],[76.41285986563267,11.740186619588036],[76.41046113924526,11.742162132487946],[76.41239701766568,11.74376197632578],[76.41228339156201,11.751897368555783],[76.41495817562617,11.755580762682634],[76.4142155752117,11.758925686859083],[76.41176470252036,11.75884944620079],[76.39862294190344,11.750886112337902],[76.39338474870077,11.755103539617341],[76.39127464472593,11.754845998372708],[76.38393045823913,11.747280405013694],[76.37697648643706,11.744622649029639],[76.3684446013805,11.748215820483033],[76.36280253191428,11.748446066599346],[76.35248714696401,11.738356724048282],[76.35018434986918,11.740313642884614],[76.3397217759596,11.739082952551996],[76.33482213353297,11.744718624517775],[76.32912906850471,11.748360767741243],[76.31839476230654,11.751364450865628],[76.31496605097054,11.756832319496716],[76.31450598688264,11.762486324579474],[76.31106361845937,11.7680265457963],[76.30773300584734,11.784874950772577],[76.30520897885083,11.786344370595103],[76.30176771445703,11.786004207794981],[76.28834352171819,11.795159865244377],[76.28019269122541,11.812430347351105],[76.25839692947058,11.808803292721933],[76.24556581795702,11.803005058824832],[76.22933454716045,11.805388715149856],[76.22370610603542,11.808283397996988],[76.21819792147916,11.814436806197115],[76.2170636897368,11.820872605995207],[76.20974188028373,11.827476509193875],[76.2103446157034,11.834724613025648],[76.2129186716747,11.842068718506498],[76.2100286566584,11.843663102271252],[76.20746179439588,11.861614459776476],[76.20200121515977,11.862492779522688],[76.19836785861891,11.866629417419842],[76.19037489086763,11.87129129272529],[76.18671296251082,11.872033326127115],[76.17879642611885,11.870244932193591],[76.17348705220971,11.871285393069796],[76.16479940377447,11.86764355735579],[76.1560162868824,11.870216358620976],[76.14939395152366,11.86650152867767],[76.14607155220828,11.86708029433973],[76.13228128341473,11.853950387350222],[76.11999716056927,11.850388543581065],[76.1170235420444,11.854944905965272],[76.11665175360281,11.85645415767521],[76.11808804206282,11.857023729422645],[76.11280161382096,11.858546685152254],[76.1149213270744,11.866732386653204],[76.11174001536091,11.887668480365319],[76.11336888465152,11.895049600925212],[76.11248340000462,11.978798815299925],[76.08967278632046,11.96746063502054],[76.07727764607891,11.96881457769038],[76.07008891395037,11.967154352501955],[76.0676474439251,11.963546953740689],[76.05815080508432,11.958021399508766],[76.05187731609315,11.951511092921166],[76.04809924455323,11.952016255620558],[76.04457883049811,11.950505571102592],[76.04222076186043,11.945957837311273],[76.0388701060378,11.945052799098304],[76.03351942489694,11.940250898663045],[76.03015940234081,11.940150296854505],[76.02693597940345,11.9430870719142],[76.02221677707637,11.94408873053793],[76.01648006470505,11.941180196721396],[76.01325742869189,11.941838788843626],[76.00752071542229,11.939260024678122],[76.00319106302659,11.931470339847428],[75.99390643108447,11.932350847488832],[75.99041487720444,11.934788271703715],[75.9834655452008,11.93279781769599],[75.97926695341181,11.934842166537933],[75.97639351680407,11.9337856022421],[75.95636280983524,11.94197666569509],[75.95173150226881,11.940716947703418],[75.93740305278855,11.94218459832767],[75.93709044086633,11.94007757131924],[75.93074712313313,11.939108511454698],[75.92688934497639,11.942751417180414],[75.91794583389034,11.944032854819016],[75.91345400055158,11.946212856204331],[75.89844055512447,11.94598980059467],[75.89683882932847,11.944769694118145],[75.89210967276976,11.94885797600631],[75.8862403492996,11.951091658771825],[75.87977846562696,11.94900519058991],[75.87237094162445,11.952681052356445],[75.87009146569265,11.951987291654639],[75.86658457218088,11.956559635866823],[75.85852052702936,11.958930661902944],[75.85420133461685,11.963717813317114],[75.85262656456759,11.971060003996442],[75.85003220038264,11.973974725646789],[75.8478151268204,11.974171280869566],[75.84954944305402,11.978119248500258],[75.8469050624707,11.982087092709849],[75.84292081320004,11.980807579695075],[75.83970277206957,11.982750536926332],[75.83704061742002,11.981010133543277],[75.82946603821567,11.984588345684912],[75.82562718486703,11.991954449016367],[75.82490901234009,12.002750632643291],[75.82035940654879,12.002683159106907],[75.82284254403018,12.012895006179894],[75.81459876485494,12.021272692651777],[75.8100313840991,12.022872547501825],[75.81083400365263,12.028751064532118],[75.80107932644147,12.03703515399641],[75.79990416565813,12.0473047570906],[75.79403682297318,12.055842069417027],[75.79840677109758,12.056412117657292],[75.79845769928598,12.062956299079232],[75.803927954276,12.075499291579412],[75.80272633810753,12.07950439282958],[75.78597340484573,12.084933488726438],[75.77543067785663,12.083444768117687],[75.76760548845094,12.085503626160879],[75.76255674814507,12.084274527981393],[75.75356265651864,12.08541465423606],[75.75037349622451,12.084256668163418],[75.74711554833583,12.078263005112412],[75.74357532463206,12.080244485013175],[75.73610191728825,12.079027601800442],[75.72773530876927,12.07262648941447],[75.72483746134202,12.073260506382729],[75.72000938679577,12.070934682052664],[75.71472284446786,12.07052089872849],[75.71628787947436,12.079447252160254],[75.71544364726194,12.08173468159527],[75.71768070923757,12.082366615356918],[75.71792543906705,12.08565705979546],[75.71305858424998,12.090558569547477],[75.70212738530785,12.092370426206369],[75.70325813338353,12.108253216288364],[75.69553718268679,12.1105609063826],[75.68717228186517,12.110323824089532],[75.68511098605465,12.105569463984846],[75.67915118067582,12.101383992397595],[75.67676169166447,12.097433880299446],[75.66731913409876,12.09655237614203],[75.66164594968605,12.098500870704854],[75.65302524280749,12.10693021716706],[75.65264945057469,12.109218773793506],[75.64893148351383,12.108630636391029],[75.648980165914,12.11167324029589],[75.6466437403865,12.11441831899887],[75.64752476130477,12.121270408558894],[75.6441505166211,12.12460553315507],[75.64320387377128,12.137952460201927],[75.63836623126896,12.13813672565433],[75.63915894150661,12.142535813609252],[75.63593251370459,12.14845474818857],[75.63056983735973,12.148204733864107],[75.61949540204552,12.155675700546002],[75.61462306121705,12.15491792643428],[75.6106139223248,12.15183435430357],[75.60623222333818,12.154674086501485],[75.60172975933635,12.152848285025875],[75.59520629884595,12.153404869283996],[75.59246747029198,12.14701333584719],[75.59058812015742,12.151181272241088],[75.58350910196947,12.156133208729583],[75.58307263033585,12.158286154606062],[75.57702727659587,12.156910788264081],[75.56990925715154,12.171817811017872],[75.55977100739888,12.175622580667058],[75.55844515063339,12.181077680402426],[75.5549775772799,12.1820068853292],[75.55238814394757,12.19207148106728],[75.54834331139585,12.191704208428606],[75.54550987946266,12.197230066899653],[75.54143187841572,12.196410688703349],[75.53985712453611,12.20173954658505],[75.5363479618799,12.20041267660874],[75.53389243591539,12.202031354359738],[75.53261177698509,12.200496696685178],[75.53192831086916,12.205776267049083],[75.53709257991049,12.208290752908688],[75.53978247273939,12.215668638212136],[75.52675916397584,12.22498503068797],[75.52810649676485,12.230914446911854],[75.5238642612261,12.234719954339157],[75.52106164869365,12.235285825364471],[75.5185986514409,12.242714069812827],[75.51960590452124,12.245764491384154],[75.51157926970974,12.253114290321093],[75.51176943407224,12.259640956571797],[75.50581574891542,12.264637256971124],[75.50538099665725,12.270802037768199],[75.49810139005622,12.269958183878742],[75.49712781481594,12.27232507687956],[75.49387983553196,12.272870969605426],[75.48494460781114,12.289988164913174],[75.48093882232992,12.291090980059257],[75.47487032080168,12.296138023419106],[75.46938191355471,12.294004497392446],[75.4652728820029,12.289400109927087],[75.45065095202101,12.293168031040338],[75.44555085233537,12.292217888410637],[75.4413612598689,12.29405119533678],[75.43831579768087,12.292844419804602],[75.4358177625388,12.29459352512041],[75.43266201597997,12.293409501624838],[75.4317709042861,12.29107357916615],[75.42803244934859,12.290568565687508],[75.42569092947508,12.286797069166395],[75.42023336857835,12.286425732622932],[75.41542060222285,12.28818390198311],[75.41373501689844,12.29244284644024],[75.41928242908656,12.295217034160828],[75.4245223901737,12.300015833694392],[75.42529931252024,12.301326326366105],[75.42412306477542,12.303007715391711],[75.42776779578442,12.304136967843036],[75.42829687204572,12.307078984231268],[75.43219408714172,12.30947844240781],[75.42698976761177,12.3109450128131],[75.42029262504775,12.319065581279041],[75.41863166434192,12.328881101037316],[75.41619900319631,12.330007497038892],[75.41540386930404,12.340004880121283],[75.41041427856804,12.347276621105015],[75.4116923853846,12.34922432426893],[75.41545252924635,12.349698416571467],[75.4196458344499,12.35702825015659],[75.42193761460612,12.372746205162798],[75.41349328744202,12.380107015742775],[75.40564576232514,12.37894321123454],[75.40178787996385,12.382357774499987],[75.40056202096082,12.380668702381064],[75.39921503042994,12.380987096786114],[75.39232526840772,12.389908126791907],[75.38679150162879,12.392321282309759],[75.38394719738572,12.390919209525133],[75.37968087801418,12.392114139412202],[75.37788046823353,12.398283316954165],[75.37248555404808,12.400253002762692],[75.37084623016419,12.408650906206079],[75.3659340239,12.411971500260323],[75.36986302678066,12.425760146808786],[75.3687694087706,12.429817088749719],[75.37149658617537,12.43779576088043],[75.36886163341096,12.442251700794536],[75.37030068149551,12.44894939802379],[75.36564208311076,12.456821813409992],[75.36618924156043,12.458272545938394],[75.3712799206137,12.456632277532508],[75.37423213767522,12.459800415516467],[75.38187499243439,12.456709305199313],[75.38629885115392,12.458363335800932],[75.39221706812836,12.455195127631827],[75.39341247693821,12.45144856404121],[75.39962988320791,12.455004924790627],[75.40399047987023,12.455013392151542],[75.4133247742745,12.458641716387293],[75.41566136419372,12.462234287242081],[75.41572628364266,12.466039541245689],[75.42326832137584,12.466842920920048],[75.4249611408332,12.469585877201919],[75.42456658099749,12.474923245371487],[75.42030880101106,12.47983637737715],[75.42059534202714,12.488599271131047],[75.41733987977683,12.49344441642583],[75.41869694491362,12.495396571005122],[75.41737282548988,12.498515068605155],[75.41580101089791,12.50047910447263],[75.41143215332826,12.50186462221526],[75.40764510222881,12.498664909444239],[75.40267511273227,12.498093624499637],[75.39787118310424,12.503779092157519],[75.39377407309459,12.50236547376484],[75.39157538984283,12.49972832076458],[75.38693169361035,12.501999994753007],[75.38193968011801,12.502070385708311],[75.37830056986775,12.495976527895797],[75.3677722527541,12.491786299166384],[75.36780969723011,12.488561818899598],[75.37135871633883,12.48701168450866],[75.3722002356391,12.47696466706387],[75.37067461960555,12.475031705724305],[75.36703163042992,12.475506808319262],[75.3601070811483,12.465040665678943],[75.3520014116598,12.465209506320795],[75.34539701116567,12.463124588162446],[75.33633549289236,12.464166704620604],[75.33708985135556,12.465087245322328],[75.33578111108949,12.465368038715535],[75.34072112021173,12.470405693672499],[75.3383007408327,12.471940592867808],[75.33527870491065,12.478291599768504],[75.33662702045658,12.489094251914146],[75.3327056640356,12.493329382449838],[75.33365346032221,12.496770866295604],[75.33217424496804,12.499614234138427],[75.33061146742783,12.500168884772352],[75.32410245364385,12.497194631428076],[75.31454051985835,12.497534151886683],[75.31384214889522,12.502011342447751],[75.30421340111384,12.50334649054211],[75.30239371977542,12.515542786124689],[75.30304949352607,12.522664028339973],[75.2965230901548,12.522027147380934],[75.2955772737551,12.52388634246286],[75.29117105435448,12.525681447433021],[75.2801073045006,12.524187522237156],[75.27859269821919,12.530219464035278],[75.27386008673986,12.534465789835686],[75.27314218011426,12.536877091447144],[75.27366561854885,12.54118619662225],[75.26974062754424,12.5496147528115],[75.27135270462723,12.555430984101635],[75.26924328966022,12.559726314278565],[75.2720706669484,12.570245133326317],[75.27398868057276,12.570114957381945],[75.27772981159156,12.572874332216019],[75.2838569245988,12.570844796682078],[75.28584744304636,12.573032900183255],[75.28537344159682,12.574717242379393],[75.28971861508398,12.583884593009861],[75.30721812829697,12.579601806126716],[75.31046996494679,12.57822750982824],[75.3122971319465,12.574571739292827],[75.31457185938365,12.573813935468262],[75.31787211882055,12.578766628754593],[75.32560530996133,12.582668212702236],[75.32718074027233,12.585571059353983],[75.32619029556932,12.593669274980297],[75.32271415588124,12.592201584728077],[75.31335847618331,12.592303692212615],[75.31133572438671,12.59099417052599],[75.30106520309835,12.606683012493402],[75.29824961260502,12.607169787826582],[75.29074625542968,12.603222410280432],[75.28876526181904,12.61167229680155],[75.28515818369517,12.612483720565592],[75.28087988708597,12.617709737246688],[75.27553271925619,12.619779893208296],[75.27179626576508,12.616833916648238],[75.26634618424137,12.615928608601438],[75.26431324195617,12.612443212863248],[75.26534042865266,12.604804532478802],[75.26323092295578,12.603450233021464],[75.26106134062766,12.597335323557752],[75.25679289224891,12.595675667638238],[75.25521360816538,12.59045067442857],[75.25175491106518,12.588261248234048],[75.24960573486707,12.583746597352464],[75.24091130145649,12.578650084514996],[75.23878157917419,12.579954068515944],[75.23907361698146,12.577281839771144],[75.23730975066657,12.575985787426902],[75.23752371858745,12.568403723711379],[75.2289305235128,12.567619860986973],[75.22393867531048,12.569572606880577],[75.22033850702778,12.5682010521295],[75.2169567111058,12.577636868005545],[75.21181214032202,12.57943823508903],[75.20868042729033,12.592344172413657],[75.20033539271122,12.58900660472276],[75.20092053911762,12.594630024371362],[75.207055542028,12.596998391183957],[75.20917664228024,12.60150564724788],[75.2069466284863,12.60396187678494],[75.20593153221526,12.609286714962618],[75.20014273642211,12.61087804216421],[75.19845091678965,12.613340211336096],[75.19796029201578,12.61570218553709],[75.20174170528851,12.628988241894003],[75.1940311588794,12.629210926855475],[75.18881755166771,12.632026688259947],[75.18565870053129,12.630875975501949],[75.18220671654122,12.631673996936648],[75.17028631346946,12.621491142602048],[75.16448718166062,12.623081592723423],[75.16110704133374,12.620990286350057],[75.1540565832836,12.623883330714968],[75.14364028069599,12.641759303419025],[75.14250178465099,12.640933128310486],[75.13770764126966,12.644704309987917],[75.1500049918077,12.651323899593129],[75.15131482981506,12.657378964844431],[75.160465422337,12.671618003330332],[75.1609971315604,12.67300409427749],[75.15013192555398,12.67388168896392],[75.14923908639983,12.675217610793549],[75.15247030940881,12.6822604542289],[75.14703216469862,12.681544578341743],[75.14320815601003,12.677215381861446],[75.13982981500867,12.679455051496038],[75.13792169183557,12.675920518542737],[75.13505395593661,12.677219520298056],[75.13305894860754,12.674571149026107],[75.1291045719134,12.675852507425462],[75.12491688746856,12.680470519287676],[75.1233008101876,12.680615860474683],[75.12219942803856,12.678166259957827],[75.11661995048641,12.680691147103296],[75.11172880791898,12.680842061214745],[75.11542379248161,12.68279760631002],[75.1106613416635,12.683083659450638],[75.11179541530235,12.686485644195557],[75.10938150559002,12.689713013526273],[75.10982042423447,12.691847443525742],[75.10647258732519,12.692310527000275],[75.10545347917807,12.698077648049482],[75.09943653016737,12.700926517594585],[75.09152820168218,12.70107096024693],[75.08521607255729,12.705296719354994],[75.08015689382782,12.700330965298594],[75.08036085361815,12.69864611700953],[75.08361882216808,12.697645322542263],[75.08504799237775,12.69460079608095],[75.08380347716295,12.69333592174549],[75.08548808781522,12.688610177174807],[75.08504435509917,12.683301548896436],[75.0875382912286,12.678432604293286],[75.0852622980652,12.673885064962747],[75.07321219263945,12.670859246734048],[75.06925072194949,12.663929404162424],[75.06521301213967,12.664075039634248],[75.0598508433429,12.67086244836175],[75.05757054724931,12.665089382871148],[75.05624914792425,12.665089712419258],[75.05382822236953,12.669272202026287],[75.04662690304718,12.666750663703596],[75.04236900358484,12.672090758234486],[75.0406712128507,12.679990698570375],[75.04221370283851,12.683502876054556],[75.03971183189019,12.686616261331958],[75.04313648014613,12.693899384151347],[75.04775701152239,12.695303539010409],[75.05191939671387,12.693727976235934],[75.05266104132085,12.690987169091374],[75.05479703384387,12.694718917476317],[75.04943983901889,12.705648606891005],[75.05109683366273,12.7081580628748],[75.05350790200382,12.708392601736266],[75.05310178534197,12.712385837903952],[75.04963610294212,12.717149707233046],[75.05029927252255,12.719452718635994],[75.04693103936474,12.720018328700027],[75.04443087072386,12.722184272141497],[75.04252397554777,12.719874281503206],[75.03925479602309,12.72283152943364],[75.03388985592368,12.722615156502481],[75.03212584048849,12.72052658935437],[75.0265396201818,12.718361539587455],[75.01882630426665,12.72023833071747],[75.01529849887336,12.713380017033655],[75.0010462211393,12.715473472179102],[75.00017790239913,12.7208202919032],[75.00415705193389,12.721535793440024],[75.01124135491067,12.727968955745501],[74.99921798514441,12.731784339207278],[74.99235573223115,12.738734248822709],[74.98976762301552,12.736252058852893],[74.99118606913734,12.73558307589091],[74.98902618412271,12.734918279481144],[74.98870840598929,12.736220392532658],[74.98645660535477,12.732996713270287],[74.98248703365756,12.738453936151398],[74.98369746319729,12.739922792063563],[74.98372340025448,12.745216320457166],[74.98660392726474,12.743698784512373],[74.99406392006638,12.752881017131779],[74.99581821842517,12.75334122147846],[74.99756876901259,12.757631443480099],[74.99972252033048,12.75701545866396],[75.00313878640651,12.759233888712743],[75.00550718926318,12.765435938573223],[75.00947547816618,12.76758454726832],[75.00624141827753,12.770905032439277],[75.00341517017165,12.778049193495967],[75.00299303385334,12.784448773341362],[75.00511788636854,12.790384350225555],[75.00318767631755,12.791739318042643],[74.99925535865349,12.790810829475394],[75.00245680700239,12.788407753357967],[74.99832946419181,12.786015616253358],[74.99877302712629,12.789156576360746],[74.9960423741397,12.78937924799746],[74.99124203238293,12.79560931457889],[74.98905451968172,12.795537987465645],[74.98743289889714,12.793667741364628],[74.99211822844981,12.78828276899154],[74.98733138208352,12.783037450371534],[74.98516180065373,12.781628189633086],[74.98430583015545,12.782839786154797],[74.98245916612085,12.78238408058712],[74.98195602512011,12.77970444187354],[74.97591415864005,12.779204718962339],[74.9683841241957,12.776436834712428],[74.96656067172971,12.776554936380112],[74.96635493417344,12.780866768490949],[74.96443035206772,12.781707998261933],[74.96295124001982,12.77875715424361],[74.96001335557865,12.778961437695271],[74.95821464900379,12.784742624254887],[74.95071323039284,12.78436089632038],[74.94175073161662,12.780051414755798],[74.93295086563612,12.780618371764968],[74.91700730725876,12.772309512605522],[74.91174391990563,12.771230061678942],[74.89886826183543,12.762684655864634],[74.89305726867161,12.762508828832132],[74.88233751697767,12.754125232948109],[74.87961632325103,12.755386258524563],[74.87416926365997,12.755015592306636],[74.87226750415233,12.761135103215365],[74.86956716930655,12.760680213615847],[74.86777025666733,12.759126596572646],[74.8688784516395,12.752117657224636],[74.8680635619975,12.753131401063172],[74.86765619847402,12.751435167220304],[74.87606683073012,12.735157551468253],[74.88472577709373,12.71036788402184],[74.88701567258444,12.708899772749978],[74.88505082169948,12.710573102437918],[74.88674104322907,12.712577286355296],[74.8983267124664,12.714293012936603],[74.89146155889307,12.712375522160466],[74.89368990900708,12.71129600339922],[74.89890150399253,12.698326460454062],[74.90641800711374,12.695315619546923],[74.90119985532506,12.694733493901758],[74.89691283787106,12.69719310234158],[74.89316415741064,12.70086472461971],[74.8917470866095,12.705770581580405],[74.88959228426276,12.708134257927156],[74.88803749364375,12.707711796631349],[74.91635568552135,12.643307576681801],[74.92811325816808,12.611812738158404],[74.93566669821715,12.622499066410096],[74.94239370617112,12.637407545884177],[74.94236525652607,12.635278068526649],[74.9447426488238,12.636982126398681],[74.94997810845308,12.636347789578906],[74.94977986643956,12.635240045975475],[74.94667733607818,12.63527755135618],[74.94173290005824,12.6323570668814],[74.93402050940786,12.615515614654067],[74.93205051387123,12.614621619250466],[74.93701214634068,12.605300902072386],[74.93952841997798,12.595653869474662],[74.94184793651688,12.597597145155891],[74.94182623321964,12.607525625048039],[74.94345662515464,12.606153763820457],[74.946454523345,12.608809535965461],[74.95409022841284,12.60521920585212],[74.9518614830401,12.604496147142646],[74.95013925543529,12.606970514102844],[74.94783281207869,12.606076052292604],[74.94356939606214,12.597735124595715],[74.9402657706379,12.595363107885804],[74.94199478770966,12.586549037826767],[74.93921365299735,12.592769245261795],[74.9385192894187,12.591406302737223],[74.95374808078239,12.551021703335598],[74.95481794733631,12.549241077279664],[74.9564626090096,12.55010616352282],[74.95359739378337,12.557799646657383],[74.95988482732274,12.566311112118992],[74.96702520583449,12.567423419272519],[74.97573458002486,12.57110316185945],[74.96545436860956,12.565600109357113],[74.96217125980804,12.566228792358487],[74.95926503379413,12.561378219187047],[74.95531263249526,12.559022448165747],[74.95822891694543,12.551139036988612],[74.95745505246416,12.548103316100866],[74.96067102657118,12.54217783560127],[74.96385472870166,12.529501056826991],[74.95613701283824,12.547452338470338],[74.95810513179421,12.540811503073458],[74.97405111741949,12.501097499304361],[74.9820372211437,12.48475097119062],[74.98450069091028,12.482785407286064],[74.998416536994,12.451090708720708],[75.00550152628367,12.440867919516801],[75.01470919865707,12.418626346263569],[75.02196174979835,12.413718069581693],[75.0275847597092,12.400375081944649],[75.02984655769448,12.399149449774717],[75.03165759544326,12.391839597236569],[75.03341293225449,12.39079740580261],[75.03918453608976,12.391889045014091],[75.04181337671697,12.388598953989524],[75.09289555073234,12.272557946726307],[75.1166001974316,12.20961867213827],[75.11946089323366,12.204516342057968],[75.12691596955577,12.20244800480465],[75.1282955303039,12.19370299150763],[75.13635637475802,12.174529993012632],[75.13583045427833,12.172625348215806],[75.14110200372413,12.166152864454286],[75.14267231902791,12.155108146472255],[75.14897905736274,12.1453111687182],[75.14789558851878,12.136381972629943],[75.15277260418002,12.123471827495274],[75.15635881533814,12.118194971736838],[75.15673437580563,12.1096630225977],[75.18463777419403,12.044531357465916],[75.2020890559611,12.009836801968229],[75.20124565648693,12.006354083315292],[75.20460832188658,12.005771892074279],[75.20757686942169,12.007822871118908],[75.20967291476231,12.011689219885666],[75.21529656247701,12.010461897733334],[75.22124136868553,12.012612025032428],[75.22308348185496,12.01539203529057],[75.22169119826745,12.01727892752056],[75.22761068096811,12.023476912104492],[75.2328746998369,12.022570652436546],[75.25033141730977,12.009835225664986],[75.29165591823248,11.954421175005308],[75.29826815832405,11.950257384013206],[75.30369071277251,11.951436325369215],[75.30516554075486,11.947494493663749],[75.30276954344926,11.945626369517239],[75.30328651401378,11.942735051720827],[75.32034558054802,11.916201860436844],[75.32084369367813,11.911955057806459],[75.3186008717049,11.909296339746964],[75.31935488790998,11.905235475042568],[75.32335505173417,11.904087902890367],[75.32531312033875,11.904969671931058],[75.3248377965691,11.904055550548444],[75.3461302125073,11.88045854282265],[75.35372579072973,11.870592148817046],[75.3535781409347,11.867120800479112],[75.35640261037628,11.860293955895877],[75.36041562999051,11.859322295096383],[75.36792514421883,11.852216375983327],[75.37112488217544,11.853963218663424],[75.37428503047911,11.852654765362788],[75.37224376440452,11.856256919398469],[75.37461387316193,11.85906017208821],[75.38066092292117,11.85955262638944],[75.38625347275735,11.85638338080758],[75.39711627038052,11.84312712211882],[75.40103313791998,11.83958323123707],[75.40539008742222,11.838539392044037],[75.4249170596039,11.813202236845187],[75.4304601931163,11.808571487170498],[75.43187813348663,11.808239412521008],[75.4322289848939,11.809781405106438],[75.43793515634215,11.805594692678143],[75.44757936412958,11.789816707963167],[75.44775359417557,11.78280654888923],[75.45795897143613,11.779138379431274],[75.45974053186715,11.780584273624035],[75.46158207191142,11.779859454365207],[75.45937690911153,11.776709399180739],[75.45473071107097,11.776167091744806],[75.45394146383872,11.771655497978541],[75.4607925731509,11.765751636969366],[75.46570708718706,11.767446846094664],[75.46839153802195,11.764844491889702],[75.47067746745071,11.770633968802594],[75.47621825636023,11.766933117935238],[75.47339409054919,11.766105629408017],[75.47291937583732,11.764609109458636],[75.48371494534125,11.753866669283067],[75.48545001346473,11.74835146090652],[75.49043302763455,11.745138355495806],[75.498180768788,11.734503853198705],[75.50284341138816,11.735840908769186],[75.50857030427508,11.73200453565769],[75.51718776823549,11.716529620655983],[75.51983532795657,11.715973975258878],[75.52456879283542,11.708302692508239],[75.52837708280315,11.707179048327205],[75.53055591598205,11.704027560796984],[75.53585313838039,11.709934125329239],[75.53947715423892,11.709275667985965],[75.54441045743756,11.704809014267502],[75.54242867510611,11.702355977876355],[75.54180505565272,11.696276544757179],[75.53658682930386,11.693938824344887]],[[75.53848825643483,11.761364662655966],[75.53868979975701,11.76008631349612],[75.5442108257303,11.75887583009692],[75.54623518281629,11.756346142065834],[75.54427916776048,11.752239746753062],[75.54487802515304,11.748155204649294],[75.54237733818425,11.736960093191662],[75.543286339827,11.734379099081309],[75.55577670328528,11.727695321806593],[75.5555057246832,11.721747549478474],[75.55471360913029,11.719625765312372],[75.5515101934709,11.719211535174386],[75.5478813258115,11.715416011873264],[75.5453805148752,11.717717339587685],[75.54165536937694,11.715650205745716],[75.53776871667203,11.716045271227316],[75.53658716976535,11.719389931737817],[75.5325021025704,11.715811400503114],[75.53328521430922,11.714115093623363],[75.53702055927924,11.713502339234084],[75.53754375247374,11.712174458902648],[75.53093059430392,11.710354305916725],[75.53116885177178,11.708435936222598],[75.52871623185719,11.709332280407981],[75.53046464804751,11.71018315421429],[75.5319262079131,11.715739065665877],[75.52791331136804,11.716189070798794],[75.52663646668445,11.726135068231097],[75.53091949112701,11.730971826307602],[75.53192076951237,11.734544102748988],[75.53613123882606,11.733501512431616],[75.54025252160167,11.73474174869522],[75.54190918476719,11.742147070766997],[75.54055743496193,11.748579339306165],[75.53753401024449,11.748687433746662],[75.53755222538351,11.750557887845511],[75.5346074328978,11.752884395721686],[75.53391202637512,11.756920601529634],[75.53126155611245,11.758628541654392],[75.53586179454645,11.760984056164528],[75.53633385922826,11.762576109540085],[75.53821831987845,11.762709883729935],[75.53848825643483,11.761364662655966]]]}}]}