{"type":"FeatureCollection","features":[{"type":"Feature","properties":{"shapeName":"Lakshadweep","shapeISO":"IN-LD","shapeID":"1811400B55669546485086","shapeGroup":"IND","shapeType":"ADM1","displayName":"Lakshadweep","coverage":"context"},"geometry":{"type":"MultiPolygon","coordinates":[[[[73.01113337459773,8.277594035553292],[73.01025765643456,8.277851242669295],[73.01158327694314,8.276183776874452],[73.01113337459773,8.277594035553292]]],[[[73.0486243303168,8.266237866797967],[73.05501268239183,8.274472126965687],[73.0659898921445,8.284957964672605],[73.06691737752253,8.302788265125464],[73.07842503706058,8.32429621929929],[73.07493938780694,8.3206468766763],[73.06865477587588,8.309136068808474],[73.06364173102611,8.293877415265628],[73.05580089117156,8.282031044547546],[73.04776019323428,8.275469794695674],[73.04029944494948,8.272185754256146],[73.02822740985101,8.270831307222752],[73.02170109092141,8.27140824521129],[73.01881348698332,8.27458067921291],[73.02218170307313,8.272090851471498],[73.02141880522483,8.274156655800494],[73.01777379843304,8.275661092958083],[73.01898739902569,8.270209448564117],[73.02461552214713,8.267195138774875],[73.04276099411801,8.26400355433456],[73.0486243303168,8.266237866797967]]],[[[72.28341278206968,10.041699896482681],[72.28489996907369,10.041325199152373],[72.28870268858832,10.045593591708945],[72.29054787848757,10.053170441056832],[72.28341278206968,10.041699896482681]]],[[[72.3349926452103,10.10127683955685],[72.33770121760722,10.10603253247754],[72.33652875356636,10.107600769914004],[72.3349926452103,10.10127683955685]]],[[[72.33320218876302,10.128616839957168],[72.32810509843357,10.138719144849473],[72.32736741090541,10.129849828023387],[72.33320218876302,10.128616839957168]]],[[[72.64562109000093,10.578355563172853],[72.64064137085157,10.579268958622968],[72.6393616003551,10.57363638479725],[72.63192840878996,10.560758203030504],[72.62372822216052,10.548471752509126],[72.6184563502195,10.54652357900569],[72.61658835209522,10.544299506407338],[72.61722303160637,10.542192849615512],[72.62011487289764,10.543314314758815],[72.62432668159944,10.548327351218125],[72.6362775654071,10.55745820840795],[72.64971359165321,10.563564987337987],[72.65141786373214,10.56928756697617],[72.65087449707127,10.572139506641026],[72.64710150280939,10.57808855312057],[72.64562109000093,10.578355563172853]]],[[[72.16855605923628,10.813643770681443],[72.16872532070042,10.815293265375205],[72.16476551548698,10.813169491079005],[72.16855605923628,10.813643770681443]]],[[[72.2061478795921,10.878547262028562],[72.20107129690227,10.878873500546097],[72.19466247671348,10.871357932687896],[72.18815533951013,10.849318893358868],[72.17908418770371,10.830882256008687],[72.17011145801473,10.818217640168967],[72.17972385466132,10.828857244244919],[72.18920656153033,10.848079982918618],[72.20282953706852,10.869389870217889],[72.2061478795921,10.878547262028562]]],[[[72.2908774335344,10.946426158143396],[72.28742717880125,10.946933115286013],[72.28529377701953,10.936460349995773],[72.28955857913651,10.93572012419158],[72.29276202623693,10.936988533608547],[72.28957922691333,10.94428508918908],[72.29087839113848,10.946118685397192],[72.29350371396305,10.946111321817018],[72.2908774335344,10.946426158143396]]],[[[72.32138718143027,10.94671309743381],[72.32703464887304,10.951552932074588],[72.31706680144495,10.949681587186236],[72.31543918260921,10.947476663511262],[72.31541565213864,10.943625823905835],[72.32138718143027,10.94671309743381]]],[[[72.33170692859956,10.950668411587682],[72.33348616958052,10.952828254362258],[72.33036472519082,10.951682336058912],[72.33170692859956,10.950668411587682]]],[[[72.33444073377446,10.953454089147233],[72.3347891911715,10.955312297446445],[72.33301012087045,10.954960534706252],[72.33444073377446,10.953454089147233]]],[[[72.33433213374482,10.95715524271584],[72.33548590204798,10.956638218971221],[72.33430898685491,10.959316064727707],[72.33433213374482,10.95715524271584]]],[[[72.18886976067243,11.598826033981204],[72.19044183577583,11.59886639737355],[72.18923527528008,11.600694148338691],[72.18533556556251,11.601812639982809],[72.18649456565389,11.598869303917722],[72.18886976067243,11.598826033981204]]],[[[73.6279704164372,10.07251289561642],[73.62812995453672,10.074343882501974],[73.62621946789612,10.07282477187423],[73.6279704164372,10.07251289561642]]],[[[73.64790378375848,10.06320492565966],[73.64740192555196,10.076518000864265],[73.65126279391328,10.101954018604577],[73.64417793757427,10.076282845310168],[73.64053294515553,10.071134270590107],[73.63506834416191,10.071261195166947],[73.64124807149531,10.057220333843803],[73.646215665185,10.057500396639771],[73.64790378375848,10.06320492565966]]],[[[73.66200661596524,10.146922650970625],[73.66035163983584,10.154914729629315],[73.6591335431752,10.155412226381392],[73.65781837905652,10.153120564887109],[73.65857185717076,10.153875275700107],[73.66244359784194,10.140657214420905],[73.66007082468141,10.129234594729915],[73.66144314860159,10.129885288935082],[73.66422777776035,10.139726086855825],[73.66200661596524,10.146922650970625]]],[[[73.67202712892349,10.816990326629908],[73.66075607215654,10.816390527575374],[73.65963953992024,10.812136922028618],[73.66132137837157,10.80766198065488],[73.66591644789942,10.804976344600323],[73.67740166842,10.804206543896191],[73.69991178126857,10.811728390672572],[73.70181398634055,10.814317624785094],[73.69950170213801,10.816388802570449],[73.67202712892349,10.816990326629908]]],[[[72.71914919044113,11.114759698762567],[72.72014681627657,11.113832954309919],[72.73042567842229,11.124425606754517],[72.73427815023064,11.133301545674529],[72.73372523627496,11.136406714614768],[72.72929458988516,11.13633142099911],[72.71945087435796,11.128659745196147],[72.71663863637724,11.121686081643448],[72.71914919044113,11.114759698762567]]],[[[72.76186347314325,11.183125945889374],[72.76967894726913,11.205725348888471],[72.77714238870317,11.21744853213181],[72.78268002272938,11.237713910536462],[72.79006516071502,11.255543753714791],[72.79026931004985,11.260457284932254],[72.78594311616803,11.256993399388554],[72.7795187712945,11.242649569274318],[72.7721792803017,11.21692762347598],[72.76471019565108,11.197112972594953],[72.76186347314325,11.183125945889374]]],[[[73.00714151749496,11.469856846655528],[73.01176358049877,11.473095381574934],[73.0098646399045,11.487487391766182],[73.00471881956416,11.496398881618006],[72.99976835495035,11.498407744408743],[72.99809604852251,11.49710494669734],[73.00252059445322,11.492858065509186],[73.00809780645424,11.47263750935239],[73.00714151749496,11.469856846655528]]],[[[72.70740422924268,11.68251354620075],[72.7099572269071,11.683469159029451],[72.7169133968867,11.693447824616676],[72.71656333240362,11.703947521643276],[72.7104887726371,11.692578041754945],[72.70881750017016,11.686071479067547],[72.7055549879415,11.683469369278543],[72.70740422924268,11.68251354620075]]]]}}]}