{"type":"FeatureCollection","features":[{"type":"Feature","properties":{"shapeName":"Ladākh","shapeISO":"IN-LA","shapeID":"1811400B23769854471902","shapeGroup":"IND","shapeType":"ADM1","displayName":"Ladakh","coverage":"context"},"geometry":{"type":"Polygon","coordinates":[[[74.133484414022,35.10748800859642],[74.16278441509769,35.08618856542637],[74.209183905099,35.084998834948124],[74.22227094034878,35.08618856542637],[74.22821959314331,35.08261937412527],[74.22584013202555,35.07429126055263],[74.22702986258446,35.06715287777638],[74.24368608951102,35.07310153007302],[74.24963474230555,35.06715287777638],[74.24844501174653,35.054065841920476],[74.24963474230555,35.04454799812771],[74.25320393308402,35.03740961470896],[74.26867043034991,35.03503015374844],[74.2817574655997,35.03740961470896],[74.29722396196723,35.04454799812771],[74.29841369252631,35.05287611152505],[74.30079315364401,35.057159141159616],[74.30840742850245,35.060014494203756],[74.36313503151774,35.0566832489597],[74.38026715084766,35.05763503352745],[74.39168856403359,35.06572520070682],[74.40168230000972,35.08095375119842],[74.41929031174288,35.102844792525445],[74.42975994012221,35.112838528779605],[74.43975367609858,35.11807334325272],[74.47259023844674,35.11569388207192],[74.4982884174413,35.10665193004428],[74.51542053587292,35.094754625467544],[74.53302854760585,35.07429126055263],[74.54159460727067,35.066676985008314],[74.53921514615291,35.059062710165904],[74.53350444000904,35.0547796803682],[74.53160087129447,35.04097880678489],[74.53540800872378,35.03146096222798],[74.55063655933878,35.02432257944122],[74.5572990502892,35.019563657533126],[74.56634100145885,35.016232412187435],[74.58299722928376,35.01337705844088],[74.58728025821796,35.00956992126686],[74.58823204302428,35.00290743068024],[74.58680436671307,34.98958244901479],[74.57157581609789,34.965787838705126],[74.57157581609789,34.93771019871343],[74.5768106298384,34.9105843432684],[74.57616138718748,34.89933463448614],[74.59569596800014,34.90942526000009],[74.60210034199997,34.91487579200009],[74.60523439700006,34.91501205500009],[74.61804314600016,34.91065163000013],[74.61967830500004,34.9076538380001],[74.63412221200008,34.90342967599997],[74.64597711700014,34.89607145900004],[74.65510675700006,34.8956626690001],[74.6649177130002,34.90193078000016],[74.66764297800017,34.89866046200012],[74.66777924200005,34.894027510000114],[74.67241219300013,34.89157477100014],[74.67609130199997,34.88503413400008],[74.67704514500014,34.87808470700003],[74.68385830800014,34.87290670200014],[74.68631104700012,34.86868254100011],[74.68794620700004,34.86745617100007],[74.6999373750001,34.87127154300009],[74.70538790600017,34.86077927100007],[74.70497911600012,34.85451116000007],[74.71588017900012,34.85314852700003],[74.7248735550001,34.858599058000095],[74.72787134700019,34.85737268900016],[74.73223177200009,34.84797052200014],[74.72950650600018,34.836524407000184],[74.73631967000011,34.83475298500014],[74.74095262200012,34.83012003300013],[74.7436778870001,34.82889366400019],[74.75771300500014,34.82862113700014],[74.76616132800007,34.832163982000054],[74.77079427900014,34.837750777],[74.77910633900012,34.83543430100019],[74.79123377100007,34.83747825000012],[74.79382277300004,34.844427677],[74.79613924900002,34.844291414000054],[74.80486009900005,34.836115617000075],[74.82162048200013,34.83134640300017],[74.83388417700007,34.82153544700003],[74.83769954800016,34.823443133000126],[74.84696545100007,34.82385192200013],[74.86399836100003,34.82085413000004],[74.87231042100012,34.81772007500018],[74.88021369100016,34.81226954400012],[74.9010619720001,34.80695527600011],[74.90896524200014,34.779021304000025],[74.91005534900017,34.77670482800005],[74.9140069840002,34.77575098600016],[74.92804210100013,34.77534219600011],[74.9334926320002,34.77943009400013],[74.94234974500006,34.79005863000003],[74.94698269700001,34.79101247300002],[74.95802002200014,34.789922366000155],[74.96469692300002,34.79782563600003],[74.97014745400008,34.80095969200016],[74.97205514000018,34.807909119000044],[74.9817298320001,34.819627761000106],[74.98690783700016,34.82194423700014],[74.99453858100003,34.822216763000085],[74.99767263600006,34.82044534000016],[75.00339569400018,34.82194423700014],[75.00693853900015,34.83230024600016],[75.00898248800007,34.83516177400014],[75.01388796600003,34.83761451300012],[75.023562659,34.83802330300017],[75.03269229800003,34.835979354000074],[75.04073183200012,34.837069460000066],[75.04699994200007,34.83461672100003],[75.05217794700013,34.82589587200016],[75.05640210800016,34.82371565900013],[75.06089879700016,34.82412444900001],[75.07098227900008,34.82834861100014],[75.06771196000011,34.83965846300015],[75.06948338300009,34.84333757100006],[75.06921085600015,34.863232010000104],[75.07466138800015,34.87345175500019],[75.07970312900011,34.876313284000105],[75.07847675900007,34.880537446000176],[75.08038444500016,34.88639676700012],[75.07466138800015,34.88844071600005],[75.07220864900012,34.89102971800003],[75.06893832999998,34.898251672000185],[75.07002843600014,34.90233957000004],[75.07616028400014,34.904383519000135],[75.09223935000006,34.902203307000036],[75.10286788600018,34.89675277599997],[75.10586567800004,34.888304453000046],[75.11349642200008,34.88094623600011],[75.11812937299999,34.87876602300008],[75.12276232400006,34.87304296500014],[75.12862164500001,34.86950012000017],[75.13938644400014,34.86800122400018],[75.14524576500008,34.86473090600009],[75.142384236,34.855873793000114],[75.14551829200019,34.84551778300016],[75.1444281860002,34.83815956600017],[75.14592708200007,34.8336628780001],[75.15219519200019,34.83107387600012],[75.15928088300018,34.833117825000045],[75.17740389900007,34.83230024600016],[75.18012916400005,34.82943871700007],[75.19811591700011,34.81976402400011],[75.1992060230001,34.81758381200018],[75.22005430400014,34.81131570100018],[75.22468725600015,34.805320117000065],[75.23231799900009,34.8020497980001],[75.24049379600007,34.79251136900001],[75.24458169400009,34.789922366000155],[75.24539927400019,34.77793119800009],[75.24880585600016,34.77084550799998],[75.25130323700012,34.74864300900015],[75.2621890900001,34.72667484000016],[75.26163095600015,34.717521436000084],[75.25655193300008,34.711940092000134],[75.25822633600018,34.70619130799997],[75.25303568600003,34.70250762100011],[75.25197523100013,34.69994020300015],[75.25728991000011,34.68727675400015],[75.24969308100015,34.68479615600006],[75.23341416200014,34.67239317000002],[75.22690259400014,34.66231574400007],[75.22318169800008,34.6527034290001],[75.20783300200003,34.64340119000019],[75.20752292800017,34.638905107000085],[75.20883604644933,34.6362869602454],[75.21831331720364,34.63266329762473],[75.22794097288505,34.63112287285446],[75.23418934800014,34.635649323000166],[75.24070091600015,34.63657954700005],[75.24519699900009,34.63487413700017],[75.25217367800013,34.629602867000074],[75.25853020900018,34.61797506800019],[75.25822013400017,34.61254876099997],[75.25318452200008,34.60631626100019],[75.25397831300012,34.60294264800018],[75.26509138900019,34.60145429000016],[75.26915956800008,34.59708843900012],[75.27610524100004,34.59381405],[75.28582918200016,34.59321870700006],[75.29208028700003,34.586669930000085],[75.29892673500018,34.5859753630001],[75.30656697500012,34.576846765000084],[75.31155961649876,34.57434177205653],[75.31966452799998,34.56364998800018],[75.32174823000008,34.562856197000144],[75.32566137200001,34.567432898],[75.33403338800014,34.56758793600005],[75.3461263000001,34.561076368000045],[75.3534130540001,34.54851834400017],[75.36333544300015,34.53813084300003],[75.36442070500004,34.53239446200013],[75.3631804060002,34.527743342000065],[75.36659122700007,34.52293718499999],[75.36597107799997,34.520921700000144],[75.35814568783837,34.52068257720322],[75.35152993524673,34.51384629934864],[75.34643637400018,34.49317001800006],[75.34190609266432,34.48720328672903],[75.3504673450002,34.47859650900011],[75.35294794200018,34.46727878400009],[75.34922704600012,34.46247262700007],[75.34163021700016,34.46014706700004],[75.33899458300004,34.45472076000004],[75.3334132390001,34.45115490200004],[75.33155279100015,34.447589043000164],[75.33294812700012,34.442317774],[75.32845204400019,34.439217028000144],[75.32860708200008,34.43735658000003],[75.33620391100004,34.428054340000074],[75.35062238200015,34.42464351900003],[75.36038973400002,34.41704669],[75.36457574200017,34.41704669],[75.37186249600018,34.41301571900004],[75.37202649876821,34.40661450225258],[75.36589344071052,34.39249879383107],[75.36967336900017,34.38802370200011],[75.37788354080283,34.385341075021586],[75.37798116488534,34.37986018512572],[75.37370582800014,34.37071111700004],[75.38434661201029,34.365129120242784],[75.3811627227372,34.361671578048],[75.38075469300009,34.356613387000095],[75.38507291700017,34.35172363400011],[75.38532693000013,34.34899299200009],[75.37789704500005,34.341245591000074],[75.38291380500004,34.33514927500016],[75.38443788400008,34.32778289300012],[75.39446190689239,34.316067638141305],[75.38909172235549,34.30983507086444],[75.39336129183175,34.295097120641],[75.39530355637544,34.29298436387256],[75.40421898971903,34.28531990242658],[75.41343665854475,34.282962415799545],[75.42712514192851,34.28414537808874],[75.44456210993991,34.28150036978019],[75.45661150030662,34.28734296977598],[75.46067142635172,34.282760623031436],[75.47435319752356,34.28094312281712],[75.48307113894691,34.270399356223436],[75.48258287225048,34.26346186005213],[75.48407575906504,34.25937065103966],[75.48881131073034,34.24827213806685],[75.49584019843383,34.23968076752561],[75.49711334026188,34.23340097029404],[75.50183157330667,34.23461184577059],[75.50474814162436,34.233743570765796],[75.50822455260374,34.22983417849065],[75.51486657454188,34.22691957861184],[75.5229991782175,34.22909124075301],[75.53423473086968,34.22406524850339],[75.53932517007263,34.223569039334734],[75.55515421750579,34.211656568329886],[75.57222430906353,34.211408676803046],[75.57973483120156,34.21438713040163],[75.58377071653314,34.21159509305829],[75.58768073621519,34.20396305327853],[75.59530849600003,34.19711693600016],[75.5992774520002,34.195430130000034],[75.60711613900014,34.19453711500012],[75.61872533400009,34.199795982000126],[75.62497643900014,34.199895205000075],[75.63827244100014,34.20951992300007],[75.6404553660002,34.209023803000036],[75.64561500800005,34.211405177000074],[75.6516676660001,34.21051216200004],[75.65940712900004,34.19999442900013],[75.66357453300003,34.19791072800007],[75.67101632400016,34.19701771300004],[75.68024414600006,34.19959753400002],[75.68718981900014,34.19741460800009],[75.68986886400006,34.19374332400008],[75.68768593800007,34.18233257700018],[75.6845107740001,34.17816517300014],[75.68361775900019,34.165067620000116],[75.67964880300008,34.160007200999985],[75.6776643250002,34.152763857000025],[75.66952796600015,34.14879490200019],[75.66853572700018,34.14482594600008],[75.67964880300008,34.142940692000025],[75.68441155000005,34.14055931900009],[75.68183172800013,34.133415199000126],[75.68272474300005,34.13093460199997],[75.69056343100004,34.12498116800015],[75.68589990800012,34.12031764500006],[75.68589990800012,34.117638600000134],[75.69016653500006,34.11416576400006],[75.69532617800002,34.11317352500009],[75.71626241799999,34.103151912000044],[75.71884224000013,34.10106821099998],[75.72142206100017,34.092931852000106],[75.7256886880001,34.08777220900015],[75.73263436000013,34.08350558200004],[75.73511495800005,34.077849820000154],[75.74037382400013,34.07427776000014],[75.74196140600003,34.07050725200014],[75.73779400300015,34.06118020700012],[75.7376947790001,34.056615908000026],[75.75039543700007,34.05403608600011],[75.75396749700019,34.056318236000095],[75.76597358800018,34.05482987800008],[75.76835496100011,34.052547728000036],[75.768156513,34.04123620500019],[75.77976570800018,34.03677113000015],[75.78274242500004,34.03220683100005],[75.79683221700014,34.027940203000185],[75.79881669500003,34.02337590400009],[75.81499018900013,34.012461276000124],[75.81737156300017,34.00720241],[75.83850625100018,34.005714052000144],[75.84356667000014,34.00372957400009],[75.84168141600009,33.998867603000065],[75.83156057900015,33.99251727400019],[75.82739317600004,33.980808855000134],[75.8197529360001,33.97039034699998],[75.82640093700013,33.96086485300003],[75.83255281800012,33.95689589799997],[75.84068917700017,33.95352228600012],[75.84505502800016,33.954018405000056],[75.85249682000006,33.962154764000104],[75.87482219500009,33.962452436000035],[75.88950733100012,33.96870354100008],[75.90835987000008,33.96711595800008],[75.91887760300017,33.96324622700007],[75.94229444100006,33.95977339100011],[75.94894244100016,33.95550676300007],[75.95251450200004,33.95481219600009],[75.95896405400003,33.956102107000106],[75.96581050300011,33.95362150900007],[75.9681918760001,33.95907882300003],[75.97305384700013,33.9622539880001],[75.97950340000006,33.972474049000084],[75.98892966900007,33.9720771530001],[76.00530161100005,33.97614533300009],[76.01829994100012,33.97465697400014],[76.02455104600017,33.98061040800013],[76.0269324190001,33.970688019000136],[76.03377886800018,33.96165864500017],[76.03893851000004,33.957987361000164],[76.04350280900013,33.95094246400015],[76.04935701900013,33.93536431400014],[76.04786866000018,33.92911320800005],[76.033687783,33.92096599700017],[76.03342615800011,33.91957066100014],[76.04825160200005,33.91241956400006],[76.07248858800011,33.908003326000085],[76.08337220900006,33.902645236000126],[76.09079539600009,33.90124990000015],[76.09514884400005,33.89963131000013],[76.10363248700008,33.89231975000007],[76.12400439200019,33.8861244580001],[76.13739961700014,33.87613385200018],[76.13818100500015,33.86876647900016],[76.14538093900006,33.86022702300005],[76.14699952800015,33.85419917100012],[76.14895299900019,33.85336197000004],[76.14928787900004,33.85018060400006],[76.1525808720001,33.847055050999984],[76.15375295400008,33.84169696100008],[76.16022731300012,33.83499934800005],[76.15738082800004,33.83047846000005],[76.15765989500011,33.82662733300003],[76.16536214900003,33.81769718300012],[76.16273891800017,33.815018137000095],[76.15961436829127,33.80670363623278],[76.16190607700008,33.79996965700008],[76.16640276499999,33.79656307500011],[76.17445974000009,33.798888053999974],[76.18433871900004,33.79939037500009],[76.19650604800006,33.788785820999976],[76.20076666000011,33.775195290000056],[76.21077349500007,33.76838212600012],[76.21290260800009,33.76007858300011],[76.21567045600011,33.75773655800003],[76.24185855500008,33.75731073500003],[76.24590387100011,33.75624617799997],[76.25122665500015,33.7509233940001],[76.26273813450524,33.74900259361806],[76.26542427746165,33.74647749401953],[76.26721453538136,33.740475051217516],[76.2657384677239,33.73388079203028],[76.27111925590162,33.730854113855344],[76.26736722113196,33.724785223941524],[76.26707926796416,33.71719283601465],[76.26319207716841,33.71218441058096],[76.26613359619324,33.70703889987033],[76.26313807045358,33.703971711212944],[76.26565169675575,33.69752837215293],[76.264674872309,33.68952190317037],[76.26955806748111,33.68519931250631],[76.26616954317763,33.67963151761893],[76.27046020779164,33.67568988701322],[76.27346980025044,33.66945319762942],[76.28447828844293,33.66133193881592],[76.28000541674328,33.65478396362096],[76.27407285996196,33.65242375641475],[76.27043249656174,33.64340948493259],[76.26453131793346,33.64331505547972],[76.25215636283622,33.637888628820406],[76.24885767365447,33.638769081552994],[76.22932975824176,33.62992171105083],[76.22774356880865,33.62572675360792],[76.23277316691411,33.62325975637668],[76.23719166179308,33.61768318111433],[76.24092332726372,33.60968143157368],[76.2402987466129,33.60493870635918],[76.23860578881494,33.60253817558112],[76.23066738203909,33.60313465061222],[76.2241793555952,33.6004016155855],[76.2240836706444,33.596935445334054],[76.22787763877142,33.59419465475486],[76.23136577456194,33.587041405951766],[76.2251804192831,33.57737431154737],[76.21783261438242,33.57375167183238],[76.20643942446611,33.57337088178025],[76.20540009793677,33.56929806377565],[76.20545304463963,33.56780754255345],[76.2091015413863,33.56655654872225],[76.21973280004158,33.55541653904805],[76.22498891732909,33.54768598630204],[76.2318840467853,33.54527804835823],[76.24118753616187,33.548402691935905],[76.24570421690134,33.54563146039493],[76.25960217483271,33.56511294959688],[76.27783098171602,33.567616681032916],[76.30229685270223,33.567463164411265],[76.30974540456037,33.5715663214915],[76.31009310198272,33.57870378341437],[76.30178206684047,33.58985449844408],[76.29955637484125,33.59833531931491],[76.30646855611803,33.60965155003413],[76.31740041891521,33.60727957991281],[76.32213585829112,33.60236671028065],[76.32945934759357,33.604368905490446],[76.33620544923906,33.61060765541106],[76.3468833358474,33.605043757177725],[76.35860731868922,33.60378647435141],[76.36000023379228,33.594642282171776],[76.36642248918452,33.585852306914774],[76.37100526975922,33.5841869891882],[76.38068337816884,33.577058632502144],[76.37471374432243,33.5659800839976],[76.37923778495912,33.558311526954355],[76.37988398446544,33.55302378247478],[76.41019489386639,33.54322717584802],[76.41516021212357,33.539182676017504],[76.42636340925566,33.53738168658401],[76.43584109813543,33.54229529606579],[76.43992540894891,33.547524407645994],[76.44334615402488,33.55988673209316],[76.44680722896567,33.564103693826894],[76.448756452758,33.56378478346193],[76.45779032717508,33.55437387053706],[76.46236162458553,33.55171450664318],[76.46463044380317,33.54533228044943],[76.45845094464175,33.53861717986098],[76.45912596300082,33.53399215073222],[76.46991434238907,33.52778353125359],[76.47904403470767,33.526931454948055],[76.49184549552865,33.51700867675447],[76.49924577012689,33.5177409839942],[76.50239206191719,33.5162357918544],[76.50702311166714,33.51029027520934],[76.50859061075249,33.499127179035156],[76.51450952302304,33.49509917199788],[76.52263107113242,33.493622047639235],[76.52760323904363,33.48363536470936],[76.53441962667341,33.482437242909555],[76.53910244543476,33.472821602930196],[76.54595457253822,33.4683734006382],[76.54916432671018,33.46439652547957],[76.55342963008712,33.46440331954267],[76.55737108900763,33.46230565160431],[76.56329663803137,33.46275617979683],[76.5693064669951,33.4663465855935],[76.56910712634192,33.46438467895831],[76.57630885439778,33.453086305553256],[76.57691668685823,33.44344835774007],[76.57982431154915,33.43835148559316],[76.57759300418127,33.42969454279768],[76.581567504036,33.42604534680498],[76.59291807607883,33.42562856768819],[76.60032824831467,33.43170912206483],[76.605828734309,33.432044743163374],[76.61092069974973,33.43528464106623],[76.61295766558914,33.43915233447569],[76.61579459556202,33.440019212224286],[76.620235716308,33.439769081659506],[76.62838297959087,33.435229389453184],[76.62918350606975,33.4240247550494],[76.63675051067969,33.41563841598213],[76.63574840494584,33.411492974840144],[76.63184271873672,33.40942142261309],[76.63810957366968,33.40375890214193],[76.6362397304058,33.401686621769386],[76.63910967346533,33.39742874702523],[76.64021007645078,33.39165757064575],[76.65098353572057,33.38383282950224],[76.65144638458577,33.37133806197136],[76.65847563970027,33.36423714876247],[76.6591707542704,33.3566052254464],[76.67226520241809,33.34913594379117],[76.6706270086147,33.342021805217826],[76.67316092785927,33.339640063526645],[76.68236758333978,33.336709734249666],[76.69570127800017,33.328102075638185],[76.70460444844173,33.32790006298302],[76.71264513559925,33.33114484177571],[76.71742260714723,33.32913720610503],[76.71921714194588,33.32406484332972],[76.72580947896398,33.315208087315455],[76.72506911804953,33.311081526023486],[76.72843375614963,33.308305043447376],[76.72832847090348,33.3043005066275],[76.73212287471347,33.2990295113089],[76.72955276324461,33.29632732309864],[76.72834658543115,33.29094892213334],[76.72984514690319,33.28909860060372],[76.72747353256949,33.28340424646035],[76.73253713101013,33.28171817325358],[76.73229791324326,33.27586378519959],[76.73858125136314,33.268402887605134],[76.73697224831517,33.261204626562574],[76.75428270209329,33.24877494358623],[76.7676362953357,33.24840937560356],[76.77123347761841,33.24962940430635],[76.77554122369757,33.253633985842065],[76.7839789087185,33.253683496312874],[76.79246149962214,33.25694812285687],[76.79928815589395,33.256068341761356],[76.80280584805377,33.253789580104026],[76.80707793730438,33.24502853140798],[76.82102292473593,33.23600805732378],[76.82271613316384,33.23712956062433],[76.82426370581953,33.24411438308673],[76.83090111131551,33.249306303071826],[76.84315982890642,33.246871653589835],[76.84466258012105,33.242389407834054],[76.83225181278682,33.22960381481076],[76.82792600428225,33.22308462518262],[76.82822393683443,33.21812003581878],[76.8256301844022,33.215331660772954],[76.83188552023815,33.212598589102164],[76.83138160668625,33.209913325101404],[76.83432610272791,33.208408241055835],[76.83437950487661,33.20492514020885],[76.8291081135343,33.203009845036846],[76.82367750209605,33.197575096212475],[76.81746077135944,33.19413402951238],[76.82247218037706,33.1843200787485],[76.81890915204147,33.18003917563949],[76.8136152480198,33.17731197059694],[76.8130513171255,33.171509437074945],[76.81739975958197,33.1668080287942],[76.81695676168782,33.15978071461334],[76.82516578324807,33.14837990475009],[76.82981915433619,33.14658690135473],[76.83071917013115,33.14235273083093],[76.83490723725825,33.14082447861864],[76.83862901048096,33.14135484321863],[76.84444243718089,33.13760808526224],[76.84285618666233,33.13052231648019],[76.8522540862803,33.12677663682474],[76.85273431305477,33.12482267356169],[76.84933206159546,33.1202422744797],[76.85528955650739,33.11429441093419],[76.86241469240542,33.11283070167092],[76.87036379991297,33.11352199528427],[76.87573450270487,33.11843029985669],[76.88517123559427,33.121646101087535],[76.89118924910859,33.11472244492058],[76.89302047739169,33.11048651762633],[76.89253921845295,33.10584383943902],[76.89700288331936,33.10174943515138],[76.89766648948098,33.09896285028169],[76.90923859685248,33.0941173369006],[76.91008545394219,33.09022799836942],[76.90503540748587,33.083567849087274],[76.90561455853603,33.078784543875635],[76.91112982451173,33.076016011243496],[76.91406699119898,33.06391866034471],[76.92545677290714,33.04773049687138],[76.92582280494439,33.03914256218609],[76.92867648041248,33.03203133598961],[76.93296283311318,33.02848855368523],[76.94155367550015,33.02838992222218],[76.95066968647689,33.0184533922175],[76.96015151120028,33.0153551903814],[76.96176081698066,33.01148772320389],[76.9609142922676,33.00910666988165],[76.96554497999648,33.00407631551136],[76.96813888334567,33.00438160789254],[76.97161719156682,33.000452089745714],[76.98089342605766,32.9999041807652],[76.98902441905405,33.002472025271466],[76.99245048934311,33.00183877376221],[76.99627204203767,32.997035394433446],[77.00752269716621,32.99215420326926],[77.01029519996695,32.98910451595992],[77.02516524732526,32.991853666612315],[77.03300008733204,32.99036267694538],[77.04008925648272,32.99819661693043],[77.04899824441405,32.999037832143856],[77.05907380253963,32.99105865558756],[77.06784203614406,32.98749244640441],[77.07145318722942,32.98448922829828],[77.07989422835621,32.983366022013634],[77.08208534599662,32.97552983724429],[77.08607703062289,32.97233296896105],[77.09080579910939,32.97300814134355],[77.09548694880102,32.97105346198605],[77.1109020669243,32.975178675769776],[77.1118837817994,32.97944852785418],[77.11612319303491,32.98475629830145],[77.12885695412112,32.98061903346155],[77.1353880781392,32.9796145119205],[77.14242325135477,32.98100956151036],[77.14648781360506,32.9783336613159],[77.14972556197627,32.97814603210874],[77.14935304769594,32.96796966900549],[77.14786168172922,32.96568874861727],[77.14905123442172,32.95606397775322],[77.16089149788867,32.95298398304569],[77.16203368870444,32.949155064352816],[77.15937743778296,32.93860042824508],[77.1639492202837,32.936985854430134],[77.16129038041754,32.931622131831745],[77.164181914485,32.91889667443034],[77.16042796989701,32.91301696134306],[77.15714331509493,32.911690243830954],[77.17022227179538,32.910755985218316],[77.17512239931223,32.91432392814258],[77.1784527559044,32.92276062436274],[77.18826319783346,32.92882349160783],[77.19258498997041,32.92195045633718],[77.19317081370656,32.91656003183121],[77.19883596538398,32.909052764632726],[77.20953666201412,32.904691187067456],[77.21932993084991,32.903851877636804],[77.23392021947255,32.89373805542995],[77.24339065984634,32.89259274129539],[77.23700286382848,32.880929261739354],[77.24290109688113,32.87589414551109],[77.24364686116203,32.87293648949596],[77.24653605511816,32.87165774912014],[77.24957079142168,32.87266445526848],[77.25384129784074,32.868652742838336],[77.25527611036873,32.8661985829539],[77.25435111691729,32.86387496950901],[77.26257422316291,32.86403371403945],[77.26738604359241,32.869703313604106],[77.27400055013348,32.87379454984965],[77.28593676265594,32.864670551534644],[77.29012092480652,32.857294645824204],[77.29942755738826,32.85216715097251],[77.30118042473079,32.84981009426373],[77.30932657410266,32.85151870388579],[77.31474582814074,32.85059618801978],[77.32003660602523,32.85225130049474],[77.32252230101024,32.85116893977853],[77.32865358579367,32.84294657086634],[77.32527525916532,32.835414206699916],[77.32706032122934,32.83146467027856],[77.32993634947667,32.83033399868686],[77.33140252398788,32.826514056428714],[77.33602313711081,32.824920784856985],[77.33676502965285,32.81900790080295],[77.3388359985223,32.81681141157428],[77.3521263404872,32.81572798232083],[77.36034204820812,32.817645332588114],[77.37347365965897,32.823855204257306],[77.37634527717825,32.83673570941354],[77.37922013761568,32.83901964030519],[77.37995428308669,32.84513454060296],[77.37606136283607,32.84877832993332],[77.37440415529151,32.854735879013106],[77.38167336119814,32.86210635559857],[77.38792088887764,32.86366754700917],[77.39414988880444,32.871269788500676],[77.39603084871999,32.87741565983814],[77.40531228984622,32.8831655078571],[77.413610208687,32.88403453216883],[77.42850808046292,32.875493509021666],[77.43303367608333,32.8756856141693],[77.43864277558198,32.878901882554096],[77.44478367593223,32.87966721646888],[77.44809882674157,32.875049859208794],[77.4479102029898,32.87006188130537],[77.45211650591718,32.864203021204716],[77.46098885156808,32.86004792648912],[77.46900668199149,32.85844811674957],[77.47534991887632,32.86176050567971],[77.48070477897988,32.87047177660209],[77.48605956631994,32.87349781468084],[77.49043382815432,32.87902598806536],[77.49696714046843,32.8801726197432],[77.49795514624545,32.884123131709345],[77.50137761429025,32.885617288772565],[77.51273429667346,32.87748920370183],[77.52117301296028,32.879342750405286],[77.53921382311572,32.886796648148376],[77.54618119778185,32.892621828855276],[77.55041551916293,32.9004684621775],[77.56380685602028,32.91240691432694],[77.576280692274,32.91411696382134],[77.59568347146931,32.92731095910092],[77.60233069555134,32.94282891421905],[77.61965127963113,32.94379303425723],[77.63920710480141,32.94713300057225],[77.64294653171609,32.94654460782257],[77.64347199585163,32.94929552510769],[77.65321778692802,32.95530095568903],[77.6557515561538,32.95891492933577],[77.66430066730419,32.95836253026076],[77.67366567510804,32.96092681889777],[77.67403972191426,32.967337357733356],[77.67886218198997,32.969838059888815],[77.68208354419208,32.97550662788463],[77.68069337523877,32.98383136484307],[77.68248588253986,32.98871094497238],[77.68953258203884,32.9878776650691],[77.69492904491985,32.98327670122846],[77.69771026048052,32.98275327958053],[77.69724708822172,32.979509306701665],[77.71305201858443,32.98256852095428],[77.71414072819975,32.97603696452633],[77.71964622499671,32.968705437188405],[77.72542609423088,32.96960073580141],[77.73072128284339,32.97446054244634],[77.73307000900212,32.971526950918275],[77.74071595037262,32.969046460612894],[77.74443078590637,32.961929546601546],[77.7499149755631,32.9576058814214],[77.750952907907,32.954613558884176],[77.7634557336932,32.94923894763809],[77.76649941362372,32.946195123036006],[77.7648633443361,32.94380035885963],[77.76602018577586,32.941387815652135],[77.78585438268303,32.92637705991055],[77.78761083340522,32.923406938911164],[77.79518632709451,32.919483969943805],[77.80000270557576,32.91215182915165],[77.81088053830183,32.90676633079024],[77.81052370591142,32.89966265556974],[77.80635226210862,32.89531642829287],[77.80189437879939,32.893332359802805],[77.79319295110601,32.89317230395827],[77.78930970121941,32.890595776991226],[77.7876099925821,32.88632037680353],[77.78391782064466,32.882769294028975],[77.78093994141041,32.865586054012574],[77.79197057217641,32.855788069541305],[77.79719995290614,32.856426582623335],[77.80563693185125,32.849813538579795],[77.81599426093874,32.84837866070309],[77.82605085113711,32.8362564021361],[77.8323972518884,32.83629696280311],[77.83484350274757,32.84045483478454],[77.83913445392422,32.842129737646545],[77.84669951817305,32.83903728438058],[77.85785712670278,32.83115757161449],[77.86926402131711,32.82702101338172],[77.87127944914924,32.82249458481332],[77.87863446572507,32.81907268831848],[77.88198893848936,32.81024804558713],[77.88089010575911,32.80429226878195],[77.88791991872738,32.798677977950284],[77.88408599263808,32.78770731697351],[77.8919184440245,32.78292827164248],[77.89409485893864,32.77860042684439],[77.90378179329592,32.771846060212596],[77.9157730671554,32.7739402601125],[77.92582259030746,32.77202501273695],[77.92796108374023,32.76483218221086],[77.93367564545325,32.760735507498],[77.93431421287296,32.755978461830445],[77.93167525362237,32.75040498545017],[77.9327701652064,32.746499866910916],[77.92914239349166,32.742404360976415],[77.93057788873926,32.73691424113759],[77.92712427161202,32.73646391297302],[77.92629116233944,32.734798009272225],[77.9313115823577,32.73200919028015],[77.934304471542,32.72590686299267],[77.92801740451526,32.722143899266236],[77.92462307260351,32.71679219810492],[77.92473782968612,32.71171035448648],[77.92167293065027,32.708409928558424],[77.92241006391794,32.69920849643341],[77.91818403937677,32.69622722384517],[77.91851130731288,32.69067747074519],[77.9274518728231,32.68568861372323],[77.93096524049317,32.68194648975593],[77.93437718207944,32.68120922540377],[77.9404908149675,32.674070494969286],[77.9423000731537,32.6660877182265],[77.94619674387064,32.66167243508398],[77.95180381587173,32.658912690673404],[77.96556437468388,32.657728227843464],[77.97061195616307,32.65524298521282],[77.9724338545436,32.652820495985054],[77.97012524175558,32.646749238368976],[77.98453411291167,32.64166635273294],[77.9941251592989,32.62807936365889],[78.00288111203507,32.62471142307052],[78.01175711832074,32.62504720054673],[78.01301382187737,32.62169202326954],[78.01583755559874,32.6197566691326],[78.02899790864707,32.62336567444379],[78.02536575495036,32.6273121651209],[78.03356024087103,32.633925752458325],[78.03405215472733,32.63690660180045],[78.04305740702286,32.64033788292311],[78.04682272158738,32.6450082655932],[78.05671504944617,32.634448819280074],[78.06108862856092,32.6262519719681],[78.06789449602044,32.626474341579545],[78.07424992394199,32.63078942601736],[78.08141418057232,32.62604305811999],[78.08723604784264,32.62436355415519],[78.09203180639487,32.628616279188],[78.09890677675762,32.63038494909633],[78.09896994718672,32.637115783042546],[78.09573247459831,32.64478072735629],[78.09257021705027,32.64772097081009],[78.1105849248585,32.66260332014646],[78.11599411956206,32.66035182147433],[78.12076867338199,32.66054273297376],[78.12750616916689,32.65213849659782],[78.1363993386644,32.65445706832489],[78.14753177999313,32.65426729344857],[78.14773774841643,32.67158714880424],[78.14265494219832,32.681816724878495],[78.14880338390535,32.68164765409751],[78.15799873947793,32.68401044613822],[78.16545095197088,32.68296161243102],[78.17117741007323,32.68040889785782],[78.17539680684419,32.68096504750666],[78.18648909527636,32.67500712165878],[78.19280359505524,32.673453632128464],[78.19698518532917,32.67030545023864],[78.20176093121349,32.670178082222534],[78.20403762596112,32.66712943287587],[78.21946668324266,32.664700490614386],[78.2323961890259,32.671738064568636],[78.2459396960008,32.67183264389332],[78.25301610278623,32.69105612757148],[78.27555222276055,32.69929886476325],[78.28919595836497,32.69929435477773],[78.30135574179872,32.703144699527584],[78.31222449076063,32.709167899682306],[78.31507459632378,32.71610398008592],[78.3146253775963,32.72119414901838],[78.31116687722715,32.7279948914517],[78.30419657315491,32.73422211816857],[78.33052704304038,32.745365094003546],[78.33315228771151,32.74984078034717],[78.35662204293034,32.7576799910425],[78.36573286433972,32.75352482978829],[78.37299225166032,32.75561237286521],[78.37754136158158,32.754372827373224],[78.38771674139986,32.75693213546174],[78.3856873393752,32.7498546955052],[78.38778819519419,32.73002634257332],[78.39148850407152,32.71896120207818],[78.39435639178576,32.71561191302804],[78.38407354112012,32.69580625119771],[78.38014313686762,32.681803603588],[78.37958866613153,32.66825333779999],[78.38731160300338,32.634366470033775],[78.3922680881262,32.62581035647745],[78.40517148886732,32.61942185163824],[78.35690352912628,32.58925269790183],[78.34801111511194,32.58106354338011],[78.33422363648567,32.57640379784201],[78.31284689659007,32.57371429430494],[78.3153132319824,32.52542384962976],[78.31116731919829,32.51861200468513],[78.29460136846622,32.50408688979611],[78.32227218134946,32.473846575813425],[78.32643879760595,32.47201920562683],[78.37248960742791,32.50875518054495],[78.39859088115179,32.52574167419204],[78.40405737848914,32.52854108455938],[78.42575420339176,32.531085244233225],[78.42853109985259,32.533416618297736],[78.427777287565,32.540260845673856],[78.42999932162434,32.5506933313531],[78.43522247074094,32.56133991079605],[78.44792452039923,32.5737079316371],[78.45844213318793,32.579780100465484],[78.47105774874638,32.58327910140531],[78.4778168795566,32.58314501510398],[78.48658739937332,32.58041123065874],[78.49814502320748,32.581466689834826],[78.51350407118582,32.58927173188374],[78.53432333278568,32.60841302021089],[78.55340653721692,32.61140344693422],[78.55746130962734,32.61386081055508],[78.5719710633864,32.617377225841665],[78.57656675454842,32.61715359197967],[78.58671839279202,32.61567309056397],[78.59363466140337,32.61014054333526],[78.60722871388441,32.605926141895],[78.61276938421616,32.597236350737774],[78.61463617230987,32.59585571892927],[78.619496875464,32.596482024749434],[78.63081672602209,32.602286170465504],[78.63759536554534,32.60948675403688],[78.64642791672753,32.63121811593527],[78.66088379582413,32.65379469465398],[78.6712565956974,32.65754843401402],[78.67892480630383,32.65819259398364],[78.70225481780034,32.65634480557003],[78.72161374034522,32.66095732026213],[78.74082094193017,32.67347886919089],[78.75989345461312,32.69712711709337],[78.76768600732606,32.69681265420138],[78.76768707901635,32.68612380868569],[78.76122695244828,32.654847928454615],[78.77126693818707,32.64089773511347],[78.77253414484596,32.6349758145343],[78.77778455603482,32.6278784455385],[78.78738665798818,32.6220969556087],[78.79106945690398,32.61820122911314],[78.7944759906323,32.610185405926984],[78.79566051275907,32.5981390600046],[78.79287908429785,32.58886903908501],[78.79013466373112,32.58547411586795],[78.78231570054879,32.580321347709116],[78.77497322804749,32.572912914068695],[78.77533241222733,32.558134650456566],[78.78895892802609,32.53298496120186],[78.79634616806942,32.50381694697501],[78.8036814720146,32.491237281403414],[78.80570207504121,32.4814520136747],[78.81886753860516,32.46221028177155],[78.8216395760785,32.448765399013894],[78.8257763754541,32.438489310827435],[78.83297603918135,32.43591570189204],[78.84532866036398,32.439892265546405],[78.85741445226262,32.44043077572934],[78.86109856631202,32.43699790157871],[78.86370331502155,32.43013060332282],[78.87384156926584,32.417020640620876],[78.90201608459694,32.39265799780452],[78.91953640458854,32.38281170948488],[78.94269246721183,32.37243036362463],[78.94849064231471,32.36711398132894],[78.96027483653495,32.36584713884861],[78.96631985699992,32.35873288804612],[78.96915310927005,32.351423138760424],[78.97753564402086,32.339034307002464],[78.98394658872519,32.337822425423894],[78.98771741445404,32.33961085022645],[78.99232874348854,32.34501112864359],[79.00716549119755,32.37029158682503],[79.01312783791025,32.3770595204993],[79.0322655314518,32.38570103988047],[79.0590987910968,32.39036641369131],[79.06953948384273,32.39046696143225],[79.07807121438896,32.38810848998992],[79.10161073277271,32.38530043069551],[79.1066700255883,32.38410354769695],[79.1074405645063,32.38272488951537],[79.11360967195662,32.38401741778415],[79.1193807143448,32.39371433870457],[79.1217470393982,32.40939513778977],[79.12423482925442,32.41342314325442],[79.13715980932517,32.41735392209762],[79.14066680255007,32.41915885618266],[79.14283871331139,32.42252599068968],[79.14576092304918,32.43681143075685],[79.14506166904215,32.44273075082151],[79.13985259293264,32.4523384575989],[79.13267695464788,32.458573346334845],[79.12984982798957,32.46588365130742],[79.13047559172162,32.47065417441286],[79.13593242228802,32.47673371928164],[79.14644446372535,32.48089875500983],[79.1815261135979,32.48090874801625],[79.19364051683846,32.482785250820086],[79.21030381889614,32.49162284343225],[79.21930636546602,32.49814981147529],[79.23630388752184,32.505646104837524],[79.24012775786986,32.50970476345509],[79.24468865009425,32.52509418622748],[79.24937954920182,32.53390279995352],[79.25446641849987,32.53404602148345],[79.26351786486225,32.53118953167399],[79.27213624240915,32.53223157541379],[79.27565435677718,32.5337830650343],[79.29359239337606,32.54989114197491],[79.3096191887492,32.571558109855346],[79.31465896476686,32.58615252692152],[79.31923253311845,32.59250961086184],[79.32864730399581,32.593279418247675],[79.33237760043397,32.59163891071165],[79.33799304922508,32.591792538471736],[79.35852367763255,32.58333828112865],[79.37079282915556,32.58066609041339],[79.37795715226122,32.576232580817475],[79.39300776458492,32.572093051514855],[79.39592591753086,32.561892635058996],[79.39476737737692,32.5559976489489],[79.39790954051034,32.53685154743903],[79.39917123420832,32.53413162030324],[79.40529662334859,32.52947096718151],[79.411682204121,32.52757883850444],[79.4226465580835,32.52696710871925],[79.43823745674501,32.52923624326121],[79.44660030671292,32.53230471134634],[79.46012092730922,32.55277126233898],[79.46827772800543,32.57609325317884],[79.47259222133073,32.57780702827131],[79.47970850792484,32.584098328813525],[79.4924297842253,32.59005553818076],[79.51420229578395,32.60790376198406],[79.56558445410354,32.673039931575204],[79.57262483754778,32.67519493036053],[79.5768783172989,32.678504461042564],[79.59935021491702,32.707472593254806],[79.61597168961833,32.724042702098416],[79.62534275206724,32.73731239485903],[79.62466485101459,32.74279231402653],[79.62120552150037,32.745778546957695],[79.61299893167967,32.764065038671106],[79.60167413409908,32.77674140094672],[79.59657677607169,32.77726094392585],[79.58873592633563,32.77354663660725],[79.58579268973205,32.773803924125616],[79.58079682156881,32.780910812625734],[79.5717137473219,32.78220548328494],[79.56644836031904,32.78658387852596],[79.56254672102011,32.79369686117866],[79.55117103298056,32.80432574877449],[79.54050919746959,32.8219676709673],[79.51452962480539,32.85551258162735],[79.49996985913958,32.87173983323788],[79.48731558278627,32.88110737373455],[79.4625097722286,32.919832059674775],[79.4382019885627,32.944259459296404],[79.42469701751685,32.955567056421046],[79.4207803458101,32.96129252053555],[79.4138617945797,32.96729832669496],[79.4077380089322,32.96987373758009],[79.40076428407525,32.96997653205716],[79.38913598528615,32.967186127813704],[79.38402643801874,32.967717000532616],[79.38194947109798,32.97206009310338],[79.38428393111172,32.98201713033683],[79.38254949270726,32.988838068682185],[79.36669967173316,32.990650663602935],[79.35922987202355,32.99507158348001],[79.3537263533168,33.00264066084134],[79.33924643799816,33.006225105616124],[79.33045349263858,33.01181546734648],[79.3340347145537,33.0160797099993],[79.33945230042036,33.018261615880874],[79.36130218477268,33.02160718629432],[79.38079345970169,33.027469272977214],[79.39223680435697,33.03593243083674],[79.39401159957549,33.043606195564564],[79.39200469675558,33.05385415787032],[79.38398690855297,33.06880897174506],[79.37658379258346,33.078798968945534],[79.37586627941994,33.08448070207521],[79.37986973287474,33.09757249919522],[79.39191427593221,33.12418940270612],[79.40386245670925,33.14374818436352],[79.42892304205805,33.17645089521767],[79.44512304070281,33.205555680022144],[79.44910728278694,33.21707036366479],[79.45170813640158,33.24222416817287],[79.45456074556932,33.25013105803146],[79.45189538303595,33.26012046744631],[79.44592450322637,33.26451923277415],[79.40480093027975,33.27238118386714],[79.36852893450231,33.282378085536436],[79.35689691489137,33.28131715197571],[79.33146690816181,33.27316703970263],[79.31419701062362,33.27294110346651],[79.29544516864951,33.28042538953224],[79.27635143236961,33.283882045062626],[79.24878814872426,33.29555489536227],[79.23911618479121,33.29753053037501],[79.23314871139314,33.297602291107125],[79.20707764172414,33.292088583990505],[79.18831738792551,33.292283146756745],[79.17538030575128,33.29425252454223],[79.16481962054121,33.28986387680578],[79.14273861403939,33.29240179776076],[79.13272995075795,33.2898103822626],[79.12541061167201,33.289666889220996],[79.0958322442491,33.29431805426947],[79.07684328566756,33.30362693364043],[79.06045618052536,33.30949250545325],[79.05246787592876,33.31571065619545],[79.02432419616821,33.32899844855842],[79.01632227131518,33.335198435997256],[78.9949264188636,33.33023451704685],[78.98848995302188,33.33256884326522],[78.98166839738417,33.34579944153643],[78.97881142509914,33.35560095875542],[78.97109474858644,33.36020674004459],[78.97038823888681,33.36837041112682],[78.96725008403632,33.37521759778201],[78.95864249974744,33.37734569119033],[78.95219596828304,33.380832556859275],[78.94855162444782,33.408069245247816],[78.94207196042078,33.40972927211209],[78.93886442688421,33.412049694175096],[78.93187744918185,33.43250360452919],[78.93000841080857,33.47356486217103],[78.93456146972386,33.48868216327651],[78.94035850576296,33.49928249877388],[78.94131891798952,33.509003109423645],[78.93911783893094,33.52625563379951],[78.92637638826591,33.55945182388075],[78.91948715355471,33.569516657638815],[78.91435542957771,33.572287586239156],[78.91369347990951,33.57404338485003],[78.91672657319447,33.58676670848649],[78.91449183605869,33.60221004791026],[78.91559758940997,33.62211038962454],[78.91300463019019,33.627562959222644],[78.91524188260854,33.63202756385641],[78.92088278965491,33.63293760443793],[78.94829965240052,33.62040179872747],[78.98843929702304,33.61088140088623],[78.99821696032569,33.6119014316925],[79.00421907006609,33.616595310878495],[79.01862573316328,33.623214696894706],[79.0286683087449,33.62581031592873],[79.03949743930798,33.62568842145873],[79.0463102965586,33.627417097962905],[79.06388644325187,33.62651904552871],[79.07270984599114,33.6212067403809],[79.09022614242866,33.61692372417485],[79.0980076198125,33.61342306746798],[79.10507223351493,33.613782706096],[79.10557909803254,33.61658114594724],[79.09488943001907,33.637462986134324],[79.08897030933957,33.65680748949103],[79.09062924434443,33.67922040120743],[79.08967503049337,33.686689887989985],[79.08480431741214,33.68812820212122],[79.0703348459071,33.67877794289922],[79.06327209800554,33.67726600640219],[79.05247325144745,33.67783184821343],[79.03659474636794,33.68413975826394],[79.02750037850132,33.691503935159744],[79.01903846951058,33.705426280037614],[79.02473607013263,33.72233719435536],[79.03129835670791,33.730936970422476],[79.04165620053004,33.738139498401324],[79.03992998081213,33.74645685123676],[79.0414845935648,33.74939048476574],[79.05819824888903,33.75243076878297],[79.06699950995335,33.756124674774185],[79.0661019025415,33.76303142004963],[79.05980042294436,33.76943839424649],[79.0587782982546,33.7800029353711],[79.05575792421587,33.78060254638649],[79.05234990377579,33.77810582869489],[79.04933176294878,33.76731428942969],[79.04576800428282,33.7658021932383],[79.04174400815413,33.76712015189696],[79.0392739115158,33.770381588240866],[79.03507731578338,33.78155386418706],[79.03265332338015,33.78339797854318],[79.03047760016875,33.78319432951844],[79.02713113139362,33.77688386746331],[79.02306122955741,33.77490033906349],[79.01871802607559,33.77541251362044],[79.01526866067462,33.77837760448824],[79.01104769993674,33.7865633621974],[79.01795217456663,33.79578392542095],[79.01770981539124,33.79849526605187],[79.0049790618645,33.79729347829988],[78.99934385642547,33.80300728597473],[78.97799769518207,33.84219558292938],[78.96022867840077,33.87068294012772],[78.95206064157696,33.88889243587437],[78.95377259694658,33.893180084366975],[78.95120775679175,33.902038807583494],[78.94231569222211,33.90822662918475],[78.94540332671932,33.91474645074362],[78.94788151178858,33.91630590497408],[78.94683311137675,33.920387103968665],[78.94418342624164,33.92359028344197],[78.93873223080703,33.92434282524488],[78.93551624951334,33.926858642813556],[78.91968446491359,33.95692446044893],[78.90974523242056,33.96381256759156],[78.9036260174014,33.97158037339176],[78.906720903998,33.97991958351491],[78.90943160270706,33.98057581145764],[78.91822500800413,33.98882398666569],[78.92569510325939,33.99872233104344],[78.93104053554413,34.011761424189274],[78.93908721266786,34.02366953304312],[78.95054137034424,34.02852963952802],[78.97695224843085,34.035673350214154],[78.98463512942413,34.040137567107706],[79.01328630072646,34.049962894593705],[79.02088331715163,34.050565309293006],[79.02654854877909,34.04801275349428],[79.02868334205118,34.04482093204871],[79.0410498898155,34.037877412060084],[79.04294000266555,34.035364488788275],[79.06045855297606,34.02835774328412],[79.08260122612728,34.021560166788845],[79.11108511585218,34.01938091444032],[79.12959845601694,34.023930622771616],[79.13430671506711,34.026909575896525],[79.14225792732742,34.03485637866686],[79.14567610771331,34.04496877425635],[79.14759039422768,34.06283520949927],[79.15012424609836,34.067765648833756],[79.16338457624784,34.06626649432195],[79.16672954393823,34.07141838989554],[79.16972909952028,34.07252984021028],[79.17732767092917,34.071742618265034],[79.19654427068866,34.05090669817548],[79.20549274406835,34.05010434250789],[79.21827903144566,34.05242641562586],[79.24621765816642,34.0509646203318],[79.26214051486801,34.04665877248573],[79.2728754930061,34.03907699491339],[79.28293325730255,34.03960774865618],[79.29547085956824,34.042822995606286],[79.30443201895645,34.04270807802703],[79.35400227534802,34.03660917190291],[79.37412050607327,34.03306432877167],[79.3972235492302,34.02675007010521],[79.40422068238666,34.02301946170962],[79.40550828349751,34.019855046782936],[79.41277899318396,34.01453269147498],[79.41816983800123,34.01402668226444],[79.42503784731878,34.017105182163164],[79.43220147602676,34.022650096971915],[79.43635081229036,34.02822586450492],[79.43483864044339,34.03436059038086],[79.42849380904892,34.043069398992884],[79.4187890485232,34.04770988187494],[79.41295198445323,34.054572231097325],[79.41288853734295,34.06287124668779],[79.41881062246301,34.07779609412074],[79.43102351429633,34.0923291269267],[79.44872693968898,34.09660388277683],[79.45969182725082,34.10164900998723],[79.48570454235914,34.12592802681053],[79.49319178645317,34.13554270224341],[79.49249094961465,34.14076926415737],[79.48772446176758,34.14850747774619],[79.48816428771056,34.15686328780657],[79.49322924620049,34.17963015823585],[79.50567581139887,34.20545310681547],[79.50953922648398,34.210153065240945],[79.5180383374057,34.21251222088671],[79.52668125872299,34.211044155159925],[79.53555457994406,34.20547414141993],[79.54292773260727,34.20694950230461],[79.54852260279182,34.21477198718969],[79.56326581881194,34.217492675703795],[79.57082473409264,34.22253130560074],[79.57763156544439,34.22881612543438],[79.58417976374102,34.24410385881265],[79.59034764499086,34.282434963618414],[79.57417039618065,34.30345505701604],[79.5687383842689,34.3166709208453],[79.56125209508389,34.32399680611985],[79.5580095784552,34.332081847827965],[79.56063218028265,34.363106873360664],[79.55242144833016,34.38760575383975],[79.55331577778935,34.39124626173668],[79.55917113245681,34.39905797908665],[79.55964913679924,34.40965332377982],[79.55804168334515,34.410825781467736],[79.5403181204187,34.4097338575163],[79.52658342949348,34.41762754459626],[79.52537176656688,34.42127105101838],[79.52674917495153,34.42776354839913],[79.52574880206816,34.44517683493223],[79.50791173071741,34.46756726822133],[79.50611664255644,34.47190418555823],[79.50695763634235,34.473916224636184],[79.5419241177039,34.47859194870131],[79.5693217699772,34.48633136064677],[79.5786507059309,34.48956664265745],[79.5916873717444,34.50046111655843],[79.5957462000481,34.49995598138594],[79.60132792249021,34.494000128032496],[79.60729153852247,34.49161466272972],[79.62767484322347,34.48928843242925],[79.64213822145615,34.48976300196489],[79.65082839146237,34.48803737269128],[79.66044309588091,34.47931300450131],[79.66736115573286,34.48326719008361],[79.67143195498625,34.48320776186358],[79.68304525280848,34.47829624045909],[79.69149594723132,34.47860099631572],[79.69420510263478,34.47743572985797],[79.70543172872772,34.479275439961725],[79.73181238120003,34.477968759872795],[79.73731795704856,34.480588513034775],[79.74194883971188,34.48097544058908],[79.76589626150661,34.479705707988956],[79.77954948511712,34.48134416508731],[79.7924421572788,34.48469555090901],[79.79763910792838,34.48806840342377],[79.80275834801779,34.49558362105313],[79.8108064040556,34.49655499417639],[79.81295082547098,34.49970715759986],[79.81132097072839,34.50345460356425],[79.81338515013096,34.50805605370584],[79.8136343158414,34.51980679919893],[79.80869781194542,34.530945914318124],[79.80198454372373,34.53556930009228],[79.79195718739965,34.53800563278804],[79.788485303031,34.54143930812302],[79.78090104627614,34.54405803380041],[79.77343885889024,34.55163170430501],[79.76033602047795,34.551615602592165],[79.75687486019723,34.55435064795745],[79.75738895525461,34.56566265729845],[79.76942481789143,34.581710611471806],[79.79142428072191,34.58927234464295],[79.77718106788734,34.61481743008261],[79.77103943181686,34.62008259826587],[79.7703888368539,34.62210428741582],[79.77432310925207,34.627223293237535],[79.8026629154935,34.642608136202796],[79.8149479285695,34.64306875110901],[79.81882700847655,34.646607213829725],[79.82324292429234,34.66076049443376],[79.83247638370432,34.66965023351622],[79.84213899617538,34.67558911554113],[79.84827802353811,34.68227759845388],[79.85906556210347,34.688380694063085],[79.87631331976309,34.691037067656],[79.89869660935818,34.69088779297783],[79.92616891342823,34.68684433502574],[79.92916250329847,34.68565253230946],[79.93152624839036,34.681987564796884],[79.94295032238631,34.68069216402074],[79.96356740645348,34.68709211659308],[80.04286049733184,34.70401188453536],[80.0640756267145,34.71175588666256],[80.06741194003524,34.71440564394709],[80.06944062969598,34.71933857396618],[80.07115761832597,34.745723485800625],[80.06539747879049,34.79026618619963],[80.07152084582293,34.82805157669344],[80.08239217115323,34.84841664543717],[80.10521281273088,34.86765348770689],[80.11781216249437,34.888835551895966],[80.1220372123633,34.893042124191254],[80.1284142447675,34.908490731045276],[80.14931831541509,34.94736294225163],[80.15865851444585,34.97063386446007],[80.16924741124717,34.98846938553697],[80.17311279274458,35.00193775171289],[80.18227085385968,35.04011398514871],[80.1842289161761,35.062823368899444],[80.17621484520214,35.13645449109032],[80.17676683838465,35.14748641681757],[80.18189177469128,35.16632600868081],[80.19298536118907,35.18211947157437],[80.21326677358053,35.20337929902081],[80.22434903232272,35.219612212898255],[80.22703689495899,35.22768615931744],[80.22819027429165,35.25133712932103],[80.23401590550304,35.27621678875215],[80.23806046137355,35.2871523723727],[80.269264908818,35.34381345078498],[80.27332598111349,35.362846018073185],[80.28188888858995,35.3874570663387],[80.28220239523421,35.40906957092807],[80.2794162066001,35.44043594285415],[80.29589995070398,35.460365792688094],[80.29977047775111,35.46209693650002],[80.3030449959636,35.46114552350525],[80.3218443408499,35.46483490042402],[80.32464944351244,35.46635696015068],[80.32697716795815,35.4721490633346],[80.31978495306112,35.498056830671544],[80.30963371816114,35.55373541378913],[80.30515921332409,35.56214126053936],[80.30430485170848,35.57228576532293],[80.29895201550931,35.58767987447442],[80.28983988884795,35.606981920862324],[80.28384161311686,35.61091126687512],[80.27259583404378,35.62236052244543],[80.25140050712315,35.631966720856894],[80.23567855324484,35.641495601942495],[80.20668465489882,35.649459049204154],[80.18788249918396,35.65676673915118],[80.12280270364789,35.6737035734148],[80.10646164614712,35.68047974269575],[80.10164030177913,35.68664359589553],[80.08653815939573,35.72472817772734],[80.05659960976482,35.74948530780665],[80.03660594033511,35.79930452924481],[80.00843010897228,35.83079670112221],[80.00104392534757,35.83384953162704],[79.99754845930454,35.837291046772805],[79.98684770428378,35.83993388269056],[79.97057716722799,35.84021120979651],[79.95229665601192,35.836704783152186],[79.91693540011732,35.821789735890775],[79.90855720153456,35.81676758458224],[79.88095348831149,35.79000377711458],[79.87504404428404,35.78493763358961],[79.8694810157831,35.7825690325634],[79.82470640116287,35.790051239847514],[79.79483955865118,35.79678405008076],[79.7568282466172,35.79875441298577],[79.73594290404662,35.80154642533654],[79.7233776426533,35.80558105246405],[79.71989403616863,35.81033727707603],[79.71688264528262,35.8108348362411],[79.71476452653877,35.816717219688826],[79.71041542022738,35.81902467712018],[79.68522478667319,35.82639332060171],[79.66391997667893,35.83480427825259],[79.65375294310797,35.836276146110606],[79.64910030055358,35.83861375561338],[79.64274457169643,35.83891161625314],[79.61812270107475,35.84717917320137],[79.59561572604139,35.851986051209565],[79.58329553224394,35.856462801132295],[79.57475779376512,35.856997388264574],[79.55828697012998,35.86129939723071],[79.54542748263327,35.86666479158032],[79.51680708581597,35.88304172302577],[79.49368079605614,35.88715840416626],[79.44773881623252,35.890945878968466],[79.42051181152391,35.89605299389126],[79.41131223297111,35.9042581469601],[79.40158918544114,35.918313457567024],[79.39098584193323,35.954422638574044],[79.3901532563786,35.97058997000522],[79.38312343981698,35.99380256972364],[79.37652229841069,35.994803571121906],[79.36709244122653,35.99269697579581],[79.36069285122727,35.98962729004205],[79.343280850991,35.98808503017341],[79.28866052748168,35.98923381285198],[79.24028893000485,35.98626596406342],[79.2200445533557,35.981565597000895],[79.21393485329196,35.97829497041482],[79.19651135282339,35.96098467192883],[79.18828420865054,35.946710702133714],[79.1863639546279,35.93032233075144],[79.1912426779864,35.91029014397981],[79.19317202655316,35.90866733407165],[79.19630251607941,35.898085211092905],[79.19252423972364,35.88644436463886],[79.1787474717105,35.869766923652605],[79.15550171589939,35.849827268822025],[79.143719737823,35.84140528909046],[79.1310174339414,35.83574111923929],[79.11615266508363,35.8361457805068],[79.08016916056482,35.84374293168429],[79.06225155165555,35.8460022418289],[79.0264678764733,35.84684736179065],[79.02013694471134,35.84826930501106],[79.00232101251584,35.856332992192335],[78.98861973981758,35.86698395955517],[78.98491766036074,35.872503157663175],[78.97398334785782,35.87958613842699],[78.96890073837079,35.88838696959732],[78.96231635683284,35.89206558408557],[78.95901018827806,35.892108654249],[78.94729886629193,35.883008218154146],[78.93842127088664,35.87909306241181],[78.91216776685798,35.875086133696584],[78.88946796934727,35.86857196912115],[78.87234210319025,35.865855624815254],[78.86180576232437,35.861690391206025],[78.82228122471975,35.85534867659459],[78.80297568186563,35.85531434892681],[78.78868046196607,35.85883970633722],[78.78291392552734,35.86092436124267],[78.77307807025892,35.8677638395302],[78.76730332501518,35.86918237058745],[78.7554388708158,35.86839599658185],[78.7496391955263,35.866446026998005],[78.74248691074371,35.8678356019571],[78.71738763495563,35.86784890994596],[78.70184187304409,35.859053422509305],[78.68994950369739,35.85578907680036],[78.67950912715844,35.858574399010706],[78.66349658535376,35.85689939899828],[78.6567370116743,35.85346638696893],[78.62947556915083,35.824204324509424],[78.6180667629215,35.81666284543991],[78.60949550201104,35.813380780471164],[78.5885142642839,35.81087233606803],[78.57912762325145,35.80757481876611],[78.5762139771532,35.79230958498795],[78.57340537914604,35.78917541651458],[78.5681658797929,35.78833610078016],[78.5654466138509,35.79062075909923],[78.55910156955576,35.79199667888582],[78.55122917997005,35.78393986741935],[78.53385893252982,35.77493201121081],[78.51983154802713,35.763286139728564],[78.51223596800816,35.770205932476244],[78.50763846135101,35.77220680127829],[78.46331869789498,35.773716052494365],[78.43446888752374,35.783865992269796],[78.4217956746844,35.78483412847868],[78.41488729777285,35.77883488596558],[78.4111656691789,35.76537410135012],[78.40311154771632,35.760726505767934],[78.39839680013483,35.755812982739315],[78.39608849007902,35.745708886043246],[78.38468117056158,35.73502495980199],[78.34878483676124,35.72359870784919],[78.33996303571814,35.72208926449525],[78.33744405994833,35.72007208664451],[78.30192567074431,35.72079284448637],[78.28794793163576,35.725169475946984],[78.28186479205988,35.724887874733724],[78.2719359674478,35.72147056212111],[78.26778993788275,35.71697199874967],[78.26604966671704,35.71047145631894],[78.26956971695444,35.702595237083926],[78.26758472134941,35.69675495789562],[78.26999454642208,35.687765416286595],[78.26689356385799,35.677661966052256],[78.27066942105057,35.66841105632261],[78.26757729767172,35.66301628811982],[78.25791603536868,35.65794922991654],[78.25367090186478,35.645155329269755],[78.2500887699565,35.64472871628021],[78.22894199068872,35.65138710005823],[78.21304934433016,35.659829971209945],[78.20551799115901,35.66644601350259],[78.19826723035993,35.66867811740326],[78.19632298772603,35.665773295941506],[78.19840591586677,35.65314470549805],[78.19710319161811,35.6481049660984],[78.1894846255077,35.6361345198473],[78.18468679454207,35.62355271354414],[78.17779897377909,35.62181591036841],[78.16685186926662,35.629748455313575],[78.16246674859701,35.630692827674125],[78.16080653888281,35.62890287304646],[78.16021917363764,35.62598010135724],[78.16408167244128,35.618966095740404],[78.16509278468408,35.61269409334949],[78.15023847580943,35.57768978308724],[78.15019617593936,35.57071805595098],[78.15527583266407,35.55155450081571],[78.15361058609608,35.54999338839593],[78.14589201144321,35.54915007765345],[78.14282749239476,35.54196359978516],[78.13592942275284,35.53839629949431],[78.13070359306334,35.538227216446444],[78.12384911776383,35.54119542816147],[78.10962268006892,35.55140978255503],[78.09973224855372,35.55101732879257],[78.09149464529605,35.55577389422177],[78.08682508387159,35.55534375402044],[78.08099578663553,35.54888807700365],[78.07633126386145,35.54868285608501],[78.0665284297645,35.56246290152711],[78.04494288726085,35.58484663589218],[78.0405750825168,35.586907084163045],[78.02296791879337,35.58743577444659],[78.0023154635619,35.582620723553646],[77.9896491596653,35.58136310521422],[77.98387670243062,35.58385539253419],[77.9778622830757,35.591961977223775],[77.96375948410673,35.60339220305218],[77.95111683824138,35.60649644882568],[77.95292517026456,35.60084252328443],[77.9572721520604,35.59794661209446],[77.96463959053995,35.58709962148532],[77.96538866511264,35.57111806571265],[77.95705522598718,35.555181493919804],[77.93627847446317,35.531685567226475],[77.92987119668175,35.515279440279016],[77.93230468248078,35.511910238635096],[77.94243548519978,35.506002711573785],[77.94802161477651,35.50508280715127],[77.95865774499555,35.50007320927483],[77.96354403216901,35.4955405951261],[77.96240414283693,35.48745079133073],[77.96372644676546,35.478664146812434],[77.96783213568608,35.47371193729424],[77.97963037506565,35.46778873633008],[77.98290841557241,35.46416325970375],[77.98477496920572,35.45921441122414],[77.98117736381647,35.455394500132],[77.97049336866422,35.45770958584444],[77.96308570721925,35.46493341955966],[77.9549040528342,35.46904682835242],[77.94613647679671,35.47786571300094],[77.93883345920108,35.48137515117497],[77.93137350323025,35.4889650808247],[77.92068195504305,35.49397865535019],[77.91793151666218,35.49172487154101],[77.90460181501322,35.46884572127942],[77.89992597795822,35.46758368922383],[77.88964229635098,35.475571089630876],[77.88572469039633,35.484486787571655],[77.87857749367157,35.48538312743091],[77.86755232286572,35.479606515821956],[77.8631742863106,35.48074432702401],[77.85332228112986,35.49227476175173],[77.83852097645052,35.49951690669144],[77.82620571799714,35.509035676328494],[77.81906543560513,35.51067042933363],[77.8171374776307,35.51246309615573],[77.8108237099787,35.51248747937831],[77.80696787218301,35.51072750295572],[77.79651202036666,35.50084706789147],[77.78572985732,35.494816995544625],[77.77146559606001,35.49487477890051],[77.764015417353,35.49715045898574],[77.75699556310786,35.50175110007143],[77.73610688419433,35.522708114523994],[77.73225591167426,35.524069416455234],[77.72760008998199,35.52340462269865],[77.72314217613007,35.5146684791772],[77.72146350513839,35.49843996433111],[77.7251575976739,35.48440657486515],[77.72412521332518,35.47661660626716],[77.72162858943659,35.47505256340679],[77.6853427227727,35.47722507696642],[77.68263267264723,35.476337432753155],[77.67876469412039,35.47050472674164],[77.67103031630523,35.47007614942703],[77.66446597258795,35.47213357858601],[77.64938977085501,35.486795699920094],[77.6436393762437,35.488625105719905],[77.64143582681794,35.487740660921475],[77.63758710008614,35.48144384722485],[77.62656742517328,35.47384099887148],[77.61636534203484,35.469350007209925],[77.61279531761988,35.46915994898529],[77.60183454074854,35.474149797845996],[77.59248227375036,35.475964327152724],[77.5806728584302,35.47465037514024],[77.57136605337206,35.48300674751141],[77.56751818542955,35.484589860917424],[77.55925455618149,35.48576627617706],[77.54907990579505,35.481492860724416],[77.538643793559,35.48086237033266],[77.52901243886657,35.482695485981935],[77.51942141134396,35.48719984914777],[77.51115796894555,35.48813977162433],[77.49109863266852,35.48233703170911],[77.46361370726873,35.471388519864604],[77.44929758806416,35.46241658228308],[77.438331945019,35.461063232933896],[77.42898022150166,35.463580700814305],[77.41248911929733,35.47261870133542],[77.40510321684536,35.47398909859936],[77.39298369949586,35.47355700343189],[77.37788316240204,35.477196810267],[77.37240702254843,35.48079928298307],[77.36499267404474,35.493183735160414],[77.3578168857411,35.4949968233023],[77.35315486297861,35.492306120638034],[77.34740338140563,35.493211423556204],[77.34118013339167,35.51173561777614],[77.33096305557444,35.52409320760654],[77.31952136920916,35.53209787195601],[77.320946188878,35.53631550037517],[77.32540969294604,35.53713692854774],[77.3441091820037,35.546334162061555],[77.35818774891789,35.549165909344254],[77.37710499768536,35.54986146864951],[77.39058537735036,35.54533486986287],[77.40760607234722,35.52774819289641],[77.42411375475672,35.52345925118033],[77.42986384753425,35.51823730241182],[77.43399277048127,35.51690352110364],[77.438933102997,35.51757484543276],[77.4452575920418,35.52450836173307],[77.4504843245382,35.52609653601229],[77.46064168864342,35.52470740596783],[77.47111379816977,35.52063079089959],[77.4823830097971,35.52735053061696],[77.48529310934651,35.53152461826511],[77.48238920727431,35.535897418255274],[77.46756894454899,35.54155997759585],[77.45931310998265,35.54722322694511],[77.45936225950675,35.562738335964696],[77.4642984831284,35.572829909331006],[77.46323771201673,35.57957337495674],[77.45555071404453,35.59312020756954],[77.44374170655942,35.60011731542323],[77.43767402429489,35.60168778944001],[77.42584026193549,35.6100536029536],[77.43026534146554,35.617445579971275],[77.43356479062209,35.61855709902284],[77.43549951021583,35.62172562205808],[77.43221050487273,35.629822091560015],[77.43661409939608,35.64059761466689],[77.42974778969091,35.65408769117357],[77.42511947980267,35.659287285865275],[77.42081075815315,35.66112631904559],[77.40280397168914,35.660683407306635],[77.4003121690584,35.66203699326161],[77.3852090960205,35.68926945833692],[77.38079935702063,35.693095999933405],[77.37500229493014,35.692902489227095],[77.36952395779758,35.694690705536345],[77.36788151226796,35.70392374276304],[77.35714991269384,35.71721862573946],[77.33703553035133,35.71903442413998],[77.32631440333654,35.718589264376874],[77.32371417045795,35.7160799024993],[77.32024625933792,35.70670015204405],[77.31392167776653,35.69862625820855],[77.30952387827506,35.6995238511696],[77.29738865028969,35.707624714050155],[77.2841777786847,35.710567358520166],[77.28143882885809,35.71575978506718],[77.27626794462299,35.71990231530157],[77.27287619985935,35.71734351361124],[77.27094874673799,35.71081744959565],[77.26655909047446,35.70858433772173],[77.237941376925,35.71220506633006],[77.22691523234556,35.71198153770206],[77.22331051229935,35.714476123865495],[77.21974743994627,35.7277333352651],[77.21585434003254,35.728192481981125],[77.20595752508899,35.725962775540665],[77.19246253073271,35.732481270334574],[77.17897132996177,35.73045817176944],[77.166018578474,35.73407384486529],[77.16187199105497,35.740014337683306],[77.1646194128931,35.75812756551238],[77.16296143728886,35.76623157953384],[77.1571654262275,35.76756291335283],[77.15249426580175,35.76578518206088],[77.14228044797079,35.769169598941005],[77.13484225278938,35.781296729785254],[77.12573837535723,35.78219411049753],[77.12131547693673,35.78626227504947],[77.11827718060965,35.795902879227356],[77.11441028185789,35.79726917215572],[77.10453177188487,35.798168261082594],[77.09871625031371,35.79547287789609],[77.07888970166283,35.79705303883401],[77.05740757141803,35.78378679433712],[77.04147264405395,35.77816750915326],[77.0194182070232,35.774131709402866],[77.00318902031808,35.77458088713826],[76.9664943510299,35.782646742872885],[76.93398979792585,35.78354358802392],[76.92762407800592,35.78690212607654],[76.90835282743956,35.790924355976415],[76.89371354380307,35.79922039295809],[76.87464075264262,35.81473221677834],[76.86413174840919,35.825954602078866],[76.85666328539281,35.830644841376966],[76.83018351730362,35.835777099797326],[76.81057292544375,35.844282838768265],[76.80559508197672,35.8490116251981],[76.80256078584767,35.849889790731424],[76.8014564644111,35.853043486226056],[76.79758903924642,35.8552931449517],[76.79285171340854,35.862246096428805],[76.7844653428516,35.889420157257746],[76.77781107058786,35.89815115655159],[76.75648708156234,35.9176803203344],[76.75151240735164,35.920589679091165],[76.73374976052389,35.94235159068927],[76.72156176729538,35.95290000982175],[76.72787528970724,35.962336662055066],[76.74078881086831,35.97043562063368],[76.75312817740877,35.98213952541573],[76.75176714082005,35.98594664479924],[76.75313023185583,35.98954626535658],[76.76848663070223,36.008902822147775],[76.78197568899111,36.015171313953374],[76.80376625848373,36.0163475650977],[76.8065432330979,36.01812770740645],[76.80737683015559,36.01993721882701],[76.79761896662006,36.03788923019761],[76.80063375313796,36.04732174618687],[76.78431434952705,36.05201591498508],[76.77078713439823,36.05977025641107],[76.743905907412,36.06967177407091],[76.73836137342613,36.07395507818643],[76.7247933828682,36.077935836557],[76.71841869776182,36.08266725407714],[76.70752227799414,36.106873306711634],[76.70558112915796,36.11336333675786],[76.7058788137752,36.12202885663976],[76.70252745367338,36.12831592365643],[76.69606558167891,36.135350180983664],[76.66359280557975,36.1575132246403],[76.64690298974637,36.17407099609204],[76.64324790026376,36.18347969333627],[76.63607984016659,36.184372491706256],[76.59997008012942,36.164998318416906],[76.579786877853,36.167637718655726],[76.5617831043383,36.17251294752435],[76.55705775124653,36.17632724514681],[76.55257161143015,36.18481865687346],[76.54367506516547,36.19220310500447],[76.53440857919207,36.195453781355525],[76.51792935451249,36.19796207839494],[76.503486907026,36.20666936181436],[76.48052644447097,36.21085322147542],[76.45595558468256,36.23993136973053],[76.44844368542721,36.244389511280815],[76.43207227654801,36.25060267073371],[76.43125167002745,36.25151055246886],[76.43454834877969,36.25713128547869],[76.4471947316365,36.265718369248475],[76.44886007971428,36.268845575274156],[76.44435278816593,36.27758211774261],[76.43538560737068,36.28787524367323],[76.43082934416464,36.30759691466818],[76.42055934120424,36.312269763396955],[76.41114203707787,36.314470638014086],[76.40306853715788,36.318927813468974],[76.3788078809086,36.33902323550717],[76.37487808661206,36.344155793554705],[76.3679660787102,36.347047942404004],[76.35124351119993,36.35930296302456],[76.34264037087678,36.3621839694722],[76.32707804043787,36.36193778735429],[76.29098521094897,36.34852605195289],[76.2677381265296,36.34662367431457],[76.25360852901889,36.347223921787645],[76.2499769852783,36.35012098436715],[76.247202765797,36.34988562476974],[76.24250548236296,36.352120978641324],[76.23051200403762,36.359921606280466],[76.21376618812786,36.37507828149933],[76.19748985065024,36.3868702506104],[76.19348384148833,36.38810133240207],[76.17938372219379,36.38678880493194],[76.171992267255,36.38972645782155],[76.15342906250743,36.40502149080254],[76.12396739971484,36.43687845039443],[76.07615817185996,36.47369102143796],[76.06809757893421,36.47696197091568],[76.05501579613394,36.47848400492575],[76.02474210842666,36.48546107064243],[76.00090979765076,36.48600889720433],[75.99592651218973,36.48374619823335],[75.97564603314783,36.48876115389635],[75.9636877373407,36.48937283354195],[75.93060038782306,36.50036657997464],[75.92225046461226,36.50185935252091],[75.88963675901459,36.517359703293266],[75.84796369379535,36.54372796410985],[75.82323062431789,36.54805151959715],[75.80845876102336,36.55240010322797],[75.76827272829803,36.57273425076846],[75.7472440756934,36.587808366196214],[75.73229401179952,36.606517698118466],[75.71863299440577,36.630397214414415],[75.68945457850702,36.6711534762818],[75.67410919480267,36.6954222680568],[75.65097874314802,36.721673458653356],[75.64057635187095,36.729201670788655],[75.63772327018927,36.73498202192167],[75.62248338822508,36.749642128921835],[75.61540456676823,36.7609851934875],[75.60839543211938,36.76319243161936],[75.59924861970825,36.76312022646334],[75.59227799044584,36.764835139745685],[75.56987264361715,36.7753829411584],[75.51290894701015,36.79144936180262],[75.48715753924165,36.80354476978073],[75.47793513449761,36.806150489536094],[75.47315473534019,36.81013151336168],[75.458935229046,36.82994095475044],[75.45561416283039,36.84512296665906],[75.45156498602603,36.854249793348686],[75.45140327400355,36.86588297312943],[75.44699828439656,36.87973608507389],[75.44298571753325,36.88660913236026],[75.43678415844334,36.89082373637183],[75.42929363999002,36.89052508755981],[75.42129032724006,36.885977339858016],[75.41598974873574,36.8865824833764],[75.41314024863715,36.89126272137145],[75.4140605088653,36.902686148554835],[75.41253579204533,36.90891665695983],[75.40772477740461,36.916056042019534],[75.41050962305735,36.92094747465501],[75.4213969689423,36.93093396631866],[75.42574128364015,36.93836268980249],[75.42718739517767,36.949982508463904],[75.42201530540359,36.96002559253935],[75.4124515974454,36.96687104777101],[75.40017380053615,36.96741053075732],[75.39490900372624,36.9655932191082],[75.38557532556626,36.95877152208635],[75.37523317261713,36.95981671502534],[75.36736575071507,36.965100256074095],[75.35094989858555,36.9803697632542],[75.34647243739295,36.990823300773684],[75.34415532294918,37.0024307825031],[75.34285306043449,37.03192949675321],[75.34487074303803,37.04315297739731],[75.34276276986708,37.05183086474875],[75.33184960101084,37.054633726041516],[75.31445505234558,37.05329849615447],[75.29343790536336,37.050887420515096],[75.27820523687092,37.046281936974424],[75.26393098544668,37.05128027438769],[75.25088514424078,37.04823385857742],[75.22462498189941,37.03679171030802],[75.2148613601629,37.03825723678972],[75.20793837484825,37.03616258544895],[75.2012653188118,37.020464133927874],[75.19235535531027,37.013555914575534],[75.17991580775094,36.99987715101372],[75.17236289860608,36.98548431323593],[75.15006786130118,36.966456844516586],[75.1348310605585,36.956723070714304],[75.12686167717663,36.95484306447133],[75.11407146955116,36.948177289085265],[75.09495242234016,36.94215044647791],[75.08432655447473,36.943030810716664],[75.0712220227382,36.95379352983332],[75.062065990019,36.95923488338275],[75.04802573265818,36.96374972654519],[75.03845300202136,36.970145201275045],[75.01774262881014,36.97572748435334],[75.01181984569905,36.96533897333427],[75.00766503510215,36.963739913932955],[74.99682454534246,36.96407113680698],[74.99015549399576,36.96217412178828],[74.97613233965967,36.95212490539217],[74.94035106747077,36.934082467819394],[74.93164455800786,36.92482688998513],[74.9269789338993,36.90822163763295],[74.92118512550678,36.90544706755952],[74.91390500596776,36.907807739681516],[74.91272210170666,36.911167549381105],[74.9099157638608,36.91180680508404],[74.8916068245594,36.93640264155715],[74.8869485253137,36.94530406660226],[74.86815763447231,36.964297445015745],[74.86095232752854,36.97583962080478],[74.8550272150859,36.97912600720758],[74.84506870834025,36.98929154850737],[74.84042265762332,36.99885107979105],[74.84114624339827,37.01628366810775],[74.83908708827306,37.02164806322554],[74.83289006298054,37.02424131288092],[74.8179018099072,37.022054352003295],[74.80449865122063,37.022544423559964],[74.7989402903658,37.02336447698622],[74.79220238135588,37.027062749186655],[74.77789417810561,37.029134917110696],[74.76516078712524,37.02628159170274],[74.76242890703986,37.0244580762498],[74.75818711976058,37.014109326329844],[74.75157978357197,37.01088933479775],[74.74906824225963,37.01107895191461],[74.73894151519721,37.01564985523606],[74.72728075129362,37.02533411635335],[74.71885028423617,37.043991937459964],[74.71753624660477,37.062101325828394],[74.71197153196601,37.07365877077967],[74.70773463870825,37.07695770947453],[74.69498057569666,37.077491176566696],[74.68409853795657,37.07419028865223],[74.67062650992887,37.065283761740716],[74.666041298513,37.06049548234796],[74.65830697010506,37.057073310133944],[74.60553093458674,37.049851652961195],[74.5808969654546,37.04278410888929],[74.57959801592676,37.03808921528616],[74.58354225064141,37.03634793093266],[74.58785108278369,37.03147776826944],[74.58849925049896,37.02792421447248],[74.58171041150399,36.98534043302226],[74.58220115395704,36.97684932656057],[74.57823894575034,36.96238999550894],[74.57774904322184,36.94794446668641],[74.5744611742478,36.94936448825308],[74.55916222895195,36.949916672867175],[74.55352323891043,36.95297496076478],[74.54541043230705,36.96557640220033],[74.54210087261197,36.97582974875047],[74.531272425667,36.98619268926967],[74.51952898621465,36.98848102582764],[74.49418694700938,36.98811305281714],[74.46791989189472,36.99177397094098],[74.42898651312049,36.989378909584445],[74.42629256888978,36.98622513789638],[74.42612523700683,36.98174673922176],[74.41523604328734,36.97240745100555],[74.40556608798721,36.968897469896206],[74.38778395490436,36.9673087962197],[74.36742348717462,36.958268987258066],[74.34972634459905,36.94255157564049],[74.32297481996676,36.92202268574903],[74.31203382848969,36.9151433146352],[74.28257435489155,36.90236358642602],[74.27136446531051,36.89525390724941],[74.26047305724387,36.885916134331296],[74.25020052103429,36.885524710230186],[74.24320366186402,36.88696089879329],[74.23231078864512,36.89362750348414],[74.21688075489487,36.89824738186036],[74.1795607431846,36.90338943249435],[74.168209487524,36.901889586038465],[74.1617440177767,36.89727955247821],[74.15595246864717,36.8880913867859],[74.14875044414737,36.86147953903276],[74.14690234101175,36.84757955064936],[74.14184247057943,36.83945277860062],[74.13336577531902,36.83415137512833],[74.12729996244838,36.83204710740608],[74.12007195597573,36.83169720417277],[74.10855281147667,36.836412895129115],[74.09180447489422,36.83793696293969],[74.06540833097483,36.81311238114222],[74.05491528351581,36.80576646727178],[74.05129025615435,36.80592918129588],[74.03900137852611,36.81779395800157],[74.02513077609166,36.825630508951235],[74.01982857163682,36.827083761948984],[74.01061596212247,36.826921295662714],[73.99904942520413,36.823585934207756],[73.9934169883727,36.825938051747585],[73.97049286267082,36.83943366274184],[73.95695095020568,36.85620850381042],[73.93694052899252,36.873293265569146],[73.92818861418363,36.8774091141467],[73.92293692738707,36.8773194149951],[73.91754568641272,36.871394970573476],[73.9125355467146,36.870623428863496],[73.90210522232371,36.87537336629623],[73.89232089531822,36.885926720731675],[73.87791873996724,36.893743473631616],[73.8482295339133,36.899250077568865],[73.8413170939217,36.897756015406856],[73.83499228058497,36.88623590275921],[73.82919639349097,36.88457584781116],[73.81722305000454,36.884991956169245],[73.81380697437129,36.8876387768762],[73.81251750117144,36.89297836425891],[73.80882751573353,36.89581842525064],[73.79778453582719,36.89293242032386],[73.7924949940246,36.89306347218229],[73.78940936995684,36.89389617100653],[73.78337990112601,36.89959825279408],[73.77528652328556,36.89990210517749],[73.76681651328744,36.90399612821005],[73.7587788462659,36.90339630051449],[73.74814945610655,36.896034698174844],[73.74453181199817,36.89573871565136],[73.73657078564344,36.900951473276564],[73.72787684450964,36.9032399212673],[73.71036795198683,36.91209540985545],[73.70000353159855,36.91348751482343],[73.68948937283199,36.911464943058604],[73.68551089074549,36.90514125900131],[73.68444229620604,36.89527251703373],[73.68060306107338,36.88490634994116],[73.68694338112851,36.877639294156495],[73.70196781744312,36.86941827545621],[73.71001298629545,36.860614369825555],[73.71394334832723,36.859825184696945],[73.71823485017109,36.85654201961506],[73.72051274955965,36.84583433406158],[73.72338167931952,36.84276832898507],[73.72248632667913,36.8353337200557],[73.72368109858348,36.8333386385944],[73.72567467489642,36.83203377627507],[73.74034778639151,36.833675278969],[73.74331748736341,36.83273243484979],[73.75423758672201,36.825881671235265],[73.76262166567648,36.82444460561925],[73.7706376410789,36.81746266075538],[73.77736491673079,36.81467332477115],[73.78548471043064,36.813460413184885],[73.79739487001308,36.815508008521874],[73.80547070106127,36.81474506280358],[73.8086068742283,36.81212267403873],[73.81421794912222,36.79777848220067],[73.82006564295699,36.7921767582788],[73.83300915617042,36.78727843282195],[73.84160313637273,36.787204052492314],[73.84770126883058,36.78909174864458],[73.86135034671594,36.78802526810534],[73.86891885241062,36.78155775976256],[73.8768734890487,36.770609015660625],[73.88572889516843,36.763599117527235],[73.89921381491865,36.74905429014666],[73.90441753167909,36.735344519923046],[73.90559915943419,36.730839256330626],[73.90438848645101,36.724969246911314],[73.898902341162,36.72172950831248],[73.89631660799029,36.7156518819329],[73.90077289229839,36.70632038019875],[73.89370720331249,36.7010485529305],[73.8832165471689,36.6986232993022],[73.86540805032905,36.69941926914993],[73.85587840199497,36.70192757327362],[73.84601930551332,36.70666552380436],[73.83398435107318,36.70912746798405],[73.82609671348393,36.713260928444015],[73.81434056646361,36.71618543432294],[73.80821918740287,36.716066845282285],[73.79916791261866,36.71208002415676],[73.78998773767609,36.703862351183204],[73.7822659497495,36.70171361591173],[73.76859322461252,36.703232657934905],[73.74956130949238,36.70778871733722],[73.74759981112015,36.70933823456335],[73.72424673088699,36.70935770912257],[73.71774717815947,36.70315182073347],[73.70797500356338,36.68820410277368],[73.69975314507764,36.684223834768204],[73.69001699831415,36.68494782340292],[73.68319577145985,36.68907231778752],[73.67649319139343,36.6905120816491],[73.66285781730778,36.691362850188796],[73.65412104180632,36.695450828278354],[73.6507928402724,36.6953793027339],[73.64592292040362,36.691466979327515],[73.6323557850418,36.68942434611438],[73.6281642674856,36.69048221290251],[73.62474874880797,36.693309271302326],[73.61778542913703,36.692966325903285],[73.61217263396918,36.69440208905894],[73.60664615252733,36.69786779736381],[73.60440264783438,36.70364938733951],[73.60546997395267,36.71329387622649],[73.60250979332619,36.7181746921903],[73.59941235102264,36.71967921206806],[73.5902576379284,36.71927255403955],[73.57828993406531,36.71232255702114],[73.56854266885358,36.7125659374326],[73.56401607250996,36.715389630916434],[73.55954765735225,36.71552159545513],[73.55055529588117,36.709971809826186],[73.54311511991466,36.708705474345436],[73.53718172141203,36.71127423811038],[73.52910024265577,36.72007652877704],[73.52325957723974,36.71995933185946],[73.51456829152602,36.714853095352396],[73.51067168728429,36.71477152290157],[73.49873318315963,36.72235299302753],[73.49367603641929,36.72734985114755],[73.48573707268793,36.729280724569776],[73.48170542560791,36.73323007374438],[73.47837207493103,36.73337717305242],[73.47152530627818,36.730306267228],[73.4625846841742,36.73104083069711],[73.44961303123449,36.73614086599889],[73.44440246661668,36.74253969060686],[73.44075591831586,36.74446540809902],[73.43549130566066,36.743900216733664],[73.4284078614732,36.73952396489841],[73.41385853243423,36.73405384654154],[73.39924425879354,36.73108959116598],[73.38894886315495,36.7308810261373],[73.37739478047968,36.73486789301376],[73.3713182111818,36.734285328996464],[73.36835031402705,36.73199176116816],[73.36436651301585,36.71917041035107],[73.36005245537336,36.71480191293068],[73.3486717071238,36.71387981553687],[73.34058313437174,36.715298784096944],[73.32947089974704,36.71483748196658],[73.32262421553582,36.71222695297894],[73.31725049889616,36.70674547652487],[73.31395776374814,36.705767305443885],[73.29331205396602,36.708240005333664],[73.25245392959278,36.708469875364074],[73.24767636821338,36.702331453010515],[73.23363026551516,36.69888958120322],[73.21419123211138,36.69933344090248],[73.20909074525207,36.70126695671678],[73.20599291667281,36.710571384554044],[73.20193917013842,36.71498739179873],[73.19310909920495,36.72015881565318],[73.18863682129142,36.721183144439976],[73.18671848786687,36.720476090723935],[73.18501823395218,36.71438809996937],[73.18038165597,36.71136722994714],[73.14470965575072,36.69938413521254],[73.13175403773869,36.688561106961856],[73.12572669432177,36.685965914834355],[73.10208420834533,36.68700724558414],[73.09633412724588,36.689811200690315],[73.09071263728458,36.696398394105415],[73.08467135021789,36.69906810191361],[73.0842269554434,36.68165971420876],[73.09367807036057,36.66645182474616],[73.09011121969343,36.64237686318961],[73.09126035448645,36.634114484192594],[73.09690609896035,36.62393074624299],[73.10832289929726,36.61499693262414],[73.11172082447035,36.609445528791355],[73.09219140258284,36.58594944562566],[73.0898768465409,36.57092946016513],[73.0838242263286,36.565166125157475],[73.07315014408528,36.560874654751785],[73.06628643679954,36.543683888613714],[73.0607603551079,36.537097069565675],[73.04420462900055,36.53332782569731],[73.03933635394691,36.53027492391408],[73.0212349030183,36.52427231986644],[73.00659760914999,36.51544583546604],[73.00110426116902,36.51394718368613],[72.99525990996534,36.51426291726068],[72.99475187673954,36.51268694255759],[72.99861687106306,36.50671461868052],[72.99179349454039,36.49624334373084],[72.98962308755881,36.47981680578903],[72.99162414054967,36.478293986792266],[73.00104096317904,36.47896046648293],[73.00311951832111,36.475437807874926],[72.99131864867428,36.457465200246645],[72.9879982526021,36.457358534799994],[72.98560817429598,36.461563819318144],[72.98194949065385,36.46307272009244],[72.97579258142696,36.46425665869009],[72.96860156667941,36.46363001810835],[72.96211550395248,36.46685191900002],[72.95252850806895,36.464161556022304],[72.94276122030777,36.457875762332264],[72.93193974159448,36.45784498486387],[72.9279319178359,36.46178560443656],[72.92154968777947,36.46231790636199],[72.91292687794476,36.454939698851945],[72.90181270655233,36.44883927778977],[72.87874630387927,36.44268953588613],[72.87673133418787,36.4374612687032],[72.87936051347992,36.43349183300239],[72.88730123611265,36.42921402324424],[72.88946834448058,36.42409891940008],[72.8859407555812,36.4141533509673],[72.88937746910972,36.397194654096495],[72.8825795463506,36.38670799483657],[72.86932834308436,36.37852259719847],[72.86566096464878,36.37283063626961],[72.8501837397016,36.37202387361043],[72.8290139725458,36.36050728580807],[72.82185279444195,36.35294603914923],[72.81495519641555,36.33773993297183],[72.80765426740288,36.333089876263045],[72.79836816581707,36.32972128400388],[72.79126307133293,36.32056898241052],[72.78250418649577,36.315269165608925],[72.7778445460653,36.30924885913083],[72.7598966217102,36.307675000324195],[72.74977730754546,36.30449952437607],[72.74551557407341,36.300614752689285],[72.73491476022139,36.29560274499812],[72.72293939911884,36.28343861027287],[72.71695783654383,36.281032529349716],[72.70225358674594,36.27936249354656],[72.69169199064424,36.27501936636031],[72.68786821012787,36.267969758026595],[72.69459810616547,36.25871750516552],[72.69536360643309,36.25355950578876],[72.69327680565505,36.249467384457546],[72.69110312431434,36.24919345628513],[72.68452573077093,36.25463128618634],[72.68117557890315,36.26218933151745],[72.66283967127856,36.263531896881034],[72.6360177914915,36.27584956456792],[72.61871881728428,36.27248762435016],[72.59641456056966,36.26361792095264],[72.58780358693718,36.25061206376938],[72.58475122119626,36.2298909528742],[72.57736066187778,36.22231302863463],[72.57115496874115,36.217871295201974],[72.56294829178375,36.215880074107474],[72.55980347951856,36.21175712763261],[72.55811996391253,36.20473770018958],[72.55960666313138,36.19601679047486],[72.55086561524251,36.18053462097515],[72.5532105028999,36.17676380116484],[72.5579978379497,36.175110022366084],[72.56199506428294,36.17160217197727],[72.56753895597353,36.15785888567558],[72.57313044489928,36.15033814118192],[72.56542799410761,36.14228996509422],[72.55891825807811,36.1394337343184],[72.55653089807385,36.136657784715965],[72.55185969902067,36.13612430914594],[72.544132790697,36.121989019756086],[72.53592743516134,36.113897447444174],[72.53310888561754,36.1026902892379],[72.53474823195921,36.088285207743354],[72.5303944499168,36.07403567774418],[72.53427170085382,36.067376493221104],[72.53739651931573,36.064992740688126],[72.54291003806821,36.06470866407187],[72.54936491128836,36.05611225933609],[72.56738146243958,36.05475361467035],[72.57118021050235,36.05188146945193],[72.57495261636774,36.05250092709679],[72.58552746351802,36.049832763526695],[72.5925864474786,36.039923556538554],[72.5953460819128,36.026732518582435],[72.59323691847408,36.02419592092053],[72.58291734378133,36.01909017920224],[72.58073722062164,36.01219140961996],[72.58149050380149,36.007505076918676],[72.57256898347367,35.99581749887591],[72.5660258777263,35.99384906807069],[72.55543799063122,35.99606092692818],[72.55293683833509,35.989467719144216],[72.55392702612005,35.97892458202119],[72.54858382614884,35.96867006142179],[72.5477336614623,35.961916257230484],[72.54497256636733,35.96022303764124],[72.53788968093198,35.959853789892634],[72.53046314588306,35.9522624068037],[72.52879454949738,35.940306631430076],[72.52936520607835,35.92593724440246],[72.53305453574626,35.91683416469073],[72.53760606842377,35.91400256961447],[72.54980819754172,35.9118504294442],[72.55300958660172,35.908347805825656],[72.56099161916109,35.908533815533076],[72.56877836875748,35.90672249748371],[72.59263560598589,35.87676461079417],[72.60091025037588,35.87047591309448],[72.61936504733347,35.87071068346029],[72.62802959648951,35.8686942556576],[72.63338983211162,35.86502076251594],[72.6388783417666,35.86650968965114],[72.64496323934543,35.86574684680426],[72.6597218444046,35.84859133658102],[72.67716028205973,35.840054762784916],[72.68260445177049,35.835005435377866],[72.6904512133193,35.83227941917471],[72.69402103651169,35.83260244350856],[72.70292393476376,35.83754645707478],[72.72270454446931,35.853325173964265],[72.73685328597696,35.8581993603226],[72.74905343341135,35.855783102911744],[72.76606184753996,35.844541490271865],[72.77080693482202,35.84305619855468],[72.77658910733652,35.8434280829793],[72.78300591264991,35.849201040726314],[72.79148137182847,35.850986380137726],[72.79736545282213,35.85517385419257],[72.79831626205828,35.866893278420434],[72.81474910043153,35.86952870727367],[72.82456788591293,35.8742212055289],[72.8278867548492,35.87907714837104],[72.82951819242322,35.886761954404506],[72.83426396691641,35.88598678399774],[72.84496664882317,35.87949629055868],[72.85691077280853,35.87709060348351],[72.86767222339961,35.877346547962816],[72.89534118216005,35.88208068277055],[72.9009113127417,35.8810723907024],[72.90421269686937,35.86420969780846],[72.90394795077873,35.853034163578855],[72.90934214990523,35.848228082353614],[72.92868797950484,35.8449476984469],[72.94587954934008,35.845284223275485],[72.95709779684648,35.84712399918777],[72.97415169357612,35.855634725353525],[72.98646434781347,35.85905199844541],[72.98719080729893,35.86064830491409],[72.99898494497091,35.862929543833104],[73.0039437827815,35.8630729164862],[73.00606806127314,35.85816375032431],[73.0133620777496,35.85472152957192],[73.03737404439596,35.85416933561862],[73.05525341022684,35.863137641833646],[73.06727701535169,35.87396734515528],[73.07204189521428,35.8821398486582],[73.07701460301291,35.88563011237818],[73.08485873429464,35.88268428920327],[73.0884476484834,35.88277028031746],[73.09968310860887,35.87763875306507],[73.10764798065134,35.868134037853906],[73.12691875690734,35.85236143601867],[73.13930549700262,35.84599567228901],[73.15343719207954,35.841083035364875],[73.15366662719293,35.83710863770074],[73.14738392957173,35.83263842257685],[73.14586753025293,35.8287838611173],[73.14406625000493,35.81029517508358],[73.1372489407035,35.80047868515601],[73.13498960230555,35.79322691576357],[73.13423214734956,35.78489646184005],[73.13649462176625,35.767198732906536],[73.13207092384505,35.73788483827025],[73.1330517682527,35.72551647306534],[73.13550771552718,35.718601670397106],[73.1385509930123,35.71799421657437],[73.17100776292972,35.69646617536404],[73.17829235607883,35.69324492477142],[73.18708377879398,35.685789649334026],[73.20658493429278,35.67656152527343],[73.21477535354012,35.67450026768353],[73.24117111028562,35.651685351133096],[73.25863253582884,35.64036817491274],[73.27197087927084,35.62918718908827],[73.31320425868444,35.61501850343541],[73.3320906826612,35.610830893521324],[73.34252935329931,35.61046326027889],[73.36666132049447,35.60492161754041],[73.38668133481656,35.584799319755746],[73.40208915951797,35.56562217737036],[73.40604789214291,35.56344834509724],[73.41015873290172,35.56353852304949],[73.41387760905769,35.56677175694006],[73.42123638508303,35.569165097277164],[73.45363882309522,35.57137377925295],[73.48096476735122,35.57671987550543],[73.48483943832679,35.57611132071861],[73.50138761050101,35.56589273135154],[73.50586843857917,35.56485828072027],[73.51462700451464,35.56548174981191],[73.52354237407775,35.570415577584356],[73.53125844332925,35.570572091391625],[73.54490341411713,35.565230986485346],[73.5570563757446,35.555113394451496],[73.57030395520701,35.554265789078045],[73.61483755453145,35.5625627032677],[73.61866175006969,35.56444395290822],[73.62394363642943,35.57040138903022],[73.63464969779858,35.571282464407886],[73.64189394311671,35.56849669857081],[73.6554507748022,35.55774884501062],[73.6718855247903,35.550662063481695],[73.69697892559645,35.549088072299014],[73.71997090823817,35.55291835947281],[73.7269202141905,35.54923795552145],[73.73027956929838,35.54008985661335],[73.73423198946199,35.536093698823436],[73.76282093356616,35.527635913598886],[73.78408143775209,35.52511074228187],[73.78683948665997,35.515059801217944],[73.78624766307621,35.498610522957165],[73.79049970462455,35.47641214642573],[73.79373325966003,35.46927254196663],[73.79431142346169,35.45961367964867],[73.78406957999039,35.45267354523628],[73.75389788610238,35.44147654431731],[73.73808742660913,35.42738771447813],[73.72405221778018,35.40355557938966],[73.71081993572881,35.386653778767084],[73.69963230101058,35.35783451711586],[73.69905731994004,35.322679692757106],[73.7065593062863,35.31177750170724],[73.7162070417578,35.2919372391583],[73.72447029281523,35.28262683560121],[73.72626387360293,35.27772213769276],[73.71852557464155,35.252115965071255],[73.71436279059799,35.227916382484864],[73.71556355157043,35.2254602321529],[73.72563748913512,35.21844695622326],[73.73090589268088,35.21677145363395],[73.73706378017306,35.22093899418576],[73.74391724576634,35.22126915766859],[73.75525499166332,35.22689721110686],[73.77671375043923,35.24332777631781],[73.795584221235,35.24500785434225],[73.81075678614667,35.241935067063366],[73.84597171995614,35.22907094100924],[73.85708854137886,35.21510836883289],[73.86437019434192,35.21027230650117],[73.88056670482871,35.20988465531764],[73.88734290452766,35.21271508173123],[73.9164302007137,35.21169004969971],[73.93233510458447,35.20222475304837],[73.94924336374538,35.1859165741335],[73.95836018769751,35.17390143789862],[73.96413344173789,35.173775021043866],[73.96979429138344,35.1772635105811],[73.97796043366031,35.17921914599202],[73.9798164572419,35.181292209349635],[73.9912398808575,35.18419177007928],[73.99893740438984,35.18387421107758],[74.00234555867894,35.18054848305201],[74.00481207822594,35.17001027106113],[74.00823243522979,35.16556531162007],[74.01993543701951,35.159246771137646],[74.03169055726556,35.1495213388788],[74.03821876535221,35.146951382629936],[74.04415238663722,35.145908815987696],[74.05447409213372,35.14925231985893],[74.06183661952377,35.14961169894315],[74.06970940975793,35.15310931602585],[74.0795385671878,35.15419377038734],[74.08672544878675,35.1518443622349],[74.09486813335656,35.145439659542774],[74.10116625055963,35.14532613823786],[74.10916298225192,35.151669456048126],[74.11333918532915,35.15138324230884],[74.11614705300599,35.14837275596045],[74.11607629989754,35.14588432928258],[74.10991712601788,35.13578847204491],[74.10980519413664,35.12969757621738],[74.11594469760672,35.124300776338885],[74.12817957211348,35.11778210662396],[74.13335822947067,35.1120897580048],[74.133484414022,35.10748800859642]]]}}]}