{"type":"FeatureCollection","features":[{"type":"Feature","properties":{"shapeName":"Mizoram","shapeISO":"IN-MZ","shapeID":"1811400B49281905528064","shapeGroup":"IND","shapeType":"ADM1","displayName":"Mizoram","coverage":"context"},"geometry":{"type":"Polygon","coordinates":[[[92.26538822723951,23.725112310834334],[92.26907015209451,23.720787976547822],[92.27271115419677,23.719028989339584],[92.27984421143898,23.719006149530255],[92.27865898862616,23.710076985998498],[92.28175417346347,23.709215445247096],[92.28274060090052,23.70695855039484],[92.28502505709224,23.7069686220275],[92.28772937776291,23.701756894467504],[92.28965202938909,23.701599679332233],[92.28931882987717,23.695955450509732],[92.29098396954569,23.690508961127595],[92.2901031462568,23.686773599115416],[92.2916596751159,23.68188607380751],[92.29008802581392,23.68122103979325],[92.28509839195877,23.66999071250435],[92.28378546284853,23.662639767879238],[92.27434642578042,23.648685057290106],[92.27489327700624,23.646418529782117],[92.27289142002316,23.642280762639444],[92.28229698496546,23.638176007059784],[92.27973611716084,23.63684582677315],[92.27708442968098,23.632285615114803],[92.278828049766,23.62511663554353],[92.28034807019363,23.625203545299378],[92.27954625732724,23.62911687305176],[92.28104787037637,23.630802301553206],[92.29145871659695,23.627665589674912],[92.29582132279049,23.622318678976875],[92.28802010133492,23.61840366990204],[92.28734703232011,23.596264723011686],[92.28870418100018,23.596039355333243],[92.28949173850138,23.598703035962778],[92.29329188613936,23.595083682028026],[92.29664627715695,23.588567459338332],[92.2988805606434,23.59301468815662],[92.30124724053137,23.593138861934527],[92.30401192798912,23.583306071717566],[92.30671883401116,23.582797797793212],[92.30826032417413,23.578437264752626],[92.30537208422881,23.5734826670551],[92.30757915325371,23.56955729447995],[92.30722501311422,23.572000259973137],[92.30924328411419,23.570645150955922],[92.30891773106198,23.566740818496175],[92.3080075705925,23.56540351557626],[92.30662494119937,23.566406370533585],[92.30654239231298,23.564202957988144],[92.31176183138746,23.56043868496545],[92.31308901676127,23.555813260340024],[92.31201333990408,23.553653893139092],[92.30960720780547,23.555386124482517],[92.30820935106996,23.550748676924112],[92.31007693057933,23.548164186895324],[92.30967200059196,23.543355773524024],[92.3076028903368,23.541263526174586],[92.30637573506482,23.53612519540892],[92.30900351029011,23.532619130853234],[92.31386414966373,23.533361572444495],[92.3144130948625,23.530097515559124],[92.31742628148069,23.5276639505511],[92.31720605320056,23.5247704449915],[92.31339902985738,23.520905379641583],[92.31304483671728,23.51613740081231],[92.31439628019703,23.515473562847774],[92.31669642726179,23.517704722779122],[92.31841041731546,23.516563905498927],[92.31545442822805,23.513105283807345],[92.3199544766601,23.511872922125633],[92.3188959962524,23.504170331369004],[92.32067624065155,23.49637951430267],[92.32051785958213,23.494986812840807],[92.31763363780107,23.49399785626181],[92.32184839118035,23.491390507570284],[92.31589745217336,23.486486544657343],[92.32157427745794,23.483166266258877],[92.32141198422546,23.479931840659134],[92.32616936495208,23.47820629137715],[92.32267449988194,23.47787280652233],[92.32334621872891,23.474364935027552],[92.32140821489449,23.473312008518015],[92.31967022994127,23.47417522338376],[92.31739390440121,23.47125930476162],[92.32714311805881,23.465952697918645],[92.3311728553205,23.465811242965742],[92.33083877186633,23.45982545679374],[92.3257825360177,23.45841604701955],[92.32986379794912,23.454148555704677],[92.33173404814983,23.456740950840246],[92.33333780773161,23.456018247803424],[92.32700863756583,23.44920842547775],[92.32980439954592,23.44724393689568],[92.33376584238809,23.428788567385684],[92.33521470277051,23.43360001762768],[92.33817995259015,23.432669502119815],[92.3408954851339,23.435825363182868],[92.34610973823426,23.4337033620452],[92.3482186770942,23.418210083489587],[92.34738090287033,23.413412645339086],[92.35252636657948,23.413513297546505],[92.35686348307686,23.410693322617348],[92.35758271651414,23.405226868219085],[92.35494588177922,23.401142658571548],[92.35370869232551,23.405854851304888],[92.35238436179768,23.405243108082704],[92.3529568662131,23.392605569502617],[92.35401156830672,23.3890553085673],[92.35649590593734,23.39160793785821],[92.35815451305712,23.38992324241031],[92.35514782215675,23.387687753408503],[92.35587245626553,23.384577708544533],[92.35185277564348,23.38142768830525],[92.35528354412146,23.37948409919555],[92.36214306525797,23.38086895814853],[92.36437420553922,23.37987466251535],[92.35974971259256,23.37600887247355],[92.35648700902279,23.375136573651254],[92.35626728020596,23.37122280061834],[92.36256206645592,23.366697520244706],[92.36973988046053,23.37398345688479],[92.3687201021702,23.36728953474349],[92.37433851809669,23.3657274684764],[92.37780185140204,23.362292243697205],[92.37539724643939,23.357294659634228],[92.37893276836101,23.356266664608736],[92.37949427919393,23.351907237396556],[92.37493504525942,23.346943364483113],[92.37148210815684,23.331883709244764],[92.36392432654999,23.32322275223004],[92.36758038711136,23.31764172974041],[92.36701502879406,23.323490197790903],[92.37097222889315,23.31864570543353],[92.37579305403504,23.320422482100085],[92.37677797320077,23.318672615757617],[92.375552285776,23.313592456176735],[92.3855304791012,23.306541288515326],[92.38506935230629,23.30343112483903],[92.38259686435258,23.302138582037276],[92.38394094703688,23.29881990416134],[92.38205656723504,23.296536225049298],[92.38398244111818,23.292868557834616],[92.38199470475301,23.291572965964132],[92.38085608653715,23.285674402614326],[92.38814380672179,23.281472457748404],[92.38994217642839,23.273185225352655],[92.39376876957006,23.26520729565152],[92.39216856372352,23.264192405227156],[92.38803461200743,23.266046542297758],[92.3886752922647,23.259998906405958],[92.39788917289502,23.25597422354017],[92.39505896860867,23.248702451827153],[92.39871864309241,23.242053796535156],[92.4020849008549,23.242384673799865],[92.4034838256873,23.240887900024763],[92.39993256707855,23.23902543363609],[92.40045457270026,23.23643445307905],[92.3463333837057,23.23667263592186],[92.35118924044873,23.232441478736888],[92.3541790349369,23.2200597120544],[92.35327713088326,23.217485051354874],[92.35480019929464,23.206885771901465],[92.35248033241277,23.20597722240203],[92.35373617538333,23.20572326631145],[92.35262799658084,23.204789966019707],[92.35481281074291,23.20017943656412],[92.3527422101827,23.195156790517377],[92.35342136887685,23.186159183647934],[92.35434450371393,23.184018931048623],[92.35822349378947,23.185102879572884],[92.36131709579524,23.18200226832686],[92.3609202183061,23.180092673590114],[92.35572555656374,23.18041869258977],[92.35447946570392,23.178848503386792],[92.35728960252516,23.177925481007684],[92.3570876387914,23.171598472105995],[92.35862783268537,23.168462862343215],[92.36169869473804,23.167775894505816],[92.36253940465625,23.16460478841454],[92.36094381435366,23.16246986591609],[92.36426938472201,23.156994325457376],[92.36212761693001,23.156775555588087],[92.36118517190758,23.154847743926986],[92.36225281602948,23.152614485052823],[92.36002186978433,23.153186569986683],[92.36080984051051,23.15088927770573],[92.35924874820977,23.14959220524945],[92.36056361678273,23.149334135278288],[92.35813123591149,23.146217497167147],[92.36037905072106,23.14701768973979],[92.36142683668531,23.145318993017906],[92.35947972393392,23.144470636888837],[92.35986187803557,23.142030182057262],[92.3568925121353,23.13448829499053],[92.36757499721968,23.126884094668416],[92.36577835676997,23.124539067626145],[92.36606841558866,23.122072554205687],[92.36009754206722,23.113126523101037],[92.36101385869131,23.11194228120361],[92.35811589627968,23.106041392046297],[92.35973650825623,23.10555473006927],[92.35771702632724,23.103037863539857],[92.36068303342667,23.101711656472705],[92.36094879191864,23.098782865593854],[92.36272464535269,23.097364600773037],[92.36961585545912,23.096546163750368],[92.36896105638056,23.095092779863226],[92.37195062718821,23.08730627000549],[92.37497854527874,23.085354611500264],[92.37691003812395,23.08726787777968],[92.37965174218516,23.08648285810786],[92.38019951687912,23.080965672429002],[92.38555328642795,23.077806992207393],[92.38485713160863,23.074461426248085],[92.38273008540753,23.07394195967809],[92.38254729262025,23.072557957216404],[92.38826906061847,23.064983722837116],[92.3875354972558,23.062106998629563],[92.39069837553964,23.060293483376405],[92.39182826752085,23.057356304111387],[92.3905049359196,23.055184698637646],[92.39184405002209,23.053962094154425],[92.38967552051946,23.051982155446993],[92.39091433502553,23.049503802471715],[92.38845152641898,23.049272851058827],[92.38740591797101,23.039767423387676],[92.38337731887479,23.037914558605703],[92.38196271305078,23.033687893123027],[92.38442412028546,23.02852929650257],[92.37952056928906,23.012104324279818],[92.38428957331716,23.009714881058805],[92.38339955217808,23.00305878267367],[92.38143029505662,23.00000110072091],[92.38424969530507,22.99302454256415],[92.3815002765122,22.989154625659896],[92.38407713343058,22.985453845322102],[92.38393072331061,22.981805333496204],[92.37906386130703,22.981140826136787],[92.3806457900308,22.978438294318607],[92.37991818968494,22.97562815027184],[92.3778340586999,22.97650226782869],[92.37417019267707,22.971097473256354],[92.37502365957063,22.96378912843047],[92.37385413571572,22.960810661458144],[92.37674840515321,22.95928341183537],[92.37278553129475,22.95822230793263],[92.374672610534,22.953970974046086],[92.3761014816047,22.955669125985228],[92.37762655236085,22.954101522020043],[92.37565333546564,22.95004467547467],[92.37737296424436,22.948198335865452],[92.37448144185502,22.94706639143791],[92.37242317336703,22.94015549439916],[92.37540096097311,22.936960648505814],[92.37109776486086,22.936123616978193],[92.37261206302011,22.934422919871263],[92.3748298857773,22.93520390242144],[92.37616791561322,22.93398146270842],[92.37620658359462,22.929055466160758],[92.39163563368963,22.930728553269244],[92.39637157702036,22.929806521941217],[92.40038311261772,22.924275995069618],[92.39727518158486,22.91683947656964],[92.40092117742178,22.912134900667684],[92.4029123794873,22.912794798054748],[92.40452821512145,22.91773904435593],[92.40752682028592,22.91753351141995],[92.41365916777634,22.91338983968421],[92.41938150350984,22.91851617887382],[92.42061264281007,22.916836693155094],[92.41993751395832,22.90930050541069],[92.42635512775539,22.897087895778032],[92.43269925127741,22.892060923845747],[92.43371333155386,22.88587209594787],[92.4371315541606,22.8864357308496],[92.44548239724635,22.89656922211944],[92.44767917876463,22.89621952735832],[92.44994323331795,22.893136810701286],[92.44844382922608,22.876212081633195],[92.46012601884743,22.870617743043358],[92.45478665198753,22.869390661164402],[92.45269350012042,22.86208383069424],[92.46117148985317,22.86130112168836],[92.46004355709762,22.857985744618333],[92.46405011872328,22.85425175396076],[92.46216330897859,22.852186709862625],[92.45871901995726,22.85308891975995],[92.45657686139812,22.851440737578223],[92.46017037675784,22.84972963508428],[92.4583933303611,22.845461849611414],[92.4623221122562,22.843462127569673],[92.46269506221947,22.8418414149684],[92.4581736311887,22.8409551514793],[92.45432736584067,22.84308295747487],[92.45283993898646,22.842453724782406],[92.46162214588513,22.83027493981833],[92.45541762774478,22.825382178638094],[92.45803124911448,22.823073847269534],[92.45449043431925,22.81919309621644],[92.45883833868486,22.81882646577056],[92.45829610749453,22.816537154738896],[92.46118469868111,22.807822938993446],[92.46257630224396,22.808193225193893],[92.46253567234197,22.811254427079376],[92.46529514238455,22.8098684159911],[92.46650615582918,22.807989060091064],[92.46510473727356,22.803030729602085],[92.47183671201275,22.79664550856097],[92.46926331720147,22.782456764825362],[92.47173443791934,22.783749576515238],[92.4727400830153,22.782881492261012],[92.47249322328025,22.777111823263727],[92.47577631321712,22.771564620336147],[92.47288028847157,22.766776587949753],[92.4730239811878,22.764970872859866],[92.47585402018414,22.764507639007192],[92.47347415841769,22.75988479245668],[92.4768065281344,22.75938683678054],[92.47600911431796,22.75571878038817],[92.47929651167662,22.752897187405292],[92.47806262622652,22.750921223055098],[92.48248165650139,22.74704035468589],[92.49389560109408,22.74625081019056],[92.50021254788379,22.743170540544174],[92.49722958418505,22.740057860644452],[92.50125740983181,22.737726911088007],[92.50549311012686,22.73933776475703],[92.50792748435971,22.73687466941033],[92.50853759943945,22.732679856151588],[92.51243902224422,22.733385763766808],[92.51015296435638,22.729195538064634],[92.51628636557064,22.722958034918587],[92.5177693906799,22.717188409467763],[92.51384197242741,22.70896194004412],[92.51749215621021,22.70069682921445],[92.51908613583349,22.688470314920696],[92.52348785916611,22.67907954968016],[92.52272108329072,22.67478410221598],[92.52593206096816,22.67348777516677],[92.5259088134669,22.66601536598936],[92.52895127707849,22.66590093636364],[92.52662967195654,22.66190974846494],[92.52830951884292,22.659888756444605],[92.5246130313988,22.659755469198824],[92.52365161036428,22.65825727653612],[92.52439619066564,22.654445483741867],[92.52647123070001,22.654056665551764],[92.52707891583688,22.651817026400167],[92.52461485677547,22.65061944104651],[92.5246867866769,22.641088479741832],[92.52766527047731,22.636242047086142],[92.52620431068637,22.63443699065897],[92.53220022205143,22.63309235860023],[92.53201990681771,22.628269206247868],[92.52885379819209,22.626192637839374],[92.52717375996457,22.621669928554162],[92.52945307150465,22.620583614141886],[92.5280184027071,22.616482425723238],[92.53136640221146,22.612341918402986],[92.53470929299677,22.611375448757624],[92.53393829503955,22.608352249305923],[92.52952115212507,22.60968422062643],[92.52977796429512,22.60439216284583],[92.53491322044772,22.600224242987853],[92.53694256857347,22.59407485811589],[92.5354448218733,22.590515970822075],[92.53879101576395,22.589597619620758],[92.53653131444649,22.587654407848984],[92.53341877236126,22.58884959897554],[92.5325425709045,22.587786457867402],[92.53398776077067,22.585488554662927],[92.53830265384626,22.586164712140967],[92.53664633743045,22.584521129242013],[92.53626317092746,22.57912588243469],[92.53793480451719,22.576371319224712],[92.53726191696202,22.574562373332103],[92.53285027443204,22.572034872474553],[92.5271800221204,22.572821568499716],[92.52810608007545,22.5653803146131],[92.52201927896658,22.559698365446696],[92.52758824173834,22.557014648676617],[92.53053184665126,22.55373318179371],[92.53200157669434,22.549771723486376],[92.53085056082922,22.545944099154454],[92.5321983221146,22.544384672082046],[92.53692555448201,22.544983606850195],[92.53708207244551,22.54233449774559],[92.53979401082981,22.540776982982546],[92.53807639607396,22.53513311053569],[92.54123030467969,22.533789458662376],[92.54079785929517,22.530401206382166],[92.5388652336744,22.52926628936952],[92.54055485782429,22.527389842119565],[92.54006459147818,22.525224322005162],[92.54255524785853,22.52480852009638],[92.54103272562286,22.522227876748563],[92.54362783361283,22.5211677321661],[92.54511162229012,22.51803608742572],[92.54314590542923,22.513872961010566],[92.5445927967045,22.513578285285906],[92.54648387973499,22.516816414159546],[92.5473757936244,22.51484773972228],[92.55117713422509,22.513068653815957],[92.54633974864093,22.51047676472946],[92.5507483934928,22.509728651976157],[92.55045631705795,22.507403941096292],[92.54813688496067,22.507320945364803],[92.54777128321643,22.503438752081866],[92.54908461477193,22.501491476023737],[92.54717495637803,22.50128296853893],[92.5467602661951,22.499407660157324],[92.54354396779621,22.49929016071188],[92.55089840136546,22.497898221735024],[92.5504873754106,22.496068830587287],[92.54446892711168,22.49443866924311],[92.5436913615714,22.490682136975522],[92.54701233526043,22.48883734352317],[92.54504033019255,22.483945381779144],[92.54781214847702,22.4752998849642],[92.54610258621939,22.471072875636885],[92.54825911872136,22.465207680881473],[92.54692886110928,22.462417594596012],[92.54927395627762,22.459567473485723],[92.54867547438083,22.457998146884695],[92.55025216412984,22.457350421937402],[92.54873376426299,22.456136063372746],[92.55094188970669,22.454174846929543],[92.55189210515634,22.449028451973934],[92.55006278938647,22.44393050995263],[92.55260531359302,22.44223906882349],[92.55167706913858,22.437906906666925],[92.55442843008909,22.436835586248776],[92.55352210812083,22.43406679412448],[92.55573310727513,22.429564088121488],[92.55138101496365,22.42771890449819],[92.55526667772513,22.427692466404924],[92.55636165308954,22.424343191997366],[92.55574025696647,22.423165581777443],[92.55132217351591,22.42308377535452],[92.55436689369547,22.417839745654845],[92.55258371989024,22.415277569253547],[92.552395881266,22.4097213076823],[92.55497736810135,22.411103734804836],[92.55724444548557,22.409237530637945],[92.55713930307144,22.407289934975484],[92.55447110096341,22.405816663169418],[92.56006921855773,22.401615259311658],[92.55638965088202,22.398989374508712],[92.56002736335367,22.395903411230925],[92.55882452727309,22.39419403531763],[92.55999292464064,22.39194287325681],[92.55839115842045,22.391378455952523],[92.56073868622657,22.389621971169976],[92.55979445176006,22.388194597380803],[92.56113930430058,22.38496402974057],[92.55934004975339,22.38195303879631],[92.56260237513244,22.379941064894233],[92.56105556604474,22.378119577425593],[92.56360282886438,22.374998876293017],[92.56255143526597,22.371598714987247],[92.56685646214476,22.37033314836041],[92.56802990265433,22.3610858759973],[92.57189048624969,22.358164025886484],[92.57212587899011,22.346955871094746],[92.57348128224359,22.34512312437535],[92.57240522450074,22.342738018506296],[92.5749924713337,22.34202620063086],[92.57386604864608,22.338342901794633],[92.57594149471896,22.33771533110701],[92.57433969795606,22.334596148544808],[92.57598903805535,22.333179030281233],[92.57413023957788,22.33200503737373],[92.57606955764756,22.330953072318092],[92.57691894888465,22.325442081326404],[92.57993726578144,22.324942335726742],[92.57863828750753,22.32363459147748],[92.58087929847716,22.32183672114003],[92.57813538815361,22.316771112965213],[92.58013289010422,22.315184166976934],[92.57884444098379,22.312717075116858],[92.58040916696984,22.311545854501524],[92.57788107958825,22.311048877283106],[92.58177617376187,22.30793042333312],[92.5802284492909,22.306734757612983],[92.58085306587422,22.304858466346918],[92.58369458803489,22.30408018368697],[92.58074190295108,22.302839816835974],[92.58350349571269,22.299172885919813],[92.58258748271915,22.291036696426072],[92.58125891663474,22.290647360461296],[92.58253621137432,22.287857556025713],[92.58111457982649,22.285642191631823],[92.5837251514158,22.2845892488529],[92.58213777710476,22.283544120829838],[92.58223052007304,22.27702447554183],[92.58044155213418,22.273484680380427],[92.58284884665275,22.272496752987262],[92.58098086739308,22.268623233813326],[92.5839965540227,22.266819501309378],[92.58350850831195,22.265261184585427],[92.58607742951311,22.2630547999871],[92.58425348746529,22.26101309342461],[92.58564696221887,22.257732764929294],[92.58683918829763,22.258371618452635],[92.58976914061486,22.255512093868173],[92.59110315498145,22.2489562454854],[92.58935820988138,22.247246044765102],[92.59113304193095,22.246108421693812],[92.59180009043675,22.239645501867304],[92.5901315829842,22.23566124102944],[92.59172648517732,22.234875488825892],[92.58908857965055,22.233034053360434],[92.59035446488768,22.230725051092197],[92.58807645770139,22.230113898310016],[92.58922882642932,22.225788792112667],[92.5878594867125,22.22424383973688],[92.58996678075712,22.222745953247117],[92.58778380185319,22.215615137621477],[92.59135988720142,22.214351208907654],[92.59011754590959,22.213088184449553],[92.59276935106874,22.210633508661658],[92.59316317338762,22.204626023795168],[92.59444943690694,22.203859566996222],[92.59368494993892,22.196340881635304],[92.59520277757896,22.195895127789136],[92.5960194746313,22.193186015206802],[92.59490275554543,22.192830482200968],[92.59677002064444,22.18965992015558],[92.59476708208975,22.18410914241312],[92.59599112559756,22.183250098251246],[92.594074912197,22.18131205234846],[92.59633791841637,22.177919868248054],[92.59575313133608,22.17516372196874],[92.6032755049477,22.17212692503315],[92.60736673368719,22.17213034243196],[92.60581252427814,22.16765600861981],[92.60857329957287,22.16466485077137],[92.60715239476208,22.160520442939646],[92.6104737664048,22.138241981718977],[92.60993031530231,22.135386093274267],[92.60798863646006,22.134412474367544],[92.60774652521964,22.128883656021507],[92.6053791832733,22.12393577532095],[92.59730725899844,22.123971945740504],[92.59373634435296,22.12591198229097],[92.58908242169929,22.131738179299916],[92.59263775596447,22.138578468151312],[92.57810050297786,22.143842063615313],[92.57509020174838,22.13797642024232],[92.5636179762567,22.133762496278752],[92.56213207474187,22.12817539038877],[92.57475905578522,22.115279003696013],[92.57592330742771,22.10598461196827],[92.58184326982878,22.09790074563839],[92.582061236151,22.091615141899275],[92.58492367198976,22.08220161959676],[92.58823491961921,22.081535422489225],[92.58947245312764,22.07956771397872],[92.58957917747497,22.070010556472383],[92.59184307751804,22.06536528764722],[92.5959746927161,22.061408078083556],[92.60188272728676,22.06089838062656],[92.6001154761199,22.057597799580535],[92.60001704232435,22.051911399775218],[92.59724049171494,22.046994743723502],[92.59881102530932,22.042109611851213],[92.59326587507908,22.041340641231574],[92.59218805394335,22.038907792283645],[92.59410122205506,22.031829378925035],[92.59933556687507,22.028759242012587],[92.59966243685751,22.020006029344664],[92.59761022031957,22.009345396986973],[92.6012614129104,22.00354096687134],[92.60967046682657,21.997761761387686],[92.6100876085119,21.99300847257159],[92.61242667867964,21.991304606094396],[92.61096961398373,21.98366471677086],[92.60363484273944,21.982062241912345],[92.60316723998965,21.977135856026244],[92.60748591407425,21.974612056069006],[92.61970429371566,21.97905506683138],[92.62443885094586,21.9826446646017],[92.63463420480451,21.98354362860374],[92.63630206008014,21.989707701741192],[92.64191721063057,21.992763923191838],[92.64348416264188,22.002496010150995],[92.64788584195708,22.005441558976678],[92.6512106667237,22.009995443767004],[92.65179312806573,22.016342317064783],[92.65827933272632,22.015602494834187],[92.66075781873118,22.013454122357516],[92.66328004280894,22.01433970589854],[92.66709006113528,22.01328790383802],[92.6676039343087,22.01093449638522],[92.67004982494349,22.009635237139854],[92.67103496239983,22.01103561635239],[92.67963540328559,22.01152301181652],[92.68538946302333,22.04173615353873],[92.68195507702968,22.073348305597982],[92.68155487846893,22.103465069612607],[92.68776722991853,22.103839907041998],[92.68869449161606,22.072370165986147],[92.69029978552035,22.072288736322786],[92.69221135732583,22.075566691899073],[92.69126842811144,22.08953418755931],[92.69232846709615,22.10085571185145],[92.69105927336383,22.105485382360783],[92.69271558798302,22.12083370519094],[92.69154646567503,22.13409739908324],[92.6922393452368,22.13930822327197],[92.69596900207445,22.13722989150634],[92.69683498249994,22.141676042162217],[92.69470580639329,22.14727610313288],[92.69471163376453,22.153537309443493],[92.69954201428611,22.155041425206605],[92.70057555296994,22.151649239702785],[92.7042665597925,22.150277394407098],[92.70726883637154,22.15181625392915],[92.7103918950338,22.151195410056587],[92.71292307980652,22.147306796093808],[92.72701841018231,22.149098500753556],[92.7291867797848,22.142631891239187],[92.73266862107998,22.139469295265965],[92.73509155616595,22.134240068208285],[92.73908719248116,22.131728562402202],[92.74083422167267,22.132490534543404],[92.74135286939183,22.130567951054054],[92.74338067421192,22.1302528263964],[92.7442855184515,22.131559394098844],[92.74657674973712,22.130710777698294],[92.74768347596377,22.12777460461739],[92.75326392549307,22.12477823370139],[92.76000252351085,22.125812037947085],[92.76165059608729,22.121237660539077],[92.76449602681772,22.120806231205364],[92.7630776220184,22.11922020405004],[92.76628231687873,22.11939321695262],[92.76550356735893,22.117392287600097],[92.76749439303038,22.116991753285404],[92.76653977583581,22.114689483631587],[92.77035650727225,22.11227524981304],[92.7710162363051,22.10948387783621],[92.7731013177077,22.10947813608209],[92.77271816467946,22.108192202815637],[92.77444100583362,22.107155208262373],[92.77935789052381,22.108031949810265],[92.78435493009017,22.10578921507211],[92.79008729102225,22.10540943157126],[92.79262411990986,22.10048490736835],[92.79586382660837,22.099253751957484],[92.79589291226065,22.095879568521646],[92.79781628164075,22.093943946432802],[92.80113775479307,22.094818710021816],[92.80387742237355,22.09830858122155],[92.80743369807315,22.096082793962758],[92.81002481035674,22.096268782248696],[92.81335844130814,22.089486462409308],[92.81777713740972,22.086942401227933],[92.81640423856774,22.081441403530366],[92.81834212831608,22.0752183407274],[92.83647961246744,22.07217399164458],[92.84085588023986,22.059490454622516],[92.84693246750395,22.06108013680073],[92.85199715739773,22.066744657465588],[92.85451952700254,22.066106174313273],[92.8578901020683,22.067576235123912],[92.86253176182002,22.0629304883395],[92.86221319586407,22.05798173045117],[92.8653357353001,22.049442994350674],[92.86457448496205,22.036556271032847],[92.86306461549712,22.033124409315572],[92.8641381471774,22.02501953644944],[92.87560784391155,22.021450795544165],[92.8796635811125,22.022328455243287],[92.87842042774365,22.015103772130058],[92.89126182137394,22.011464809912237],[92.89406680995027,22.003548494464336],[92.89550926983627,21.98921716680782],[92.89885641234785,21.980091413684057],[92.89800852129724,21.973581613925084],[92.90089753289539,21.965232162117996],[92.89950500766108,21.96470275382171],[92.90095503765,21.95857154665882],[92.89925668816372,21.95692177198087],[92.90202886307938,21.953065330368506],[92.90150840435656,21.947905241209064],[92.90347564476022,21.941362724067993],[92.90620677026064,21.9414213080131],[92.90769680582243,21.944256242002787],[92.90630581940218,21.944843902381503],[92.91196774343283,21.951789881194387],[92.91171541744929,21.962376810841516],[92.91369401794799,21.966291177734686],[92.91186901049824,21.96642329753673],[92.91384646654328,21.968479747057206],[92.91318093259706,21.9711568431639],[92.91549523890733,21.979815448782638],[92.91933138922528,21.98210887373399],[92.92040013468176,21.990543793419913],[92.92230609650827,21.991349750554605],[92.92164270773895,21.993338940412183],[92.92945206703264,21.996230620078226],[92.93502072617385,22.006081959894907],[92.9343249216975,22.010589474007904],[92.92853081686103,22.008724448749547],[92.92663699307063,22.01540300129942],[92.93036439962847,22.017475645992356],[92.93979442659428,22.014079709505737],[92.94011043504662,22.016768887040897],[92.94188777968401,22.017154653406305],[92.94173461872468,22.0204503057554],[92.94508622316827,22.02169355077596],[92.95123519308471,22.030018281714067],[92.9562919562444,22.029650987005677],[92.9599213278587,22.026158074759564],[92.96101692485728,22.024250343088333],[92.96013164143298,22.02171564598589],[92.96443695577268,22.01751795392973],[92.96257951105633,22.01582028660112],[92.96395836662698,22.015110671166788],[92.96428362503181,22.011186160177186],[92.96742341301962,22.007056958947445],[92.97125928575811,22.006574778517695],[92.97211277510954,22.00269490551487],[92.9779701761393,21.998245341930517],[92.97898737806133,21.984885293787006],[92.98142270181346,21.98074937324821],[92.99085630317578,21.980569696485336],[93.00075292677823,21.978386737350597],[93.00339402312088,21.982521887061104],[93.00425331379242,21.994588891800515],[93.00152393461691,22.0066893456885],[93.0046788502341,22.0135177451293],[93.0044172805863,22.01706615727216],[92.9944545751149,22.031423121013585],[92.99746952692259,22.03613836151786],[92.9941029808009,22.042196039007298],[92.99568859621058,22.044864223853416],[92.99515574972004,22.04851783369654],[92.99814925245369,22.052352926741552],[92.99756450489926,22.05473847617688],[93.00177190646626,22.05804643469291],[93.00144710081234,22.061050140229543],[93.00312550410605,22.062931323370393],[93.00179064981467,22.06761991170951],[93.00687928340402,22.071447515438056],[93.0038905327582,22.074548651792515],[93.00571318662193,22.076906367446995],[93.00533803219295,22.080548574081995],[93.00907054926645,22.081935925937714],[93.00920793311445,22.08480900979777],[93.01190642371893,22.088861720595755],[93.01100121206835,22.092443398529483],[93.00711462494047,22.094827594476232],[93.00684964618618,22.097923950086827],[93.00447734823442,22.100880860921606],[93.00453860345533,22.104735953284443],[93.01107094109734,22.10450176253989],[93.02217654615525,22.101299422989673],[93.02492682912744,22.10222035204861],[93.03778328391178,22.101134944016444],[93.04732351799329,22.09867770763508],[93.05917615215999,22.101228135030674],[93.05756508208843,22.103887782976802],[93.05857903660078,22.10718376519753],[93.05816294055442,22.114051818990795],[93.05612788273673,22.117912898618588],[93.05668555686513,22.1220249096071],[93.05409923350027,22.12182195705161],[93.05346581522377,22.12611818270497],[93.04474664670185,22.133986588141855],[93.04459977844112,22.137857037651656],[93.04211757610591,22.137011419789413],[93.03910214369955,22.139187257523318],[93.04363567324052,22.143202371702266],[93.04068872659477,22.143076332065796],[93.03945603770067,22.145267179415264],[93.0379909124217,22.144053913228344],[93.03664211088721,22.14483815673709],[93.03660215112846,22.149333294659122],[93.04059395612894,22.15065263982238],[93.04392403244672,22.157200474526157],[93.04129706750182,22.159638785826147],[93.04733001191447,22.16276393455704],[93.04883370815678,22.169394606572403],[93.04860530071598,22.174148316068024],[93.0395413039908,22.187316433881364],[93.04145226943345,22.190694814014208],[93.03800831278879,22.193389017891292],[93.03775719863256,22.19540883133186],[93.04242892320025,22.196043715334234],[93.04252662846213,22.19970014789385],[93.04584470149109,22.202975594310956],[93.04937066264313,22.20125170406218],[93.05360227021373,22.202894971196606],[93.05717328008065,22.201705477751773],[93.0626672002885,22.207753062218888],[93.0884963707196,22.196820435255333],[93.10183371254016,22.199455517257487],[93.11089999547775,22.204308416919922],[93.11445524170803,22.191199470779267],[93.1234805704518,22.179495106400857],[93.12243335581607,22.176446454156732],[93.1236442929039,22.17401171518295],[93.12767967697545,22.173372624621724],[93.13971648913163,22.176148567803388],[93.14641209557655,22.175312640063925],[93.14721330297847,22.17671713384918],[93.1506913408067,22.17631481590959],[93.15553003523624,22.1813802610858],[93.15568879359806,22.184494407450355],[93.15738126720407,22.185883790365597],[93.15673954220613,22.188214451824717],[93.16121254416161,22.19651352109391],[93.15665644265246,22.20163839587586],[93.15291752148929,22.209403872983916],[93.1482904692424,22.211754099602793],[93.15189537883313,22.21728260640647],[93.14733554212907,22.229363419285274],[93.13943114736645,22.235462062099565],[93.14325856695818,22.238649612745224],[93.14173988142704,22.245657639389304],[93.14737942213574,22.249734177289927],[93.15374382602361,22.247412739116214],[93.16282533989684,22.250170201963783],[93.16715304743994,22.24630411418982],[93.1771190236773,22.24599862365235],[93.18200583995828,22.249697926159914],[93.19917356401433,22.255873907121504],[93.19834731248064,22.260072453455287],[93.20204103401194,22.264134406440423],[93.19805907364865,22.270065349488092],[93.19718662894641,22.279667536041647],[93.19372770367416,22.28824006812898],[93.19411237305862,22.290735057170615],[93.19835167649627,22.291452907542364],[93.1992387197202,22.29407688850324],[93.19744995659724,22.29639589515519],[93.1923212698243,22.296999871676444],[93.18978947150228,22.30049588608949],[93.19068563801625,22.3025027967287],[93.19543063097512,22.30164565175685],[93.19058475810816,22.309067218696274],[93.19573858782755,22.314404314682662],[93.1894090268946,22.32070286930917],[93.18907637894829,22.323137884990953],[93.19601548453073,22.32677053969269],[93.19656376407785,22.328971774443957],[93.19348294959018,22.334641875119026],[93.18572883219485,22.339879796468207],[93.18804769026865,22.34525623161891],[93.18675847398697,22.359024498999556],[93.18808794197989,22.36524998747685],[93.184126021234,22.369572089594158],[93.18337549139052,22.373654222254036],[93.18604715201239,22.380914106594137],[93.1898392435589,22.382609842184372],[93.18508402956873,22.38741550410172],[93.18474250267411,22.391432772069848],[93.18176905662581,22.394868942859347],[93.1843277774569,22.401675519641657],[93.18743284376234,22.403170522584023],[93.18699536960887,22.405747261666303],[93.18286308157268,22.410763019325934],[93.18167398522434,22.417588227295575],[93.1829175086991,22.422631203066853],[93.18556698452672,22.423991434078665],[93.18522542619107,22.42769012642709],[93.17791710853528,22.432894421124622],[93.17838831532599,22.43724184480472],[93.17691421497902,22.44013068310579],[93.16816378149196,22.44317832130116],[93.16317233932814,22.451184551789076],[93.15152219261297,22.454232724992725],[93.13887293604556,22.454220441213323],[93.1369241254783,22.460586271859007],[93.13117338411719,22.467873742257623],[93.13443188267316,22.482265139852196],[93.13321247087893,22.487459766471623],[93.13485540509198,22.492102050074415],[93.12622207149374,22.500804317867903],[93.1237387354847,22.508495321036133],[93.1283542282105,22.52364390032992],[93.12449508820781,22.52551613670253],[93.10926744668772,22.524575203941094],[93.1064147584681,22.526887951097223],[93.1122910771194,22.53297682897505],[93.11186749810672,22.535067439512844],[93.1090503220869,22.53668958047163],[93.10906804854243,22.54668568718752],[93.11186030349961,22.5577665395937],[93.11583403170165,22.5637388173476],[93.11951915276242,22.564712673306953],[93.12360035989663,22.568146342533634],[93.12616597709416,22.576022840095355],[93.1383689362554,22.583663975893536],[93.14015578237355,22.59271517965418],[93.13674951185169,22.59828556427351],[93.13740554880874,22.60218561363844],[93.13373739063543,22.61442727040108],[93.12722164757166,22.617695377340944],[93.12831084137893,22.623964957351873],[93.125462315054,22.6263192537772],[93.12159391701401,22.62595917817846],[93.11670698395201,22.6315107732922],[93.10769226610839,22.636935497488683],[93.1068692682726,22.64029993620556],[93.1107279142019,22.64761105173448],[93.10962547024421,22.655844802956224],[93.10129486979508,22.661174999153175],[93.10131709860676,22.665763550061314],[93.0954456587058,22.672286974640393],[93.09449144754976,22.680639031996567],[93.10094751642751,22.680981211173883],[93.1020053365735,22.683090284947973],[93.10075475323892,22.686873935248926],[93.09659822775804,22.686919794097655],[93.09874901373718,22.6942709943334],[93.09690604088003,22.699254786435045],[93.09258724372623,22.701201114595463],[93.09090132961846,22.704757931742215],[93.0924861248663,22.71253627139859],[93.09815123881451,22.718773659661373],[93.09864622670571,22.728947710916025],[93.10621174460377,22.743369665319648],[93.1071354328031,22.750940165743078],[93.10664780660564,22.754450945386342],[93.09970763292631,22.764227584677837],[93.10200508774017,22.767319677638717],[93.09532482721525,22.785574184767544],[93.09755474309279,22.79111657036945],[93.09420983469134,22.80620829589713],[93.0956592439444,22.808547511213288],[93.10494830997075,22.8127165795218],[93.11033740666645,22.818930366825736],[93.10850492164028,22.82078021429085],[93.10386609607322,22.82176411845033],[93.10308954562925,22.824051501011336],[93.10499995321813,22.826359224637102],[93.11183162388588,22.828304173225337],[93.11260910498449,22.830907244179546],[93.10951583266042,22.833193510229542],[93.11451607921232,22.83591672441498],[93.11767182307621,22.84250875216958],[93.11589668470111,22.846113987231213],[93.1184691219083,22.859442789311522],[93.11708128048987,22.863793195042962],[93.12415267287938,22.86799465006414],[93.12603048599648,22.87098808763253],[93.12705035681327,22.874817978067462],[93.12561198785508,22.876941603187202],[93.12838698258241,22.879612933654364],[93.13386120093949,22.892170079408597],[93.12889852372936,22.901846751737274],[93.13100372200445,22.906968688357193],[93.13622190523418,22.913280034287276],[93.13968314276997,22.91422908604906],[93.14712431676472,22.911322798939533],[93.14969950910489,22.908385754757294],[93.16286913815682,22.90965060996042],[93.16418540720329,22.91148424841959],[93.16279605931015,22.915835301460152],[93.15660206762831,22.91869225733479],[93.1541612237288,22.917756334671953],[93.15195134028208,22.922253000419506],[93.14770660922348,22.92569602034591],[93.1446689596835,22.933516175089707],[93.14607233836304,22.942338002172985],[93.14499891358228,22.94602140136009],[93.13773455498493,22.951018113673967],[93.14095985001134,22.95837626038705],[93.13676241525243,22.962418107622863],[93.13535006150485,22.97080231104994],[93.14149160954041,22.971640291737234],[93.14331661070193,22.975625915575105],[93.1385723139374,22.981938569682022],[93.14034548230705,22.98965965198919],[93.13583118839122,22.99213827235718],[93.13206852116186,22.990954750389538],[93.1265467208408,22.996850580364203],[93.12532628856042,23.002648210573618],[93.11974023893363,23.0023714874753],[93.12290079058091,23.007889832063096],[93.12511349114435,23.025106486261944],[93.12784643663153,23.03104175369893],[93.125464272483,23.036795179246127],[93.12650077470896,23.044013929138654],[93.13492626060831,23.04820433883729],[93.1329609138533,23.05448386215976],[93.13364820230078,23.058723962661112],[93.13637261558938,23.060757283729757],[93.14005087352143,23.059328427366914],[93.1393662324091,23.054014373210304],[93.14050914097879,23.053286308162857],[93.15123922779006,23.05404398929306],[93.15331293292792,23.046855620315217],[93.15236567652879,23.044479712451544],[93.15519961601011,23.043454188670857],[93.15946149680582,23.044473600342933],[93.16056690969555,23.048167963121518],[93.16859474824953,23.046633538927775],[93.1744789765669,23.053581155218044],[93.1830715446175,23.059687307939498],[93.18463149875278,23.059487038585672],[93.18646670118268,23.058192685967192],[93.18785757800845,23.052254789285684],[93.18934694522366,23.051757151439684],[93.19543820107803,23.054656839060126],[93.20132707907527,23.054652306985687],[93.20229273207312,23.05024660633225],[93.2099305383004,23.047923558825172],[93.21203272721928,23.037339718382782],[93.21600933721672,23.036145541042504],[93.21696812708578,23.034358947910608],[93.21479755211925,23.026921682364133],[93.21801203053134,23.02389470552108],[93.22448105221723,23.023631562526056],[93.22606107022436,23.019909993116993],[93.22921296211227,23.01989176754309],[93.23031449517832,23.017623423346812],[93.22798055259422,23.0136762013365],[93.22877069454844,23.01155789972951],[93.23570414882946,23.010786489846943],[93.24133288550026,23.006723583265703],[93.26447684242673,23.008440395806947],[93.26996300119056,23.011296487204838],[93.2723567967254,23.010044989874558],[93.27532824581884,23.00420345765515],[93.28077648040632,23.005556276744674],[93.28318045026006,23.008682385363674],[93.29065609440886,23.008814995562478],[93.29362002370507,23.006661671930505],[93.29849281189458,23.014197316721326],[93.30527495215249,23.02072934520743],[93.31315319426223,23.019112740185598],[93.31327893324917,23.02695766367504],[93.3196110974998,23.028846116757308],[93.32005204184523,23.03709713957989],[93.32306077102295,23.03597221713309],[93.32743093474302,23.039851863349114],[93.32680998148938,23.047623214813513],[93.33342595947089,23.049575476112473],[93.33248333568369,23.054195396558224],[93.33410434471558,23.059480882525218],[93.33580168269881,23.060342692707703],[93.3413795908942,23.05782248926118],[93.34299261210657,23.05877596380227],[93.33995705114961,23.067584512897994],[93.3449425895854,23.0710321815268],[93.35139146116111,23.0705089511875],[93.35109765007944,23.072976635440924],[93.34384901379615,23.075492578217986],[93.33961592400532,23.073233503457786],[93.33853699524678,23.07417082991113],[93.34298081812521,23.080963851028514],[93.34280470251542,23.086385770833985],[93.34563933459783,23.08806099205194],[93.34413504277252,23.09259362647598],[93.34652846999809,23.093444963945622],[93.34980863232542,23.091698851975497],[93.3534498078025,23.09674790907087],[93.35580940896608,23.10730149810331],[93.35765505520948,23.109309103425623],[93.35461797250643,23.114385968624376],[93.35532389201289,23.116608081127143],[93.36255117983343,23.115423601430912],[93.36556505096785,23.12176650102326],[93.3721015100804,23.126469392047238],[93.37686613841477,23.126842657922026],[93.37658958666466,23.132699532204846],[93.3838888502007,23.132841305426474],[93.38530227833338,23.134666222034294],[93.3855607811328,23.144517843689744],[93.38292940635813,23.144671014982443],[93.37776756366641,23.14085177104002],[93.37498020183254,23.14187562909974],[93.37133656497157,23.141076605235337],[93.36752973656282,23.14423666850428],[93.37097269338258,23.152305019295067],[93.3690870415663,23.15356154225406],[93.36884928266343,23.156154441440208],[93.37152482580397,23.159129949726147],[93.37080478208631,23.16628791473087],[93.37213078168394,23.170308951139297],[93.3681175213212,23.175373611684908],[93.37386071413896,23.177346048792913],[93.38041158133035,23.186941704241164],[93.37637043995615,23.190634486061445],[93.37978324123014,23.19970741709016],[93.37474764327683,23.204546163935564],[93.3776549589472,23.208072481265877],[93.37744350451247,23.212448731583457],[93.37937443770726,23.21498105533896],[93.38797556221097,23.21646674653673],[93.38310282792035,23.223596192442223],[93.3801958365418,23.225185582660707],[93.38130862639667,23.232382062841154],[93.3780795027505,23.234547483493134],[93.37854804962964,23.23818463677674],[93.37534878418688,23.244089233014996],[93.37593880575034,23.24785819654821],[93.36888634266049,23.250066713317093],[93.37148516967575,23.25471331815848],[93.37009132301968,23.258321077746807],[93.37353766558972,23.260740277518767],[93.36929399005157,23.263632581157594],[93.36810886695176,23.268769810049168],[93.3653157981209,23.268703615242085],[93.36881684719347,23.276028964689534],[93.36209838760772,23.279930400526837],[93.36347366429027,23.28164763612007],[93.36636823466338,23.281156631258852],[93.36964104068687,23.287127168276317],[93.36570411376708,23.29439147328886],[93.36835725382277,23.30133447386753],[93.36463453557236,23.305938282875143],[93.37133045912258,23.30938753769093],[93.36743604317698,23.309918622979897],[93.36327399665038,23.312906165900763],[93.36467656504956,23.314074021703167],[93.37114383502063,23.313623365328027],[93.37061239169854,23.316891837792816],[93.36640127559787,23.321462861192256],[93.37168943219831,23.326218250018194],[93.37248727091792,23.329387428142486],[93.36975424997222,23.33299125190986],[93.36200704601131,23.336659827459957],[93.35779005942027,23.34243195533554],[93.35537106075182,23.352605816700546],[93.3605156674682,23.356169092889907],[93.36608563635309,23.35647400355133],[93.37020129028515,23.358880477291116],[93.37443225196712,23.358804681768092],[93.37913486780077,23.360684383609428],[93.38139791803759,23.358078635687228],[93.38378387756818,23.361951297624593],[93.38769315614013,23.35946256530924],[93.3891220766182,23.365568512041076],[93.38789160925775,23.367653718483655],[93.39112496037566,23.36974689013965],[93.38690016472982,23.37160797966476],[93.38635857673324,23.374359941652695],[93.39290551199863,23.375209859691612],[93.39479422796833,23.377230340427335],[93.39603886445572,23.38294125654257],[93.40143293871643,23.384218931576257],[93.40191262470508,23.38967760181586],[93.39795642443089,23.39289307410229],[93.39772438869468,23.397030789548943],[93.39405937911647,23.398094889153008],[93.39123068849136,23.408228533958297],[93.39049118367137,23.418446100811657],[93.38810190666238,23.420479343280224],[93.38987308436538,23.427111766023344],[93.38892757698613,23.43284791470613],[93.3905959398099,23.44209789329794],[93.38765942080798,23.445543913553802],[93.3897576239019,23.450366601346722],[93.39294394012987,23.447654800642635],[93.39456918022672,23.447946691156734],[93.39254553640305,23.450329094858372],[93.39552988350732,23.453780535580552],[93.39205229483673,23.45785142598229],[93.39382971133935,23.458164292100978],[93.39370264733734,23.464354323280237],[93.39696814376939,23.46593011889555],[93.39910334487661,23.472020257742024],[93.39747645367626,23.472966470501095],[93.3982844110192,23.474552805653865],[93.39496990520023,23.47538499596975],[93.3924691499595,23.478696860888203],[93.39537912554141,23.4812947382678],[93.39579109832057,23.48387380487437],[93.39367540772298,23.486468623323802],[93.39519006251345,23.49184997345943],[93.39482188080773,23.503758178081636],[93.39662433874719,23.50520321281523],[93.3981318734907,23.510926918577432],[93.40174032513866,23.5100380951868],[93.40372285307177,23.511848369882827],[93.40375532896594,23.516857842004693],[93.40872147816461,23.517449399104972],[93.40913731280122,23.52342565058734],[93.41473274353451,23.530732586614093],[93.4182773411354,23.540116896205006],[93.4144856322712,23.54610099821908],[93.41217189908606,23.55578529070295],[93.40882255749868,23.55709833794181],[93.40900111023782,23.55869941803756],[93.41333750628637,23.560144125332727],[93.40961293481153,23.562688586533113],[93.40972234961313,23.56432948432122],[93.41303095529733,23.565112018600857],[93.4145221784319,23.571060928298344],[93.41830222896036,23.568717763591142],[93.42168302954897,23.571141502693084],[93.4229474909564,23.585057190682093],[93.42799493499334,23.58821520313049],[93.42558853699339,23.590936102197272],[93.42707760776455,23.594293672110208],[93.42541606045884,23.59699340490792],[93.42610403342253,23.59930927917863],[93.42408426133773,23.600079539560543],[93.4239155721004,23.601122279996332],[93.42539095164834,23.60094249749864],[93.42449189255915,23.602143873981017],[93.42120861038283,23.60293942013714],[93.42387015327965,23.604386920864936],[93.42113105253613,23.60672151366213],[93.4214136975588,23.609926943074914],[93.41980738137171,23.612005777876906],[93.4220762913191,23.615337365090888],[93.41924300581132,23.623344534874413],[93.42234954984542,23.624347665473504],[93.42118333179071,23.62718345783124],[93.42409833434498,23.62936727625519],[93.42233745403009,23.63097497609199],[93.42300890158585,23.63349997881602],[93.41801162396595,23.635592382156982],[93.41683557115553,23.63746573716101],[93.41808739147027,23.64574917453238],[93.4158897412811,23.647012984075573],[93.41960649292137,23.648589548418602],[93.41970923952863,23.65060742480809],[93.42166514139674,23.65166207138947],[93.41995119266555,23.652924377248862],[93.42355345042962,23.656156215192674],[93.42225668829953,23.65961844282403],[93.42530805241896,23.662515009973696],[93.42500369062428,23.66415224601982],[93.43070543158157,23.673407438502323],[93.43262809937745,23.673228793521695],[93.43132177827444,23.674906446030402],[93.4355239372734,23.67816242794863],[93.43617078087186,23.68673366254927],[93.42861718451591,23.687334016923916],[93.42530694120295,23.68912697135489],[93.42526035996222,23.691980574665845],[93.42086789287029,23.696291092822904],[93.4199626147444,23.698282753886993],[93.42104716515995,23.699573552771756],[93.41929271768085,23.701663375449634],[93.40995623318386,23.704042852846403],[93.40888481973104,23.707111587309193],[93.40728393924971,23.70716191744033],[93.40838664192223,23.708659312828104],[93.4061401647041,23.71490379303225],[93.40956986149197,23.717841765470876],[93.41217797708728,23.71740665057022],[93.40916049382712,23.720824065270875],[93.41113936202376,23.72466031086603],[93.41087750401678,23.729315315002033],[93.40575333576972,23.73337044647136],[93.40569298874557,23.73649987894678],[93.40335502081071,23.740004955356113],[93.40380293787935,23.745087323499508],[93.40114741459325,23.74755363609318],[93.3948562503505,23.749395061965217],[93.39533964727958,23.754029029153244],[93.39158244899367,23.757124714984975],[93.39179276705956,23.76119471947204],[93.39577306464125,23.768692737617464],[93.39407932081747,23.774449909848194],[93.3966915812395,23.780400906754373],[93.3960014460309,23.78399070997709],[93.39770630021813,23.79234440674731],[93.40296407849063,23.7973773516725],[93.40245242864752,23.802563664187794],[93.40379837892928,23.806412652285385],[93.40207012362892,23.812207106886145],[93.39879523531057,23.815266855653217],[93.39690027515135,23.81410327765854],[93.39521464760614,23.817423169311315],[93.39275388895507,23.81616315613801],[93.39027786882568,23.817721948574306],[93.39031438803691,23.82067319776438],[93.39278857739978,23.823338796254344],[93.38868564091719,23.825496920089364],[93.39028155191833,23.830047971283808],[93.3887947332236,23.83266468561462],[93.39032126464043,23.833890481241237],[93.38872324619162,23.835245204726625],[93.38898935861978,23.840375757093433],[93.38490322602289,23.848234835424233],[93.38753131386194,23.855180288642963],[93.38547015010376,23.858493336973126],[93.38879316296848,23.865285398689167],[93.3867597275082,23.866776436537176],[93.38764789182959,23.868391651620176],[93.38483617307514,23.872481168529863],[93.38460556835518,23.875794105341242],[93.38918259162729,23.88877484740563],[93.39133352043856,23.903860141998177],[93.3900919076804,23.9058765095298],[93.39189080649471,23.907218323171534],[93.39147796324801,23.91439028983416],[93.39521241619096,23.915657167846142],[93.39222713394047,23.91821456840026],[93.39515867627573,23.923936394244553],[93.39430808309274,23.92571578574138],[93.39173939096202,23.92371073597015],[93.39177757475147,23.927107583255612],[93.39387240467154,23.928838456309776],[93.38780484637437,23.93117958694567],[93.38556475258466,23.930080721459056],[93.38108574539152,23.934626721136357],[93.37521763195201,23.931903798721976],[93.37215375430068,23.932177832439155],[93.36936404696564,23.92991402385742],[93.36885680874889,23.93320125429832],[93.36564714620502,23.933532182498418],[93.36436155462553,23.937884182730695],[93.35959576207455,23.94089416024017],[93.36122796860643,23.94471067944935],[93.35718856637064,23.945239295779615],[93.35569876077759,23.941869456109224],[93.35101344469965,23.941852320555288],[93.35468842018764,23.943411005434054],[93.35367586974209,23.946643277304975],[93.35054769158106,23.946189506978016],[93.34879360252971,23.948333551138816],[93.35179663459189,23.948477935343252],[93.35381052450825,23.95157795825917],[93.35030232394769,23.954722885176388],[93.35217494120917,23.957329940358914],[93.35128434245335,23.961379933520945],[93.35022407439826,23.962326977013927],[93.34743400144886,23.96120598923402],[93.34678649848705,23.964048516231884],[93.34107205894487,23.969407634459724],[93.34369994466297,23.970540770752972],[93.34299749984004,23.97487696767827],[93.33657253602728,23.97578503862044],[93.33939147903325,23.980324453563476],[93.33301871452504,23.97893748024862],[93.3327485749494,23.98038474784769],[93.33499339657247,23.982077597259522],[93.33431131835367,23.9850172852317],[93.3311437957798,23.983923937582738],[93.32870988956921,23.985032569188206],[93.33724925399879,23.989679570317573],[93.33411263347071,23.99263481015551],[93.33457031073492,23.997448504390192],[93.33215041195457,23.99952149453928],[93.33405658758012,24.004913830215347],[93.33279560804274,24.007790129567816],[93.33332766042261,24.014711477222416],[93.33042705696404,24.01552208504747],[93.32977694619292,24.020720320017162],[93.33475107153302,24.01924117466752],[93.33891571598743,24.021944249725507],[93.33745451724458,24.025662200165883],[93.33370410573065,24.02753579655804],[93.33081139936172,24.02726497596472],[93.33148309844577,24.030363049987052],[93.32599447829806,24.029651495879516],[93.32884497103512,24.034140299080384],[93.3350031361068,24.03565899709948],[93.33239771635564,24.0382906984644],[93.33788530793235,24.040360096498645],[93.33693898218785,24.041524871408132],[93.33362143377502,24.040715106038988],[93.3316888413919,24.04264801133858],[93.32788899648617,24.042187908790513],[93.32617422040661,24.048524906049494],[93.32262145891642,24.048847761124126],[93.31772673296933,24.05322581504339],[93.31521675023399,24.051933309253297],[93.30285673142511,24.05280015604521],[93.2937720914147,24.048879494334138],[93.28643324541227,24.052552259957604],[93.28650816939853,24.047685454609784],[93.28345249606068,24.04604240378245],[93.28218661172188,24.04298106945811],[93.2738087482107,24.039420604622848],[93.27375126950724,24.036602769534625],[93.2712933432443,24.03393861163497],[93.25597799920298,24.0248258328837],[93.25312899497436,24.021273363847314],[93.25521547146059,24.027990310007414],[93.25147121071137,24.030177731340196],[93.2507674884841,24.03297990072374],[93.25715464759641,24.051384728704843],[93.2594331829921,24.055768920510044],[93.26308033226583,24.058283440521464],[93.2608912008005,24.062478919920743],[93.26100617078382,24.07016755674727],[93.25025142252306,24.080237059833724],[93.23803620495146,24.083173129248255],[93.23257937887658,24.082178661112593],[93.22469652751116,24.08463875672502],[93.22032701057807,24.083448689468327],[93.21899666672776,24.07798305755789],[93.22264246763024,24.070852651442152],[93.22044359483398,24.061268527663874],[93.21266782714197,24.049257104411534],[93.20966815837221,24.0482182019184],[93.18741196781343,24.05379733339333],[93.16747543752403,24.051442562342494],[93.16353361837925,24.055032241072997],[93.16281875075423,24.05988064075194],[93.16656601277481,24.07136601977423],[93.16586423899338,24.073661769139125],[93.16119487699493,24.07332557633242],[93.15583292379384,24.077662757578896],[93.15394270853594,24.081430532568064],[93.15069349856,24.08289103780141],[93.15104496441491,24.084047760263697],[93.14332307228379,24.085794454688063],[93.14046300620072,24.087919167774608],[93.13984480269019,24.084661989653288],[93.13343357501645,24.078627858382568],[93.13362288328447,24.076478095234098],[93.13085586110532,24.07282752627109],[93.13177861505673,24.07139571907181],[93.12604989589484,24.06218046972532],[93.1241994813939,24.06066847031241],[93.1196929704817,24.060492412720293],[93.1210983604892,24.058736970751475],[93.11821378836518,24.05908501046499],[93.1191955733089,24.058046170283983],[93.11688317951186,24.057066423423777],[93.11789136504343,24.055808611337348],[93.11410838690544,24.055739195447032],[93.11402017324288,24.053925972454316],[93.11225124941295,24.054379960226242],[93.10650614947184,24.04854360902786],[93.10379804150395,24.049742215776288],[93.10331418284078,24.04674768984205],[93.09937244095107,24.04324880348596],[93.09691459284153,24.04405275778201],[93.09728135161586,24.049752869457805],[93.100944323815,24.05275708787089],[93.09707644589953,24.056378815563843],[93.09750211439355,24.061125590601115],[93.09949139406436,24.063232821195413],[93.09789414187848,24.065597705118464],[93.09762977936846,24.07308232851761],[93.09203166985897,24.080283710172623],[93.08768668501803,24.081408861405322],[93.08246837063426,24.089411295195845],[93.07841110899227,24.101774553038645],[93.07475236606149,24.101877505009597],[93.06972646991326,24.099326738154474],[93.06058377358266,24.09188234090143],[93.05278229341229,24.089543033706782],[93.04667118568847,24.090023189545057],[93.04166004975869,24.09289450113043],[93.03805854298618,24.09204575348068],[93.03442874287553,24.097043178172704],[93.02686726110805,24.100806548231912],[93.02224681147848,24.099809106625994],[93.01277203403848,24.10143733270463],[93.00963739429558,24.106797933962294],[93.00619839635127,24.10735448122077],[92.99099709613023,24.115562279970497],[92.98040482705322,24.11276605915447],[92.97284510957692,24.112612754076842],[92.97098068944243,24.121070107333907],[92.97491193092475,24.125526524676534],[92.98351506136648,24.125544947510853],[92.99057207262662,24.137124062237287],[92.98759243359274,24.146215782072805],[92.98832526303183,24.14935423241036],[93.00330641761774,24.15792844680564],[93.00596378424682,24.161762184237986],[93.00313402821978,24.173785083427173],[93.00767574320963,24.182117643356403],[92.99942538028169,24.19362908193598],[92.99920354850879,24.19625182438165],[93.00040778775787,24.197945622502473],[93.01144451988128,24.19778123744918],[93.01491431027691,24.200032575652912],[93.01671019524345,24.205731402153134],[93.01974549299403,24.209463918857843],[93.02192914114288,24.21786866648989],[93.01596727502877,24.224822332900786],[93.01986540191479,24.23116204887866],[93.02397944426924,24.233750230336074],[93.0164602237443,24.235865371781667],[93.00927378860793,24.243442322065373],[93.0041953724566,24.257579722100385],[93.00475524566079,24.262219779108623],[93.0121893867452,24.270968146329157],[93.00765837428364,24.27660165503737],[93.00680931182991,24.2826150288602],[93.00812671275365,24.287244576082553],[93.01872235769952,24.29614908943771],[93.02310594045329,24.302158378078524],[93.03423725170136,24.322378903788557],[93.04034237035721,24.341369589694015],[93.03990963481685,24.34349493746054],[93.03494062807725,24.345856477716808],[93.02906284517206,24.344611954224266],[93.02063254969269,24.347464156441024],[93.0177324735452,24.349946665636637],[93.0176545321179,24.36435524737659],[93.02153589105085,24.373305301551493],[93.0184182115005,24.383473553534376],[93.02294444582306,24.386461891178595],[93.02494457534587,24.39136090702508],[93.01682680195721,24.401172273691195],[93.00906574866958,24.40658914054727],[93.00869769991453,24.411779175653148],[93.0062974221366,24.41133137206905],[93.00664538546023,24.407853975321906],[93.00389681827026,24.407160914533065],[92.99916741287818,24.400486084899242],[92.99418490266324,24.399047306734825],[92.9919077964872,24.3992386866422],[92.98855493709715,24.40361993803212],[92.98471682126537,24.40574892563482],[92.97355352550156,24.408401980726893],[92.97373393865166,24.405810656841897],[92.96839181845542,24.401299924173017],[92.96612117296291,24.39694971368205],[92.96006472952075,24.39203734251953],[92.95781716084954,24.392002519518023],[92.95318998733006,24.401687757905073],[92.95106636550683,24.403097270130683],[92.94750688192335,24.402467064640124],[92.94536135917349,24.40015688255931],[92.9392099638058,24.400823204536287],[92.93659625709618,24.39849498212032],[92.93459222259682,24.392920825299136],[92.93109770427635,24.393111775972425],[92.92742213679863,24.396579972481366],[92.9240849053996,24.39615668272162],[92.9242581670617,24.39799391523775],[92.9202666153861,24.400988032778947],[92.9218844623482,24.403619340850078],[92.90916345284744,24.41024047399832],[92.91085492573022,24.412077365841547],[92.90924175988908,24.41301196167598],[92.90697008672386,24.41138816387294],[92.90660881126605,24.402861314942886],[92.90277181204017,24.39587013915414],[92.90382031036843,24.39230607098187],[92.90277664946797,24.391168932669274],[92.89986919366042,24.39072784903034],[92.89286798933898,24.392778857295323],[92.89245974816149,24.39757671276527],[92.8906952871619,24.398434519469156],[92.89135116152389,24.400551663643075],[92.88845245530719,24.39843479843824],[92.88358270162672,24.402515945654812],[92.87324087835933,24.39496399643495],[92.86870119086704,24.394751739938467],[92.86083887858227,24.39860177728427],[92.85635394430489,24.393726063312652],[92.84951813150538,24.389730062300842],[92.84776410623445,24.386231272934776],[92.8461376866496,24.38610462012337],[92.84512366835689,24.379807184135984],[92.84325619574702,24.37796951865409],[92.83975243735556,24.37679960475082],[92.8356514475222,24.3785952307547],[92.82927079580575,24.37379036641964],[92.82545488273456,24.377477203962567],[92.82650818525296,24.38133721291879],[92.82304132067021,24.38657244617764],[92.82984331639086,24.400392441941197],[92.82758005594827,24.40222454001797],[92.82364159201106,24.401988498938632],[92.82006208947148,24.403815468373118],[92.81758070909474,24.40812558640665],[92.8188418395491,24.41015289731287],[92.81234488744441,24.409387493637926],[92.81206288831044,24.411581236346535],[92.80997243138914,24.411964074855575],[92.81150987374342,24.41338664289684],[92.80869526780363,24.412785092526523],[92.80889582477568,24.415796057360286],[92.80674479804806,24.418950508667972],[92.80424097955218,24.417635717337298],[92.79926578431858,24.419231333059425],[92.80169056544248,24.420681586043997],[92.80259555520918,24.424460309853565],[92.80106168365816,24.425457246355748],[92.80117271632561,24.429754764373268],[92.79659495553666,24.432934384173418],[92.77180970472087,24.500684570479564],[92.76289705884969,24.521233948924486],[92.75754655377857,24.512644110220123],[92.75795243957342,24.511123160813337],[92.75593928537728,24.511365374525507],[92.75602967206454,24.509672703372356],[92.75205149091367,24.506333625664663],[92.75179219400353,24.504116967787414],[92.75412261429337,24.502101066554395],[92.74927000406177,24.495269910298944],[92.75071838833709,24.492188030163405],[92.74688078544334,24.48712770512236],[92.74040529319248,24.468651281602853],[92.73354658143806,24.45484202752792],[92.7305095858716,24.449108688882013],[92.72739840114075,24.446526203860994],[92.72601906766641,24.438617291773333],[92.72160739639034,24.432052966812012],[92.72275697674763,24.4282161608398],[92.71786791108516,24.420252270265586],[92.71729225088818,24.415701927607035],[92.71498519308392,24.415078449140807],[92.71279733542967,24.41130863718057],[92.71498659265913,24.40963890372781],[92.71127526414823,24.407326761954042],[92.71317416521663,24.40341803879989],[92.70911910804035,24.397449317857635],[92.70917453409336,24.39346784012037],[92.70637028662713,24.392252728837445],[92.70723455127042,24.387088768855783],[92.70555959571077,24.38448360265561],[92.70399225203397,24.384740519573402],[92.70351243399296,24.375549476228198],[92.6975348374799,24.37440544153727],[92.69522772757337,24.368952941739636],[92.6927239809427,24.368570406591328],[92.69465403648346,24.3654637865486],[92.69106499203893,24.362621490646138],[92.69140726094196,24.357642160882747],[92.68914922689773,24.355340908024477],[92.6896607922992,24.353706614111264],[92.683657637818,24.35056263660781],[92.68473480677686,24.346639422753277],[92.67899514882977,24.347901045172687],[92.67705481117227,24.35025366777652],[92.67329011195369,24.349744779711],[92.6688345696541,24.346193461473355],[92.6661985613692,24.34640637728481],[92.66551955449034,24.349747302857395],[92.66417341735898,24.346158616027374],[92.66305576582187,24.348921617497638],[92.6612669218505,24.348258446238404],[92.66051680972362,24.344155242929904],[92.6575803392307,24.34448091791455],[92.6590085266835,24.341997866958263],[92.65151300641068,24.335571177643462],[92.65161553203237,24.331151788494743],[92.65000953564551,24.331698255173965],[92.64913199749562,24.328705465367243],[92.64606808930155,24.33104876053707],[92.64566361745497,24.327884376493802],[92.63862365711726,24.32852623560675],[92.64025502821593,24.333712903831923],[92.63619520008719,24.33144715257711],[92.63532347313885,24.333659110535447],[92.6385849972207,24.33454814780552],[92.6355897885863,24.336800953208197],[92.63013561343985,24.33372712789508],[92.62466952483611,24.334177892687823],[92.62233197551616,24.33144474365953],[92.62223667953586,24.328208026483043],[92.62358239715398,24.3273875482997],[92.62144789313942,24.323810511495978],[92.62363600232194,24.322905066593663],[92.62351046635423,24.32038599285939],[92.61945312476222,24.31364740401643],[92.61939464713217,24.308108430980518],[92.61820319090958,24.30755215881235],[92.6180845629864,24.298279897433467],[92.61581298414431,24.289678378823606],[92.61961263052237,24.287234942785243],[92.61699967929587,24.28034858420645],[92.61779578875856,24.27718933977],[92.61300885076412,24.258749046166688],[92.6140555695298,24.256054985418306],[92.61220191660226,24.253570503401285],[92.60594666520795,24.248556308654354],[92.59560698532083,24.2505906827842],[92.58893120738918,24.248869298590066],[92.57202841447672,24.251984507930715],[92.56251086285616,24.25130350468962],[92.55585185557256,24.246912167984135],[92.55079536460238,24.24732506033071],[92.54695139355158,24.23655665427146],[92.54676528328595,24.233071077452383],[92.54838338896282,24.23196774364531],[92.54664789324126,24.23001056278977],[92.54701550451675,24.220259971195656],[92.54219566662334,24.213547558839743],[92.5431619026278,24.211568936546385],[92.54085459509189,24.210343158181555],[92.54190950649294,24.20761875492921],[92.54038072479638,24.203685088546884],[92.53658760827211,24.201358036107102],[92.53773946046876,24.196872264250427],[92.53453663769746,24.19376989377902],[92.53100732133788,24.185210000653438],[92.53411109137434,24.180249504055464],[92.52883373791347,24.178186125798366],[92.53006512964033,24.17642632236236],[92.52393781091888,24.17154246999525],[92.5192367635437,24.1739995371539],[92.51541425324501,24.178958068132772],[92.50986434823201,24.17256629729818],[92.51200646097703,24.170586116280735],[92.5145747066451,24.1708226977358],[92.51431007374221,24.169567507670752],[92.50680613356022,24.169986310595025],[92.51130726715714,24.16551149427603],[92.50993519117195,24.16470691619238],[92.5074335016833,24.167165337721965],[92.50317186972093,24.16787529402857],[92.50608307060489,24.164234552239375],[92.50324970155374,24.163532594712372],[92.50140623102997,24.160490704396988],[92.49411590213774,24.160279249123633],[92.49028564297141,24.162896039839918],[92.48361411047782,24.163135659898128],[92.48231315770693,24.160716957627425],[92.48331969123672,24.158359772641283],[92.47932821861286,24.156714789505433],[92.481743350034,24.156072132759483],[92.48059701618814,24.15013667552361],[92.47694449768393,24.1474983020082],[92.48050450857852,24.145509518726065],[92.47855057042759,24.144364230990014],[92.47857825560634,24.14212518903565],[92.47451617629949,24.14373949952217],[92.4724716897646,24.13999839817474],[92.4684971979946,24.140335011934205],[92.46421953559594,24.136328877964573],[92.46401952839288,24.138726038572557],[92.46090988337446,24.13773922651445],[92.45662474609438,24.144467851204194],[92.45227095417034,24.14429864448579],[92.45047706256541,24.14723828528108],[92.44901901780754,24.14406997184662],[92.44270332596429,24.154564117926995],[92.44036056192411,24.15284975051436],[92.43632155943861,24.15313582304682],[92.43574200055326,24.165234376485266],[92.4378205242543,24.169612339612303],[92.43391149361734,24.17523424373119],[92.43562593462528,24.17939572079656],[92.43226745896811,24.184579434397346],[92.42144813621144,24.18960752037145],[92.41879676943014,24.192799853575163],[92.42122125321173,24.201294992685643],[92.41865824831501,24.204789793132264],[92.41847897512703,24.212739490389637],[92.42107499760199,24.21820999453147],[92.4192615784194,24.226235378633042],[92.42243290805344,24.25495851034798],[92.29526267219342,24.25257497981827],[92.29228206747058,24.250492575781326],[92.29725356434014,24.23159212605574],[92.30418381882212,24.223611491097056],[92.31031120761214,24.221375299276925],[92.31076010384449,24.217945303002423],[92.31616779027664,24.211906679026836],[92.31408668302086,24.209709965788242],[92.31460493548131,24.20648747204879],[92.32143888247998,24.203834375259223],[92.3190199916094,24.197960828641815],[92.32606200190257,24.196978681863143],[92.32181491815624,24.1946887465424],[92.32215078207129,24.193036065260902],[92.32626318140711,24.191465928800042],[92.32260495321096,24.189776641655307],[92.32253902585227,24.18811360691463],[92.32534713607421,24.185625794804025],[92.32643585377438,24.181396421231717],[92.33195844371456,24.17966365892565],[92.33124692950048,24.178466099329803],[92.32642780576776,24.177819635596105],[92.32580964178307,24.173657048293013],[92.32376678569042,24.171336731392493],[92.32432361809737,24.16828427006102],[92.32853499291286,24.166354355147536],[92.32862712861996,24.15517465981571],[92.33163181178566,24.15188764118666],[92.32863895314406,24.143221515979988],[92.33060284911988,24.139796675584986],[92.32445691101755,24.139536039028304],[92.32575681455617,24.132595986540323],[92.32464326472659,24.119780472999825],[92.3270058312289,24.11710738565257],[92.32419925353281,24.115169734429585],[92.3249215672932,24.112802062325944],[92.32781489799123,24.112047326813993],[92.32252155361999,24.10448964281157],[92.32679812366723,24.104542183285044],[92.32756864461903,24.101590437962283],[92.32481936057344,24.097689363258603],[92.32472240989641,24.0882764141569],[92.32208718224749,24.081643634600198],[92.32405865551276,24.079366693817306],[92.31915089141764,24.078288393067453],[92.32119032133583,24.07279018480284],[92.31929223324275,24.070220696918316],[92.3164636459239,24.070140654880966],[92.3166954238436,24.06663487569908],[92.3197582765172,24.063842411737046],[92.31619912800534,24.059600482307136],[92.31750836503979,24.055072902543316],[92.31520895998341,24.0532555324853],[92.31263115624073,24.054987710230943],[92.31205419348659,24.05221998135674],[92.31632718554405,24.04571598047105],[92.3119099743576,24.038611233729164],[92.3156113055177,24.037786464370658],[92.3156362014275,24.0349691070256],[92.31201033324284,24.03251690675948],[92.31684564012544,24.03016147886114],[92.31468402675219,24.026053264719256],[92.31972281372474,24.024542151061134],[92.31866903330261,24.021984745260845],[92.31708330380688,24.02168033017778],[92.31531989473447,24.023476324933327],[92.31385001377444,24.021327439951474],[92.31631403330995,24.019412521542495],[92.31698647709734,24.01624436152075],[92.31909253056857,24.01527717769265],[92.32008450959412,24.01236140962718],[92.31879503459761,24.008314555645963],[92.32426108816708,24.00475417429324],[92.32273860905049,24.002829883664358],[92.32609686372213,23.997879507074476],[92.32205889699414,23.994020536221637],[92.32348029408166,23.988648150621],[92.32131330429146,23.98766482158147],[92.32184157476398,23.983300484516455],[92.32004348533171,23.979123552325053],[92.31721363587987,23.978884793156777],[92.31724585844913,23.975215706487038],[92.31558059211814,23.975161291709277],[92.31435192318493,23.972941947184843],[92.31028786578783,23.9723695202795],[92.31020831098625,23.969620885361817],[92.30849864272743,23.968185020007212],[92.30989680848337,23.963118447372405],[92.30786440428905,23.960662270526882],[92.30909889610194,23.957490587644216],[92.30819104160781,23.954330938936593],[92.31043297065565,23.952444116950147],[92.31082251519716,23.948311432266998],[92.30917381380002,23.944239822916813],[92.31057640825031,23.934933424230096],[92.30888616156794,23.93132642076722],[92.31619873633989,23.928168010829275],[92.31917273215714,23.915795956072195],[92.32508718519054,23.91419297824843],[92.32187601437536,23.910178010916635],[92.3238731722712,23.904973503157233],[92.31800663627334,23.898512709023645],[92.31677436060426,23.899701919698597],[92.31654556419298,23.88917097045871],[92.31275954615609,23.88491075444032],[92.31108024814037,23.880217977836445],[92.31307751652899,23.87757308345161],[92.31052699012993,23.873447138062847],[92.31087097481515,23.86985465110608],[92.31648472040047,23.865370713978322],[92.31493241631814,23.860602139604424],[92.31159818888541,23.860318950091557],[92.30756608995287,23.85701462084728],[92.29923783410663,23.859790921329836],[92.28955946518558,23.868276903527793],[92.28501015853325,23.867252624245346],[92.27916799382908,23.85644579204307],[92.26947979374556,23.847782067095775],[92.26857621253725,23.842278702414426],[92.28076171114431,23.82128539557711],[92.28223491766752,23.81473638584822],[92.2670277200067,23.816085314971993],[92.25699652338477,23.81287372913213],[92.25991238023683,23.793575913556953],[92.26476861517062,23.773266201577663],[92.26720511571571,23.768701167637865],[92.26540559077563,23.761470112435543],[92.26707582838341,23.751748067399873],[92.26542313487313,23.74333010650862],[92.26659364507823,23.732488770625515],[92.26538822723951,23.725112310834334]]]}}]}