{"type":"FeatureCollection","features":[{"type":"Feature","properties":{"shapeName":"Meghālaya","shapeISO":"IN-ML","shapeID":"1811400B28404458933503","shapeGroup":"IND","shapeType":"ADM1","displayName":"Meghalaya","coverage":"context"},"geometry":{"type":"Polygon","coordinates":[[[92.42518617253407,25.029659240657658],[92.42916267024209,25.02924883566078],[92.43213958468573,25.03523139993585],[92.43810093965843,25.034747466183312],[92.43818682668444,25.043969207125954],[92.44243946561251,25.045341134653928],[92.44721558339936,25.04343266644399],[92.4489812831757,25.0406648179271],[92.45267690644052,25.040852788364425],[92.45971624065248,25.037142824897025],[92.46419410518858,25.037535230107704],[92.46289112671673,25.039681198722384],[92.46419971606585,25.04372354448878],[92.46229163691021,25.048229094246693],[92.46042226795676,25.048825723167315],[92.45695858071518,25.046769726729664],[92.45688668045815,25.054167553793086],[92.46013469657306,25.057387732364816],[92.4635641858501,25.055042677756337],[92.46348262331388,25.058179576332098],[92.46526017725876,25.058774338065945],[92.46833599441851,25.065988601150515],[92.47193562011878,25.067353971950077],[92.47192895192444,25.074729343607398],[92.47052737796027,25.076496079434726],[92.47525742564778,25.07786807404887],[92.47401891477229,25.08207253232878],[92.47748704687791,25.082652206151998],[92.47706530132675,25.085106876245412],[92.47932190884632,25.086713408693996],[92.47722115363864,25.090880224607485],[92.47733925604737,25.10029145521438],[92.48087515705798,25.108675351654444],[92.49092559020342,25.107790442270215],[92.4968656901382,25.109606204873646],[92.5088311392299,25.104320493882508],[92.51985825398987,25.10603635504728],[92.52772588789439,25.104096966116835],[92.53043129732316,25.100410094528574],[92.53386554228132,25.099084136788196],[92.53933182492118,25.099153950684663],[92.52300686433206,25.126070572589214],[92.52256011417495,25.13313365431353],[92.52058047342715,25.1365757337448],[92.5215267093401,25.13912850082029],[92.52334806244329,25.1390349066195],[92.52480805295204,25.135288592835593],[92.53826420325713,25.13358940517232],[92.54300086164682,25.131172856379415],[92.54881094032565,25.130511912631516],[92.55526487750127,25.1270523461991],[92.56051831780927,25.130422567741075],[92.56809172471218,25.128338536954047],[92.57651979775952,25.13109272073521],[92.58311259830839,25.128211904807035],[92.58799004605926,25.12888347286207],[92.59272569474257,25.125991102141313],[92.5949205691375,25.122299581381103],[92.60419609934917,25.12353834650157],[92.60880580602628,25.122718317931934],[92.61623246324604,25.115901309024082],[92.62134064507428,25.115126352597887],[92.62878438375914,25.12628443056749],[92.6271967830727,25.131047777281807],[92.6282184406386,25.13820257216319],[92.63542315559266,25.143589943928127],[92.63859208852153,25.147827102915823],[92.6441174282048,25.150764039820576],[92.65199626679588,25.152397879731858],[92.65566774514247,25.1550521665384],[92.65792781207419,25.158937336506778],[92.6583343895718,25.172045351946306],[92.66338339937226,25.176767744435363],[92.66786328781271,25.174184691456215],[92.66853584299122,25.17665617982596],[92.67714594525785,25.18264425022054],[92.6832920028361,25.179635876709355],[92.68701705131633,25.180461918361527],[92.69089331231004,25.178863441810158],[92.69380820167657,25.179336314300308],[92.70252369069908,25.188477629714566],[92.7091483032871,25.19017063420326],[92.716043936698,25.195881828671048],[92.73713119539163,25.200638468708355],[92.74278245282657,25.2067518654866],[92.74670392782512,25.20660672818756],[92.7547520602197,25.20192858247335],[92.76271984819357,25.20168659330429],[92.76738160954642,25.203590251201604],[92.77612126594504,25.199714584730664],[92.78182873366224,25.20334727941187],[92.7859570107207,25.209447785564855],[92.79493692333865,25.209850080054345],[92.8027420749236,25.217062433244312],[92.8014252345486,25.22033864608378],[92.78901269124508,25.224777939184328],[92.78193768493317,25.230262328007537],[92.77157582474335,25.230079908167976],[92.7700724941154,25.23743391097387],[92.76179590217777,25.246628307618217],[92.76254287828598,25.249368654769242],[92.766366831279,25.252239343383895],[92.77109273144481,25.251087201368097],[92.7748787315154,25.252100921824706],[92.77765326810191,25.258277387684615],[92.7691050319106,25.26569188069497],[92.76852705495847,25.268219129134703],[92.77655698748538,25.27012488597662],[92.77965170250381,25.273629525757144],[92.78740018476735,25.27418944413158],[92.79240325202926,25.28266444155786],[92.78721021713592,25.290126968882035],[92.78714134060814,25.296306047856525],[92.78334083813562,25.29954445131718],[92.78122647165473,25.305081371441734],[92.78144786864306,25.307785122813197],[92.78684057656616,25.314473130594738],[92.78170681161696,25.333282551363876],[92.76982283612827,25.33831177509717],[92.76364357771541,25.33367628629059],[92.7609766772662,25.333615577802103],[92.75584138158771,25.338738967948903],[92.75450668000994,25.342475155832553],[92.74981127046149,25.34419543400325],[92.74986003909994,25.350036015961464],[92.74632440129571,25.358424623962325],[92.73945732353103,25.361404575860117],[92.73869761200703,25.367051610973363],[92.73226613630682,25.369015335968744],[92.7331687760807,25.372819647101228],[92.73792940152217,25.379432903485007],[92.73100412999507,25.380101521605095],[92.72365503331696,25.378915115958605],[92.71785216182163,25.37272625797815],[92.70978757498597,25.384610864418615],[92.70167391498299,25.384579193185264],[92.69819216351938,25.386418046585643],[92.69273816084949,25.397772203887058],[92.68805962435701,25.402179550917477],[92.6776860168982,25.407121446676843],[92.67344009736847,25.414123495883704],[92.66743198957681,25.41492427007268],[92.6634434742069,25.406597873098686],[92.6615549980874,25.406453872418954],[92.65632364645388,25.411641211078194],[92.65181304641052,25.419342182999067],[92.6513722125579,25.425941050067745],[92.65432629272529,25.432701778730827],[92.65353128100394,25.433622658166712],[92.64699392716933,25.4283429995015],[92.63947239348254,25.417664914997996],[92.6366300664314,25.421510715648072],[92.6357509409584,25.427414515197825],[92.62555710794753,25.435015635089474],[92.6251593384313,25.431237874972616],[92.62829533013868,25.423975542956626],[92.62754977875855,25.422066307775466],[92.62451799791229,25.421023729382327],[92.61849424506165,25.423099847921677],[92.61501030979356,25.42121297636341],[92.61116907321446,25.41526837400733],[92.6065424413791,25.41333161083705],[92.60441426330075,25.420999820858228],[92.60688840505293,25.427725322081027],[92.6029855656049,25.435226230671763],[92.6045245512648,25.447701788113704],[92.59751959647708,25.450769866411207],[92.60036054281764,25.46485257061228],[92.59852525504778,25.46823739493237],[92.59555145865647,25.470303956973087],[92.59180254643073,25.47051988887908],[92.58402284052453,25.465697501950764],[92.58250458887969,25.47116739031098],[92.58027171934148,25.472182321735364],[92.57437713165226,25.466362465741543],[92.56872519419267,25.463796800984024],[92.56646325337522,25.463457382418685],[92.56457794651205,25.465582512181545],[92.56427566791051,25.47371119108729],[92.57356672819678,25.490577102756134],[92.59100382736216,25.501244132437595],[92.5972152921746,25.50255878678192],[92.59981059420068,25.506449864194398],[92.60899614556024,25.511912488184223],[92.62011733459173,25.51615594056591],[92.62759840725981,25.522073112379232],[92.63182688330336,25.5278366333104],[92.63767707714956,25.530336749861878],[92.64275183086946,25.5349082853365],[92.64197189737008,25.54167408675822],[92.64533262151045,25.5558414141368],[92.65669825740211,25.560944080793753],[92.65739745301866,25.56985347195447],[92.6613741986617,25.572285235457432],[92.65821974118533,25.574163595264316],[92.65856438882724,25.578225650388283],[92.65290428927494,25.59102692072507],[92.64938078052364,25.592300304476122],[92.64162101542013,25.588609504323948],[92.63421965475877,25.58139762476989],[92.63008348420391,25.571766230771313],[92.62196226936942,25.565253379711102],[92.60184006539562,25.562029026957436],[92.59989086495955,25.555136725537007],[92.59473205138693,25.551691971690058],[92.58987575806268,25.552701931287665],[92.58398546791375,25.550552000263078],[92.58227154343712,25.55772788801571],[92.57533518490278,25.558610358195608],[92.57240491368366,25.55744935173275],[92.55663964753398,25.57105999332253],[92.5561338699779,25.576751178723917],[92.55868491919648,25.580223217060915],[92.55485543886951,25.584671637804323],[92.55423113220492,25.58839499127163],[92.55458547716032,25.595427043125543],[92.55650110575763,25.596574365641935],[92.55323051318297,25.59748904530184],[92.55429939159009,25.599669551337424],[92.55208770073305,25.60264280479473],[92.55539811562423,25.60188163244297],[92.55664719607734,25.611509292409902],[92.55401794222507,25.61313291469094],[92.55408164355848,25.614902205192777],[92.53913491061762,25.61168064095731],[92.53877509941374,25.613675433527106],[92.53576370673119,25.613244873638678],[92.53329830918,25.615044170783985],[92.5163430645364,25.615154465765322],[92.51498607575644,25.61843923664386],[92.50939816751533,25.615690770643834],[92.50554444615042,25.616409839403794],[92.50600241177384,25.62150130865725],[92.4971141776205,25.624485651777974],[92.470249224514,25.675249898396],[92.46788372680894,25.675621546345166],[92.46324975034781,25.67951942302844],[92.46318126458719,25.681103721115118],[92.4552346570911,25.685016872841164],[92.45022905747841,25.685389618032502],[92.44056457651166,25.691699542223475],[92.4378076531929,25.705899762527547],[92.44028004143362,25.708340367872577],[92.44390630218204,25.707458642565353],[92.44761385327718,25.70910415948675],[92.44420761509467,25.719793456862188],[92.43285639806163,25.727055905009188],[92.43109512877624,25.73227404665067],[92.42595753880053,25.731923878632415],[92.42197045893843,25.729993533790786],[92.41156640577807,25.730131914175455],[92.40903631605171,25.733851567827138],[92.41449478514521,25.740056008856197],[92.41424118894388,25.741559005120536],[92.40709527411501,25.741966984741104],[92.40794291184068,25.74358706423017],[92.40653790541383,25.744697698267956],[92.39758182959191,25.740551642732957],[92.38775534105696,25.74424928508675],[92.38169538879526,25.74214200796301],[92.3819648240917,25.746420636696165],[92.38535165417255,25.75060602120947],[92.38393692527934,25.7546210118642],[92.37861101967401,25.748492345026563],[92.37367727450423,25.750505311635088],[92.36885819029739,25.747386506566254],[92.36418435468879,25.73745244053679],[92.36085077583968,25.736752579847646],[92.35316129582229,25.739852264763506],[92.34574868915192,25.72928076369795],[92.33342798600974,25.724213803092137],[92.32407545400855,25.724820221812294],[92.3168667792807,25.722520252091925],[92.31125863558948,25.727992607887064],[92.30204479089177,25.720961032815104],[92.29706781789224,25.72007380219501],[92.29292990819899,25.71655114780113],[92.27707221349142,25.715566504700572],[92.27119673386662,25.711360589335854],[92.26428867945027,25.70918904902085],[92.2547696815421,25.71269294584008],[92.25105486936454,25.71091613210375],[92.2472611383926,25.713237227138947],[92.23867364312842,25.710693481178925],[92.23437135790785,25.707677357769224],[92.23277334754387,25.70896035924107],[92.23159904195671,25.716038127940354],[92.22495289046313,25.716187355167822],[92.22104946531356,25.713369074439473],[92.21677315937103,25.704909389643458],[92.20977465448705,25.699262869925953],[92.20800369866795,25.695666719516357],[92.2007287588148,25.69236697782296],[92.19653589827733,25.68651970560316],[92.18766351310056,25.684181375486475],[92.17988544572145,25.6781637228995],[92.17739848860343,25.67440948452098],[92.17334919322141,25.674239417774203],[92.1701141775253,25.66722668648511],[92.16477521670392,25.666731723670036],[92.15606641833365,25.672280830582594],[92.15951906348376,25.676337605848467],[92.16045288108623,25.684213220286473],[92.1558975036192,25.69176964314009],[92.15675540729193,25.695921724288386],[92.1545641872436,25.697980311932703],[92.15469584792488,25.706311961722943],[92.15232515885577,25.708704488829863],[92.15074564839676,25.707878826735925],[92.1476473032863,25.709558338550323],[92.14416619591474,25.71691108445354],[92.14809397349333,25.725368515058296],[92.15436707081909,25.725110160646516],[92.16182976126154,25.736730304154726],[92.16262847763515,25.740954515078016],[92.16274412135496,25.743969045307608],[92.15547529992722,25.751220058105556],[92.15535237805703,25.757493657632907],[92.15016551099642,25.763704996258824],[92.15083906959308,25.766647530812996],[92.14773520253853,25.773047970615064],[92.14811926017026,25.77455991126414],[92.15203758387882,25.77612981212091],[92.15257642033569,25.77809750816378],[92.14980025779853,25.77957393482529],[92.1504986036088,25.781460341950616],[92.1462818254269,25.784214157950235],[92.14987853968732,25.794991363926076],[92.14861958854586,25.80604013380576],[92.15250509589879,25.8118751089854],[92.15102035680393,25.81673623003955],[92.15566826164351,25.81898294828779],[92.15687083182279,25.82167256451266],[92.1601514082735,25.819884542660855],[92.16119892474315,25.82069216429857],[92.16226820739216,25.827339988852078],[92.16072836204452,25.83070721319051],[92.16409041479315,25.833107408655227],[92.16193678295122,25.835639983305747],[92.16614594880944,25.835390552538513],[92.16972813910836,25.83895497499889],[92.17292856697108,25.84728101301794],[92.17252567256615,25.84999805886096],[92.17742445350841,25.851598655061892],[92.17750730153381,25.858201463867367],[92.18001639673366,25.858326958787462],[92.17612514824779,25.868293662791732],[92.17716479457721,25.872847173115062],[92.1835475366733,25.876978867949624],[92.18746905658764,25.877302138473194],[92.19893126945718,25.889085286468223],[92.21490241150364,25.895394780924807],[92.21562463004261,25.900043029588417],[92.22077444698765,25.900355576717253],[92.22273569832328,25.906487798444584],[92.2254826683087,25.909266068071847],[92.21719066667069,25.911595882514156],[92.20434865320284,25.909238562964585],[92.20219599423636,25.90642344838106],[92.20096976333083,25.908549902154874],[92.19396533315921,25.911771327383168],[92.1962534445958,25.915845640333924],[92.19444854323875,25.918554443375758],[92.18939082067833,25.914666439901595],[92.18599830605838,25.916730469022124],[92.18165376498517,25.91135700225355],[92.17647834066466,25.910519486941492],[92.1774906737179,25.90894852024846],[92.17546900888277,25.90746429707797],[92.1623458757316,25.911254957173607],[92.15466060432135,25.911089749838396],[92.154531633196,25.91386993104377],[92.15674272577508,25.91473147225552],[92.16084921060303,25.92824768952131],[92.15913882818356,25.93331638733016],[92.16007286677159,25.93541930262865],[92.15243707097389,25.939690509345766],[92.15235833992743,25.944415855474304],[92.15701715031459,25.94928919439339],[92.15721774052429,25.952728182506487],[92.16397390779241,25.95791213822169],[92.16144358809731,25.960345426246835],[92.16204978472577,25.96665471772182],[92.16413303626014,25.97037311508865],[92.16924202567381,25.973476637967302],[92.17433510951707,25.973994003340476],[92.17864075533514,25.97751280697178],[92.18080650904349,25.985107669821065],[92.18460698636318,25.985900424904724],[92.18838140445482,25.984644134869416],[92.1984706672784,25.98831764002177],[92.19623011355125,25.99094544597564],[92.19746594565055,25.994659163185187],[92.20092710233797,25.995253113246697],[92.20377282412257,26.001321796116976],[92.20907421650043,25.99801517602458],[92.21182596642149,26.00464795833578],[92.21903221929132,26.003988952460258],[92.22023733888938,26.00578440551854],[92.22471756240142,26.006083812418744],[92.22767156082213,26.00865421226445],[92.23013316478787,26.007975469087192],[92.23379526382456,26.009213847559863],[92.23496199481727,26.012331575705044],[92.24444304788784,26.018290389249287],[92.24277689671631,26.020485211339988],[92.24365222860389,26.021621802302928],[92.24850590693237,26.02347990194503],[92.25321557543931,26.02909376444073],[92.25673264506668,26.02879432904806],[92.26338736019986,26.03322700628948],[92.26500320930873,26.03619784322578],[92.261001380008,26.041732437492],[92.2689339001238,26.04291638372032],[92.2699539532986,26.047552148780824],[92.26806190637582,26.05153130864709],[92.26348756996474,26.05441176623695],[92.26386946086001,26.057458420410164],[92.2694128881215,26.06066236523872],[92.27052913649018,26.064138304359716],[92.27481511100014,26.06574799513613],[92.27157745335877,26.06532602028111],[92.26880651721987,26.068271095877694],[92.26738365228516,26.066861992863412],[92.26087323982429,26.066234210966893],[92.25823740221932,26.06356028297283],[92.25088205506343,26.063594833092047],[92.25044120324449,26.064623438288848],[92.2477896253591,26.063018915206893],[92.24454488719665,26.06380997160927],[92.24154985463207,26.061862724576528],[92.24096132337367,26.06298694963327],[92.2384820181053,26.062077274763322],[92.2372542627587,26.06358114700144],[92.22936034774223,26.064715376336054],[92.22850775490943,26.066895822218186],[92.22215769711666,26.068186462542197],[92.22046556666709,26.07039908090986],[92.21540202482028,26.068511385854077],[92.2080978358215,26.070564730957287],[92.206188272649,26.069726391062993],[92.20643213021434,26.068241441980348],[92.20034667298513,26.069716056023502],[92.19256988570528,26.067431734929016],[92.19093667395859,26.06893537784526],[92.18708277023566,26.06667149911055],[92.18604897014208,26.067750563946852],[92.18725912839058,26.069392794280397],[92.18173224001177,26.06915590729939],[92.18021419138617,26.07126862162218],[92.17796426284075,26.068651910836248],[92.17600612147264,26.070322458565524],[92.17609791402332,26.074388808930973],[92.17870212913364,26.075791352631562],[92.17872335093394,26.078287178077183],[92.16932294950787,26.07773525842523],[92.15705703730984,26.07018805282895],[92.15463265144464,26.067250501712753],[92.1521589857996,26.06687646533741],[92.14506695551474,26.059819107694793],[92.1433175682456,26.05614106189884],[92.13746648686391,26.055135327456306],[92.1341335583951,26.052544996720474],[92.1325390793085,26.044335722957786],[92.12813767397948,26.045775591798947],[92.12132799137495,26.043979362326425],[92.11982420979271,26.04605989056911],[92.10872726179917,26.05077529705982],[92.09721119403005,26.04932030880871],[92.07783844731128,26.042383212016873],[92.06671597907884,26.035176157733687],[92.06372910411535,26.034141421967533],[92.057878801573,26.034919618263846],[92.05135072194543,26.032885505880774],[92.04806374769326,26.032870295487786],[92.04061281799453,26.036603026918367],[92.03625675872277,26.03630705642014],[92.03432143725779,26.039013760757584],[92.0305440708954,26.039679292555597],[92.02396605032793,26.037905711662958],[92.01836953802305,26.03928722163675],[92.01642316009355,26.037142088004096],[92.01319462574222,26.038538735919737],[92.01036869474164,26.036744813800265],[92.00873501317606,26.036914964450876],[92.00833860820076,26.03867023030458],[92.00614044237858,26.038650411923307],[92.00403527195131,26.03566544732324],[91.99913934675332,26.035886995864814],[91.99468074479186,26.038585805623583],[91.98898056151329,26.038626473115762],[91.98538644607898,26.031123959915558],[91.98609884333695,26.02907444329127],[91.98349329602503,26.025899169010582],[91.97889915894845,26.027572404680587],[91.97493584222056,26.025205846115373],[91.97309003068716,26.022210328533316],[91.96187474762124,26.020353623110793],[91.9618387117036,26.019013261133374],[91.95129656233125,26.014754254128803],[91.94772073210453,26.01538792642674],[91.94710000971794,26.013271567503246],[91.93389757239517,26.010371160384814],[91.93107164498787,26.012452815078305],[91.92819509661598,26.00245272472064],[91.9248875078247,25.999488744291444],[91.91890894741937,25.99792914279421],[91.91431981395888,25.998896312576743],[91.91220431380414,26.005016715236824],[91.9140980244068,26.00729992393802],[91.91051702976557,26.007467808265755],[91.90968333748634,26.008871607179934],[91.91068261622186,26.01004928427631],[91.9132446832774,26.009498077504976],[91.90967956905372,26.0127710137474],[91.91471471695105,26.014087498343606],[91.91291179817583,26.01481011194033],[91.91461713026679,26.020595520080988],[91.90843844138583,26.021066498958536],[91.90510754490619,26.0239692039912],[91.90222995808182,26.022471367129732],[91.89775452887845,26.023492130000516],[91.88866896719655,26.027965903155973],[91.88572175554779,26.028137637365546],[91.88296917199017,26.026197178975952],[91.87885833841791,26.03124759416885],[91.87908060138213,26.034463201333523],[91.87701000172024,26.035843569377807],[91.87509356913077,26.035210170581227],[91.87612330165274,26.036502871830322],[91.87302058264515,26.038902004386728],[91.87467815580405,26.043112439103737],[91.87194639878795,26.044715356644947],[91.8708726335457,26.042807700492922],[91.8672235349278,26.042114073171824],[91.87184966370658,26.051054846325755],[91.87020579255073,26.054602120940604],[91.87257401125281,26.068001664659228],[91.87653194707212,26.076761647809853],[91.87837654408328,26.08987676781338],[91.87679230040104,26.091745288378892],[91.87956642106761,26.096131914012194],[91.87909669829372,26.098072609205595],[91.87356356572536,26.100726392773897],[91.86851024131659,26.100211714261274],[91.86631082953114,26.10145278086015],[91.86568614198087,26.100513962456567],[91.86385153782896,26.10272524934235],[91.86064249332601,26.10298675878505],[91.85093932012335,26.108500506565672],[91.84821007569514,26.10816605232144],[91.8372866435869,26.112333784210225],[91.83077582149427,26.118537427464545],[91.82532618284,26.119502083417228],[91.82015478476858,26.116503814723565],[91.82015652390695,26.112648935297806],[91.81694463623614,26.11124564523272],[91.81006618939324,26.103386752752456],[91.80896799267022,26.097886947709362],[91.80554951494194,26.099216079296582],[91.8028500864963,26.09535718667803],[91.80027687134812,26.100140190485376],[91.79128884424817,26.08532801265458],[91.78578469582246,26.084110308361122],[91.7832498090925,26.088186140491825],[91.77720671641208,26.089441997182576],[91.762928177329,26.074710982110062],[91.76266068688516,26.072448874823248],[91.75700167878595,26.070455286627897],[91.75546366869642,26.068030747309237],[91.74307640129003,26.06539503151013],[91.74283924246178,26.063129689102475],[91.73098805548095,26.059022924947584],[91.73064200287396,26.05767370012351],[91.7334138534978,26.056322243705846],[91.73682651643124,26.056342218888314],[91.73464061171438,26.05373076255429],[91.73511804921989,26.05141511415225],[91.73290428505116,26.05097903371281],[91.73362214676101,26.04929959396833],[91.72527579615002,26.04627282243415],[91.72295323701721,26.035221731508614],[91.72496358757132,26.020299907178426],[91.72149041501865,26.012286831033663],[91.7216413203083,26.001595071932552],[91.71954716592133,25.992997997302528],[91.72146111017747,25.988423368267874],[91.71999506771861,25.981865783368768],[91.72103344203362,25.96864359833053],[91.71970404231264,25.96592496165533],[91.72244910158145,25.9658189587738],[91.72016518976879,25.960945577285084],[91.72003380487031,25.953692267068156],[91.71504457076546,25.94638450249833],[91.71325949343009,25.94582584196358],[91.71340670754222,25.944145015524676],[91.70233347237723,25.94131103222857],[91.70105666542288,25.935728234611002],[91.69885994499002,25.935106512372016],[91.68935552224734,25.924712649998696],[91.68801050980673,25.920308371197436],[91.67876077382013,25.91634946118209],[91.67052640988739,25.90424779649559],[91.66643487841563,25.905264557822655],[91.6633468621343,25.907855972991506],[91.66024252256594,25.906498281173818],[91.65658509027713,25.907866630134215],[91.65417930941979,25.905903888026007],[91.65141985554685,25.90637831919844],[91.63642604190197,25.921422958412396],[91.63213392291549,25.921888027803124],[91.63048220048404,25.92493009505278],[91.62517674861938,25.926180331494088],[91.62424346012463,25.92966451438104],[91.62131363267326,25.932318261370003],[91.6155984987334,25.933708062186174],[91.61358276367748,25.93611433463036],[91.6093986608157,25.937488106143512],[91.6118072435184,25.945122846846807],[91.62281561223504,25.94488569856079],[91.6260866063566,25.942283079830748],[91.62974157366827,25.943346580594493],[91.62932763717188,25.947244996639895],[91.63428654684768,25.96060452819796],[91.64064155256101,25.963854467442467],[91.63518649976052,25.970675284563132],[91.62817905753778,25.976245089116166],[91.62845381625057,25.98253511069382],[91.62599027641542,25.98677835289055],[91.62617167142412,25.988964552216107],[91.63015947532831,25.9902214590057],[91.62808582768265,26.000840372701113],[91.63128146393166,26.007593837814],[91.63316444146334,26.008582123155175],[91.63268023066058,26.011231349472954],[91.63482798572389,26.012233142895244],[91.63152669052951,26.014814875809343],[91.63259580788849,26.01664719839646],[91.63110238927133,26.017847775047255],[91.63233124056255,26.019120464886846],[91.63102277877422,26.022063079192286],[91.62627741301452,26.022230180367487],[91.61945901495511,26.026052789779254],[91.60015823137543,26.02170455123037],[91.597461729641,26.018170319995964],[91.59381996936065,26.019875512426378],[91.59399936651614,26.021775644207082],[91.58864729208827,26.02965885015138],[91.57976919991451,26.03334367728273],[91.57065566469466,26.02577193455624],[91.56911542947817,26.018532309846247],[91.57209374439535,26.01545540574428],[91.56356155570825,26.007590146617844],[91.56499770313273,26.00210716888843],[91.56052771951663,26.001020249595946],[91.55738092736456,25.99283263172354],[91.55162650830071,25.985121919013828],[91.5511741167236,25.976691540937157],[91.54668126289869,25.97520885524387],[91.54462359897688,25.97600658464757],[91.54264376688789,25.97327057580836],[91.53829036842599,25.9715103467811],[91.53532553003471,25.966822122232752],[91.53554807506995,25.962399792689386],[91.53028476587023,25.963161866263373],[91.52857590609517,25.960734779613407],[91.52522324343616,25.961724732665388],[91.52209260838278,25.959568092740327],[91.51800310261201,25.959828214075078],[91.51650316402254,25.955801485333865],[91.51974337916754,25.93997295407341],[91.51507548681288,25.941330283797072],[91.5137408867447,25.932984441159405],[91.50788666215783,25.932375030032976],[91.50667261779743,25.928519758469175],[91.50284128694098,25.92663912570628],[91.50117219468521,25.918956245743836],[91.50439335476638,25.916819673124902],[91.50310344049373,25.914241479689633],[91.50459834133106,25.911489685288917],[91.50947833131421,25.917306667919764],[91.51291233552386,25.91687615272767],[91.5178404725113,25.91975922020974],[91.52269175413458,25.925404309102152],[91.53248054846193,25.92998721481992],[91.53650418706115,25.935870446163587],[91.53688185048469,25.931307810946937],[91.53294727984587,25.926670297061357],[91.52089532838221,25.91915667295257],[91.52049805293942,25.916904312933795],[91.50480654925434,25.907865755842902],[91.50413277146876,25.902972797839546],[91.49866587617788,25.896090011714175],[91.50383017576193,25.891265236824566],[91.49935444921624,25.891288502546438],[91.49183966097887,25.895949614070446],[91.48392659567718,25.89313294596038],[91.47829274938907,25.88756659950173],[91.4777629706452,25.880579849247695],[91.47473592931038,25.874116928229295],[91.475970616956,25.872616394155678],[91.47491671256638,25.870331814053905],[91.48156864921037,25.86785744401955],[91.49112888967157,25.866040553457335],[91.49694121952852,25.866511879242996],[91.50047442110176,25.864954670602923],[91.51306440143682,25.86580891650824],[91.52123752542003,25.87520699689949],[91.52122033885205,25.883556499333313],[91.52651272022928,25.89116957893134],[91.53291658800588,25.888249138072347],[91.5351150502721,25.883976515607458],[91.5303520595665,25.881730355349596],[91.53036021177769,25.871349940913692],[91.5278793200845,25.87325285805913],[91.52228214122965,25.872946629371178],[91.5179894185753,25.86996032115694],[91.51364474005983,25.86406267506137],[91.50334335355664,25.86434331239887],[91.49729576301162,25.861187923733986],[91.4956927130989,25.863914730729192],[91.48820433982249,25.86314901577885],[91.48358619077835,25.86426279375827],[91.47782839315073,25.857361742890596],[91.46939994640418,25.85925402328257],[91.46300843225937,25.857091690882715],[91.46170958424122,25.854434142865436],[91.44854024983667,25.845098965597447],[91.44830882854811,25.841984898312965],[91.4450756579916,25.839833654806117],[91.43575625675639,25.8436516074389],[91.42809950416144,25.852730810317016],[91.42239404597551,25.854569667529265],[91.41339043490206,25.853660720621455],[91.40609704994121,25.850151120979415],[91.40265573883504,25.85149225916231],[91.39306841686297,25.847689135863874],[91.38106777896498,25.845726809951394],[91.37282316615315,25.846814710262674],[91.37097782174368,25.84271209374785],[91.36576099766499,25.840125781787727],[91.35767123554352,25.841587334826595],[91.35209075367486,25.838657471794782],[91.34664425463251,25.84012328596021],[91.34396674418149,25.837211689051433],[91.33528283004291,25.840639726283584],[91.33318438081056,25.836843394070552],[91.33424779386749,25.833160873619107],[91.32224880347974,25.821625581129627],[91.32068048513084,25.815811880206063],[91.31465002994985,25.80968947077263],[91.30963969262235,25.798972800357074],[91.30252044787595,25.789997006295614],[91.30177467640854,25.786580050153834],[91.29548751865198,25.780276142991475],[91.29448337284421,25.77601049930762],[91.28996442655354,25.772740317752802],[91.28855394579335,25.76559491109725],[91.27890579170688,25.75745586643686],[91.2744657192948,25.750542947266922],[91.26439241683885,25.74592311611397],[91.24544741282409,25.7333944380294],[91.22238172790492,25.722658612848274],[91.21004397473868,25.725583581486774],[91.1904080764389,25.74792327654187],[91.18887227889992,25.750540654256838],[91.18921743588659,25.76404676364256],[91.18408447403124,25.76653009909519],[91.18506001568369,25.772081126770658],[91.17819075770787,25.77744678725619],[91.17832868503658,25.780255832202734],[91.18199502681635,25.783692442753914],[91.1841164037497,25.79898561542988],[91.19036849127758,25.81152991713017],[91.19020234966243,25.813747830434256],[91.18774764565639,25.814896779177698],[91.18623463029132,25.81845222095272],[91.18930194220201,25.823831282999056],[91.19438437561925,25.82737393398939],[91.19461059476401,25.834957857230812],[91.19721806806388,25.83533917701189],[91.20357237488795,25.843309152752894],[91.19748496651796,25.849633465071793],[91.19575907827834,25.861488648931356],[91.1891305382559,25.85181003831272],[91.18392179811643,25.850496956092215],[91.18015726778114,25.84406716455528],[91.17355276308245,25.84450008040795],[91.15982496852368,25.85004496064694],[91.14747965603429,25.850586576461055],[91.13603865238862,25.842721355676357],[91.12939051292334,25.84270584582636],[91.12029334410964,25.83302412454503],[91.07707018376539,25.82903707046129],[91.06690191411255,25.825826065936848],[91.06206445756149,25.820872831255393],[91.04881460176814,25.829367572941532],[91.05290017830788,25.83190228619506],[91.05766360110312,25.831862370387277],[91.05929633853933,25.836754523296978],[91.06634507631573,25.838956223329237],[91.06766154478818,25.836901003427638],[91.07179327317395,25.83885567367452],[91.0731667181916,25.84055062713239],[91.07291048902819,25.845987327114],[91.07843386768916,25.852831918914173],[91.06713866151244,25.84671980946723],[91.06439183346085,25.848047412822762],[91.06181148299432,25.846999466094218],[91.06163494427807,25.848106915753128],[91.04815006944345,25.84929794304459],[91.03915984686097,25.83698781237148],[91.03242960856522,25.83509225205517],[91.03200657572823,25.83294112417562],[91.0285596411684,25.831259588063364],[91.02238414040836,25.823860665363355],[91.01049680432222,25.82045886898194],[91.00594513150742,25.82047794052966],[91.00132755469012,25.82519405844207],[91.0068644143686,25.832582028495786],[91.0079138199953,25.83805608642228],[91.01016828862618,25.83742067570408],[91.01213873421874,25.841874305817065],[91.01140591106784,25.846002665949538],[91.01524415176546,25.848493645265822],[91.01395574396753,25.85696694159533],[91.02783881142487,25.869425210357686],[91.03047939213452,25.885896222997072],[91.02515012144013,25.888871062934303],[91.01783774878915,25.88465280255742],[91.010533926303,25.884267483663358],[91.00096203738754,25.88591664739772],[91.00059110054885,25.888032764909454],[90.97598490013881,25.889767919702653],[90.96878647518835,25.885313690479755],[90.96591013971721,25.88853347672766],[90.96893615337933,25.903844963836423],[90.96655405750275,25.914159193258744],[90.95697705447839,25.93505212494035],[90.94607456389606,25.941105646425445],[90.94539804175727,25.944969291526174],[90.94736687307729,25.948186253680397],[90.93992344790443,25.947395468997833],[90.93378952207406,25.93986555453765],[90.92385753000222,25.942965307412436],[90.92187518802035,25.941436012269428],[90.91942044987832,25.944546313015817],[90.91726897489139,25.944501906044536],[90.91474519223665,25.93598163649549],[90.91550201747363,25.930845416437784],[90.91416760605169,25.925799949624682],[90.91536355924057,25.920492044153963],[90.9194439875354,25.915314232844615],[90.91676863753266,25.914150625337697],[90.90610698078645,25.925115927634497],[90.90522463125987,25.92899749096848],[90.89435432461926,25.93127401765751],[90.89738521164179,25.93756949656271],[90.88995799656824,25.938166264210714],[90.8895893127043,25.943270743684234],[90.88574581147238,25.94501765400992],[90.88445851578875,25.950402028487414],[90.88042491936464,25.950587269204103],[90.88100852246535,25.94291928910708],[90.87662098173445,25.949517795924535],[90.87162395204957,25.947721438333623],[90.87475879750669,25.94264412482439],[90.84840713456698,25.94447414420703],[90.8442885458389,25.94606643592192],[90.84227783955193,25.942216223324923],[90.83897353230638,25.94140308542634],[90.83540102404957,25.936699372615887],[90.83612114232743,25.948515164282412],[90.8328472870717,25.945955298729718],[90.82583251998612,25.948787425517317],[90.8243463381969,25.94549227672163],[90.81920747261351,25.95040978522412],[90.8161380370855,25.94902746980829],[90.80898761630716,25.95253121616394],[90.8078152456911,25.951063864574664],[90.80908019039214,25.947503496566874],[90.79631527303694,25.940614533212283],[90.78442172689722,25.925222071383164],[90.78525087639602,25.92438309203948],[90.78331134273073,25.921863502078843],[90.78109854694584,25.911359810083788],[90.77798464121803,25.91129462073272],[90.77803652880718,25.90870851389261],[90.76631023639693,25.907734395521782],[90.75661092056008,25.91108019188135],[90.75672330788696,25.913521925363156],[90.7605988304655,25.91575901536978],[90.7604581533937,25.921978136123567],[90.75099925547296,25.91835985508345],[90.74707459055682,25.91563060973326],[90.74523864791512,25.91186281300428],[90.74237947206251,25.91247993993796],[90.73891029431792,25.916252066279583],[90.74772678901266,25.9189537847079],[90.74689499487363,25.924900321739862],[90.75408544008945,25.92952631940902],[90.75456090399628,25.933536553527684],[90.75272208764397,25.934363959060885],[90.75132523702158,25.932392060626544],[90.75002536761896,25.933099221920003],[90.7466493254064,25.928181998111352],[90.74033097544817,25.939488309166173],[90.74769856484475,25.94839242681202],[90.7456200267707,25.95199011415448],[90.74802909995353,25.95680979845402],[90.74435031650708,25.955150441020557],[90.74275072241322,25.958080801433894],[90.73769125712117,25.95579213373697],[90.73826246706426,25.952803925283664],[90.73240106942984,25.95219007807606],[90.72440920930131,25.946870255553094],[90.71987318603709,25.948886160245134],[90.71894931188649,25.954632069568092],[90.71752182332301,25.955034643843966],[90.7137801793662,25.95176495109123],[90.70758028395632,25.95217480150128],[90.68826898290132,25.9490027687971],[90.67258820869401,25.93473349538801],[90.63157790432173,25.919919803620143],[90.62612781830644,25.91344349579557],[90.62606792493153,25.90982838935278],[90.63060906769455,25.909593558544547],[90.63073364426153,25.906375587205666],[90.62486999724563,25.898355697968196],[90.62180068568514,25.89792977796054],[90.61353943607425,25.899415512616137],[90.60620101497496,25.916710332744984],[90.6122410461969,25.92575518333801],[90.62305373579349,25.93515203771253],[90.62405908983528,25.939268821348765],[90.60483243074128,25.947184034775166],[90.59960858093874,25.955221239066606],[90.59062768736047,25.956155212292828],[90.58924917494629,25.958319526399187],[90.58780679950192,25.958164074070723],[90.58375829284071,25.956095459325496],[90.57970128003207,25.95136388578959],[90.5769971758554,25.944607956397526],[90.57666667847583,25.93684304032877],[90.55235913196516,25.922841085288585],[90.54881073898221,25.921493599793738],[90.54373729859925,25.923686514764235],[90.54441898964416,25.9206469168186],[90.54831193055608,25.919293372440276],[90.54999407173968,25.91693310900598],[90.54905873418775,25.915521670624816],[90.53807695201026,25.913840067674492],[90.53742868009053,25.911289925391543],[90.5263543319129,25.904937479558612],[90.52132147292293,25.898570205708047],[90.5149153899008,25.89619433181912],[90.51136200048822,25.897885619290687],[90.50848871300082,25.90159670650757],[90.51793209521995,25.91577141622386],[90.52062103313969,25.92606013666633],[90.53409887057238,25.939052482808155],[90.53494013564944,25.949681263626623],[90.53173126092807,25.956102871606046],[90.5203988186845,25.970616725336736],[90.50957982381291,25.98058282017681],[90.50247148820733,25.991553921608066],[90.48859759524399,26.00348122273432],[90.4760711796984,26.009679538854257],[90.45615599877004,26.000271584398032],[90.44367543323655,25.9960592500253],[90.43740570638975,25.991810694736056],[90.43321568991846,25.991410755096748],[90.43015838344343,25.989042498681243],[90.42512468003706,25.988931557116512],[90.41677620670701,25.99159693572038],[90.41543052502152,25.99890874665953],[90.4110844262696,26.000514964753766],[90.40532719278397,26.00907081478957],[90.39968427171485,26.01260872845697],[90.37211442497797,26.011357990968914],[90.34965163537856,26.004220841870655],[90.34664321072972,25.997941467978393],[90.34300710264915,25.996401026327185],[90.34029338200736,25.988435748550256],[90.3314694923812,25.98774216084135],[90.32785718246912,25.97509890443573],[90.32471389374666,25.973487995001378],[90.2705203580324,25.960401902752608],[90.21143144239753,25.952685169524017],[90.2098753294584,25.959753048460893],[90.20280871969945,25.960954476985744],[90.19977039013479,25.957046351681285],[90.19235913363225,25.95534532394244],[90.19076399608056,25.951306043913867],[90.1873293558637,25.949965704560764],[90.18684510912833,25.946946355092148],[90.18869709927425,25.945926337693816],[90.18682263148327,25.944186499261505],[90.18073994555671,25.94986619772658],[90.17853305619487,25.955315786897902],[90.17715028396961,25.95536538253878],[90.17686290392706,25.959045853372125],[90.16569790495745,25.95585379950042],[90.15840889838535,25.95724262796716],[90.15103242914219,25.966781802996913],[90.14376030191424,25.960228879814284],[90.13932225610141,25.959728762423225],[90.14047638013741,25.957389120966106],[90.13165672786442,25.95883473245505],[90.11971832974089,25.954194422935576],[90.1204815905086,25.957917493202835],[90.11620767588131,25.956969111742556],[90.11225408700966,25.95206695834198],[90.10750045944427,25.949236471819468],[90.10483798050291,25.944613492926752],[90.10662922567101,25.942401430874988],[90.10480697425257,25.941770167385485],[90.10101632719702,25.94332375650236],[90.10130484271006,25.94032012716287],[90.09793456857996,25.937500259939142],[90.09205230667473,25.938162764713],[90.0940285517908,25.92791280045137],[90.09107293999581,25.928567249529205],[90.08788898004887,25.925643865400875],[90.08535855075931,25.925563057326983],[90.08617580746211,25.919558129080443],[90.07584436153284,25.91498072908201],[90.07245365252663,25.918611872307306],[90.07047477624515,25.918521770301407],[90.06699343980316,25.913081267304015],[90.06049335706975,25.913550658429852],[90.06236228764531,25.91031470115839],[90.05552319330005,25.905835175808836],[90.05646144678339,25.90328972741916],[90.05538372086903,25.90066524543838],[90.04761198840932,25.8999064508191],[90.04638237534672,25.895997865753667],[90.04132305288677,25.8941579942344],[90.04337416270026,25.89217703003627],[90.04242428322053,25.88775841484188],[90.03412602751152,25.891812172818334],[90.03360400751674,25.89454259717455],[90.02517354584906,25.895786325586343],[90.01930681851007,25.892167311343414],[90.01379868246282,25.88503011831509],[90.01100977822165,25.884704223735273],[90.00556435895423,25.87856416506014],[90.01421977583708,25.871968409665303],[90.01943254851386,25.873242730440758],[90.02281842548214,25.870057372751344],[90.02375963082952,25.867309052051663],[90.02227034176776,25.86022736228449],[90.01905946739659,25.856013260793745],[90.01696676738204,25.856310465702588],[90.01738945526596,25.853162585322977],[90.01568945018461,25.850819679807255],[90.0090951521442,25.845902485280902],[90.00063834378753,25.84629182684039],[89.99887953408938,25.842881237824603],[90.00393507733692,25.841387238386005],[90.00352460025267,25.8393267634105],[89.99120151118515,25.83505048093665],[89.98139190379098,25.8356043652712],[89.97786980898792,25.83230622933713],[89.97774356335115,25.82802536242189],[89.9710282460723,25.826458740378307],[89.96785207451886,25.827858574334346],[89.96581357345866,25.832518901929816],[89.96391114201121,25.83314893466229],[89.96364317096872,25.828319760736942],[89.96758635645105,25.822609626941315],[89.9636891144056,25.822019207389815],[89.96194340753419,25.82027963994926],[89.95409714185534,25.82136166505417],[89.9539706339105,25.825130257607757],[89.95864091488552,25.82602098620615],[89.95762170612707,25.829200811002337],[89.95439229232507,25.82691071515864],[89.9481984030512,25.825561825274388],[89.94823568133884,25.82361204991709],[89.95100047659444,25.821152081582305],[89.94847910681455,25.815181208549454],[89.95578094222725,25.811280998415192],[89.954460929901,25.804001216106546],[89.95836696196152,25.801371725487982],[89.95521511498936,25.796621907818032],[89.95432385148023,25.788062477253064],[89.9592900896121,25.780021365253823],[89.9553017574985,25.777851059253592],[89.9575519941661,25.775481266978794],[89.95471687250186,25.767271845537074],[89.94198622317977,25.75593308482225],[89.93516579852108,25.754583629148353],[89.9375160122899,25.745516873548485],[89.9260211052356,25.738453442261374],[89.89964218651191,25.747229758796035],[89.8946781528457,25.74505956367731],[89.89433755301249,25.735026421375903],[89.89563247988444,25.731641296992933],[89.89860681706153,25.729659432369974],[89.89906454283474,25.726513584679413],[89.90254223660826,25.725348562290357],[89.91341357990468,25.708655687334485],[89.91864828045757,25.705237562813068],[89.92352105427402,25.694584510918784],[89.93381001078863,25.68975593645255],[89.93621096140468,25.68984065278443],[89.9374590896436,25.685958630341602],[89.94435381755272,25.679348012365153],[89.94285559923703,25.672321375709227],[89.947382028494,25.67111863175476],[89.94537801465592,25.667973732251617],[89.94708517841177,25.666244322027207],[89.9466791210387,25.66195679249524],[89.95039013064766,25.65569481958719],[89.96286973857706,25.649567721198434],[89.96478977790242,25.646894583643974],[89.97909835036039,25.638873809100993],[89.98328312246706,25.63064290979679],[89.98311538454564,25.626878833267],[89.99168568066538,25.62417318427098],[89.995131366567,25.624739104631082],[89.99875591692314,25.622489687009192],[90.00405674605732,25.626826633742162],[90.00690949985395,25.623414727168573],[90.00414696925121,25.620328683880267],[90.00918515704745,25.619278408580445],[90.00977468004591,25.615577148577362],[90.01632879105381,25.609895018881083],[90.01852878674417,25.611421427662005],[90.01753742935281,25.6079672172751],[90.02018693482486,25.60757855839893],[90.01735326393981,25.605113872919784],[90.01678543795038,25.601958797701084],[90.01092120253797,25.601648202616307],[90.01105897266153,25.59677918433459],[90.00293597736614,25.585515661001917],[89.99550053911446,25.586334157860872],[89.98764210485677,25.591639142206827],[89.98344120709244,25.59133999340333],[89.97847532918499,25.58705584273966],[89.9753606392279,25.576198654642656],[89.97209395522307,25.57358308414238],[89.96043514695194,25.57453813299351],[89.95373945516705,25.570886040536887],[89.94710597441056,25.57053744218608],[89.94099893246171,25.568351304964004],[89.93680206184482,25.564494129146496],[89.91219075002081,25.56325669780997],[89.90952284705178,25.560544789113454],[89.90740838355285,25.561438968144],[89.90150653478122,25.559034529345386],[89.89859103276366,25.5606011586974],[89.89240544212636,25.555926126613986],[89.88523552790637,25.555082761181446],[89.87829943796832,25.55042515194609],[89.87488618663838,25.54382202430384],[89.8787714891754,25.537787483502953],[89.8680162809772,25.52996559036496],[89.86787219929045,25.524332724020788],[89.86876773428877,25.521579558187142],[89.87142394209113,25.52200844219107],[89.87167268289836,25.51862333822941],[89.87340363583955,25.519539629774442],[89.87328134548498,25.516989244278818],[89.8772735169981,25.51971563674674],[89.8798847937649,25.518090667324042],[89.88342636583994,25.519205390759936],[89.88063582935987,25.516831383904453],[89.88404275385528,25.51433075410271],[89.88587249542657,25.508011750110466],[89.88081421591069,25.50691527346448],[89.87280682480917,25.50750668699219],[89.87675067953644,25.500889913833824],[89.87662651439786,25.4955937891608],[89.8722184777054,25.48603189402018],[89.8716262885072,25.47743956025628],[89.86537133984514,25.471783750050143],[89.85441840167312,25.467445792600273],[89.85302055751399,25.463259376729024],[89.84210843429689,25.449782609898048],[89.83421275229426,25.434926717817675],[89.82929129428096,25.42066680565026],[89.82612109832083,25.40382945215091],[89.81942925042706,25.396839148333925],[89.81575193931933,25.388645708680123],[89.8140203907951,25.36994708057437],[89.82032923478096,25.347524050550113],[89.82662494270242,25.333664693619333],[89.83861233853483,25.32263266676636],[89.84010915547866,25.318510089938137],[89.83993783777083,25.312819576438354],[89.83488657858886,25.296042139937487],[89.8693641132295,25.28715844639869],[89.87462261554414,25.287259799750238],[89.89072549373037,25.295335788567485],[89.89982712806935,25.30515954743493],[89.90811096312311,25.30784332593468],[89.92081843141928,25.304123990396494],[89.92926878358396,25.299589158774683],[89.9722448066138,25.30104205445587],[89.97647916033425,25.298325656714844],[89.97805440828724,25.289965945880542],[89.98094902716939,25.28532713660139],[90.00955352290782,25.27188343088354],[90.0598581969599,25.256033199078598],[90.07788395494441,25.24030536501994],[90.09411534252196,25.237982066956878],[90.10073576357085,25.23475910456657],[90.11238195949541,25.224237795802992],[90.12421921450449,25.223183355975568],[90.1392731730526,25.22489992993881],[90.16921937812633,25.221726605165998],[90.18780123189929,25.216272616951645],[90.20231751281726,25.210303526971053],[90.21447218843028,25.20320446509593],[90.22540227974967,25.20257755275165],[90.23362126452477,25.20379994263597],[90.2468882044782,25.20051152064639],[90.2548129415904,25.196225478145347],[90.26028656795769,25.195499906816035],[90.27541660662386,25.19801052994639],[90.291372484497,25.18943846921642],[90.29645837373319,25.18816992103389],[90.30897629660605,25.18720287474919],[90.3317186437185,25.191723914508923],[90.35210694215415,25.174192783167506],[90.37735903843999,25.161789370614656],[90.40941299569916,25.156075110834916],[90.41565519547072,25.151392300200186],[90.42505860715129,25.14756975207454],[90.44456596282211,25.143812864371455],[90.45035987092756,25.147332373803643],[90.45277132913749,25.150713891325218],[90.47253849645311,25.1541780864827],[90.48023952072019,25.1566422053915],[90.48454264227227,25.15977196150992],[90.51037977986161,25.16846803514491],[90.59661204549268,25.173722032152096],[90.61217954124433,25.173943974790806],[90.61964359712599,25.17252289882709],[90.63630130537445,25.173207286338986],[90.63691409743373,25.1782728120074],[90.64975369623006,25.18152983534391],[90.65198654780195,25.190313367072104],[90.65511020743712,25.193154168985455],[90.66498051669,25.184633639886645],[90.66846977627279,25.172403262893248],[90.67490156548506,25.16753292796293],[90.67991453038476,25.16995369757769],[90.68889778024402,25.161139926960157],[90.69348280570867,25.159757072235745],[90.70121628341202,25.16004829576614],[90.71482143996822,25.164836181024157],[90.72068041484631,25.164826310541432],[90.73205836304724,25.154694264839723],[90.73733708374401,25.15368589731193],[90.74024956472722,25.15742468630246],[90.73949081619725,25.1615623517692],[90.74140912177408,25.16520744556158],[90.76045654720596,25.165189981201586],[90.76682823822742,25.170150234540483],[90.77506640562707,25.18226245513993],[90.78010337979937,25.183774932981912],[90.79014748611024,25.182374283699684],[90.7958609321157,25.178572480276785],[90.80102181181344,25.172413225445105],[90.80884285010417,25.167365728502183],[90.81951638168012,25.16353851302892],[90.8547976075644,25.159658855180986],[90.86938064768103,25.15966913669187],[90.88684008884582,25.166480746771274],[90.9085316118917,25.162059648597804],[90.94483302749471,25.16936213109093],[90.96554316175396,25.17141841745413],[91.00865684351625,25.18105045966425],[91.0356440914689,25.188588647802835],[91.06377591526437,25.19216282893934],[91.0815071830409,25.201932692838792],[91.09412633706313,25.2003609844887],[91.11514174400878,25.194373408543978],[91.13472048520195,25.19295979639254],[91.15877550001488,25.197188924265614],[91.17389092758295,25.194920840034285],[91.19317016417222,25.19981769195481],[91.21292010808891,25.20038567950933],[91.23031968642147,25.197318716660025],[91.25205224720449,25.197541954247757],[91.26464437720807,25.20678734229268],[91.27429468096301,25.204622279107532],[91.2857002281044,25.197342260506648],[91.29050490602907,25.193592123961015],[91.29147300064783,25.1869221936437],[91.30698814797462,25.1839134818907],[91.32086266975868,25.185042548170838],[91.32674703911152,25.18284272995879],[91.32769871791679,25.177434908911735],[91.33836355290246,25.17365462262763],[91.34532149435978,25.172459278049946],[91.35647867529144,25.17726406384528],[91.36832766858635,25.173225486940392],[91.37633762168302,25.167158695595408],[91.38308486149384,25.167764064286427],[91.388108802908,25.17033728895933],[91.40392386357216,25.166147211442034],[91.40896651599537,25.167452479593116],[91.41387930526619,25.172469439783136],[91.41877182405261,25.169800533374527],[91.43181936037934,25.15574814791941],[91.43608855076653,25.15515546685707],[91.43929921133865,25.152201019806384],[91.445965150023,25.149819528577908],[91.46331089771047,25.1512401453825],[91.46681074483719,25.14946439090197],[91.47091336421451,25.136142626662195],[91.47747535614235,25.13511299627164],[91.49305216922014,25.134701250660854],[91.50025576846664,25.137199301573308],[91.50370485808486,25.139939490874713],[91.50416525544776,25.14364993014046],[91.50781696546818,25.145122868405277],[91.52795827481145,25.144841972516993],[91.5474530316104,25.148971497224284],[91.55377660347537,25.151364671997783],[91.56105488416301,25.15802091690582],[91.57439306231508,25.163450509474636],[91.57604727487649,25.167167601625103],[91.57958752283479,25.170177343847207],[91.60286969005934,25.173696382960483],[91.60822498135428,25.17227493338032],[91.60154501907002,25.16664689618153],[91.60140682763662,25.160141836450688],[91.60376302598185,25.152937436715753],[91.6009426753158,25.146958796683283],[91.60504238145664,25.143103524803934],[91.61859409813492,25.146645469881488],[91.62398686534688,25.14361566369321],[91.62806997511284,25.130822714122267],[91.63465730402328,25.126001905382044],[91.64201434180855,25.124343562186052],[91.64694975514976,25.12672964861295],[91.6505759323549,25.130904259358942],[91.65662376544506,25.131135386177363],[91.6608010716534,25.129444168720553],[91.66505153755679,25.131106722965523],[91.67184921238092,25.13720458762482],[91.68889982756497,25.13813866512036],[91.69413607322012,25.14042833623445],[91.70257893343536,25.150151607472218],[91.70480345313298,25.15676352447287],[91.71114173491073,25.158164601346346],[91.7161157722159,25.157383740819345],[91.72656281515252,25.152851412001038],[91.74395672601398,25.148634774400264],[91.7475910024297,25.153895559160958],[91.74380463674478,25.16714638455715],[91.74664156941265,25.17168239197643],[91.77187937170567,25.167062530109],[91.80638319015316,25.169370836142676],[91.8162963625198,25.171417433711202],[91.82182765893172,25.174164047955983],[91.83006448335001,25.173947245464927],[91.83618728803718,25.177589997577687],[91.84113757568286,25.17870512242748],[91.85168401540905,25.17552352619745],[91.87162655003779,25.17510010506503],[91.89232389498234,25.18037446031831],[91.91334275954348,25.18283652889449],[91.94707618549828,25.18330162653801],[91.95928387788277,25.181193712121534],[91.96943819849582,25.176552748130927],[91.97461745323274,25.17252057445062],[91.98316250848964,25.171572088568873],[91.99083974626635,25.18100517935284],[92.00210579851887,25.187649641035975],[92.01083010720082,25.189142705978984],[92.02614231791839,25.183524793889603],[92.0301189952895,25.183186057715453],[92.03526858675738,25.185195734680313],[92.04650115610433,25.182269806541125],[92.06213984513889,25.187859904562988],[92.0814099629297,25.1838796803678],[92.09385088311473,25.177256230862877],[92.12238034617074,25.16591046527913],[92.13452819997751,25.1568478234539],[92.1354960565427,25.14330130449334],[92.14969991238802,25.137671510159855],[92.17586179903739,25.123325528846888],[92.18380042679881,25.12155650790416],[92.18974668558319,25.122299581381103],[92.18813053014878,25.12807277699606],[92.18424024375857,25.133202162177977],[92.18759943627134,25.136017023230888],[92.1917688507799,25.13468071433501],[92.19964955427352,25.125402306591695],[92.2192019110485,25.121682915960424],[92.22466606557943,25.11854337378608],[92.22259755000901,25.115108569545853],[92.2149619832817,25.115076072339473],[92.20922738644292,25.11171044623309],[92.22932325720244,25.09715539784598],[92.29723578578235,25.072094871121894],[92.30843227788917,25.071857771815136],[92.31794288283763,25.075945942741967],[92.32357138325149,25.08102459990968],[92.32851945116015,25.082938899505283],[92.33337686737852,25.082503189226976],[92.34092593353046,25.07809360651835],[92.34384679399865,25.06654511485321],[92.34239363248267,25.055702583225457],[92.3447851004826,25.05056044191874],[92.34905866925847,25.048400319135194],[92.36481705970294,25.049530699004045],[92.36958117599761,25.045204870137116],[92.38366096821396,25.044064647467778],[92.38920797885514,25.041999988106344],[92.4016317331334,25.033633674622322],[92.41520821636408,25.0344812457672],[92.42518617253407,25.029659240657658]]]}}]}