{"type":"FeatureCollection","features":[{"type":"Feature","properties":{"shapeName":"Manipur","shapeISO":"IN-MN","shapeID":"1811400B97532436596698","shapeGroup":"IND","shapeType":"ADM1","displayName":"Manipur","coverage":"context"},"geometry":{"type":"Polygon","coordinates":[[[93.45389382726688,25.324915826952036],[93.45333483171672,25.321564714680232],[93.46653191957196,25.311925058081783],[93.47040459988094,25.30516118384988],[93.4672043723425,25.30176456338686],[93.46306328890135,25.301572976314475],[93.45525758395421,25.293574870076128],[93.4452224392366,25.29144503528443],[93.4439903324508,25.289947117032337],[93.43596139705383,25.287924045766413],[93.43067677712064,25.28304695143006],[93.42742523691486,25.283341515627068],[93.42660447947745,25.279740014194072],[93.42043309479804,25.277561965993684],[93.41583662300005,25.26436999572548],[93.40657850213859,25.260878715205102],[93.4010639584084,25.260717322734298],[93.3935631722114,25.254841773555555],[93.39249415726036,25.25006966433299],[93.38649912354931,25.242879664967784],[93.383238569648,25.242378918231182],[93.38102004710319,25.23972947565501],[93.38086107404399,25.238045863140684],[93.38258800253271,25.237346180207478],[93.38154076004922,25.23440782723598],[93.38416081425466,25.233622314133314],[93.38454766115535,25.231460245942884],[93.38117303199273,25.227456873142028],[93.3816788616511,25.223001911281475],[93.37551603701804,25.220244153635964],[93.37660757093664,25.217978339743],[93.37327822854242,25.214940626214513],[93.3737296957531,25.21192557325983],[93.3688377069727,25.211067798389966],[93.370618971858,25.207994101854684],[93.36600495506417,25.20620199439565],[93.36552426565733,25.198176655880143],[93.35927868103377,25.195413773134387],[93.35988925874587,25.19195180304804],[93.35661517711466,25.19197852464189],[93.35727060052238,25.187699672729586],[93.35606495900313,25.189058129369087],[93.35402139234307,25.187766913531085],[93.35485999032208,25.18603385999266],[93.35123933685765,25.183297956152654],[93.35139871056546,25.179763807441493],[93.34970725295402,25.17959656053161],[93.34577104917805,25.16990942210274],[93.343908713135,25.159234230057965],[93.34646814633011,25.157185506658852],[93.345083807443,25.15083611076391],[93.34604154179158,25.140681266854678],[93.34740962746028,25.13887401534515],[93.34228241122948,25.13758614397899],[93.34523927258101,25.130437068591128],[93.341665447394,25.126513906161776],[93.34515656918437,25.123562647163162],[93.34107629629808,25.123164611184517],[93.3421034174175,25.119991685583514],[93.33922906722316,25.115590148289172],[93.34123239923996,25.113690358139987],[93.33664733335111,25.111703164600964],[93.33797642584824,25.11000186996686],[93.33235768652828,25.100832974280753],[93.3334392015365,25.098088936256193],[93.33160088913907,25.096147506293885],[93.33206279297669,25.09334014453227],[93.32744305660944,25.093501256835992],[93.32177858944824,25.090921971761418],[93.31482248684232,25.08471747009918],[93.31263928605449,25.07945354730825],[93.30601214470896,25.071736649151898],[93.30620727585666,25.068355908372247],[93.30233475365117,25.063438616542282],[93.30545996018527,25.057527074032826],[93.30412798589269,25.055716434585356],[93.30068894932083,25.055958538949305],[93.30199803004838,25.054343274713048],[93.29985726477625,25.046140726109755],[93.29744397400314,25.046681172770796],[93.29930536412024,25.049453500672758],[93.29869924295024,25.052048616141608],[93.29469614792328,25.051166340191987],[93.29357934259912,25.04643529420181],[93.2912590274579,25.048740608298257],[93.28886782176605,25.045782701713307],[93.28707814775136,25.04711324077425],[93.28336347301602,25.045097853651903],[93.28259754515028,25.049110142928896],[93.2795614766452,25.047325250191566],[93.27997487325409,25.051099011166052],[93.27720608588538,25.049675420007123],[93.27441044427957,25.051045713843262],[93.27204891802639,25.048543543214933],[93.2703524837483,25.050866928260017],[93.2641053863618,25.04946317132103],[93.2621711132308,25.04601318608627],[93.26595345266658,25.043939659173695],[93.2620865718811,25.04082226463369],[93.2595197212967,25.04130782496049],[93.25824927082128,25.038124605516842],[93.25979290526277,25.03507451335315],[93.25368678947697,25.02726538656228],[93.25125436099502,25.02724534744839],[93.25106743955072,25.02594975265616],[93.25393609712114,25.02557289160856],[93.25240290469651,25.02303041474978],[93.25384673810657,25.02067990454373],[93.24898259260841,25.02018844968821],[93.24718152885426,25.018092515607233],[93.24378308625174,25.018387458750528],[93.243636665352,25.01622524796778],[93.24757111381994,25.015000864002648],[93.24462278376862,25.011814985552036],[93.2416845777306,25.00402663712636],[93.24409776250252,25.003361078001657],[93.24428812629101,24.9981897641176],[93.24676242884159,24.99748163723591],[93.2487809423867,24.99900724693968],[93.24868279245877,25.003087641456077],[93.25040012514363,25.004420632354503],[93.25224110194418,25.001032280621796],[93.25691316787166,25.00483667833758],[93.25967986306405,25.001692690721807],[93.25853269917488,24.999579370628762],[93.2540595094715,25.00033410354052],[93.25267390934972,24.999010449018],[93.25287857611417,24.997439844417457],[93.25694107493425,24.99617474110033],[93.25130976728514,24.98611346029949],[93.25333413155768,24.982170029774995],[93.24957262674829,24.979986765075907],[93.2490996278186,24.977603128883604],[93.25189299039852,24.977176645830916],[93.24951757888599,24.97323566406444],[93.25233769509171,24.974386499536557],[93.25705547179243,24.973724883300534],[93.2608229270423,24.971559779095855],[93.26290499908868,24.96143739763229],[93.26076939284124,24.958646969355296],[93.24989978239498,24.955240340840117],[93.24526204468773,24.95090776776127],[93.2490270717914,24.948273099061993],[93.24722189285491,24.94521877602973],[93.25086889300832,24.943509497766065],[93.25116802121813,24.94074227435739],[93.24751852554489,24.939901232892698],[93.24481694204088,24.941293660459326],[93.23671400971904,24.937264642623298],[93.23703157046019,24.93263318390208],[93.24253475589192,24.936208440098955],[93.24500423808267,24.935488707148444],[93.24460539058812,24.932604710511963],[93.23839146169685,24.92578018297971],[93.23924158595925,24.924470498486013],[93.24587040625603,24.925349959600975],[93.2487358092302,24.914947760724505],[93.24395530766478,24.910654483590697],[93.23893176869583,24.910726184865158],[93.2364139571428,24.91237106608166],[93.23509666401691,24.911509953133844],[93.23768001126318,24.905924404188635],[93.24021829092999,24.905227350590287],[93.2407016519265,24.90345751924351],[93.23838614816196,24.898800993154094],[93.23190829334189,24.89914433965253],[93.22950702831548,24.89792276870029],[93.23201581269825,24.891980758101845],[93.22748372136003,24.893035737386434],[93.22591416603099,24.892030160062905],[93.22789058272525,24.888440299038518],[93.23144788789418,24.88763890644666],[93.23268737344173,24.884762680121064],[93.22763544231994,24.885136408004296],[93.22482078876946,24.880285874720776],[93.2214125266826,24.881624227302297],[93.22185981672716,24.877764590850834],[93.22634368919589,24.872936261054456],[93.22025834066282,24.8736219453382],[93.22135358552184,24.86961290449176],[93.21679852156684,24.865453991402536],[93.21461165565266,24.865396655812596],[93.21350979649822,24.86072997354625],[93.20992967232446,24.856182080762512],[93.20677315770608,24.85586340539403],[93.2039699954047,24.85115239751036],[93.20229301953398,24.851342906326963],[93.1994509601808,24.85524886132575],[93.19472560080078,24.853951158245437],[93.19801992776354,24.8531144665438],[93.20115852638187,24.848644125929063],[93.20144629180169,24.842157584973876],[93.19986795544075,24.841621253717864],[93.19532854013802,24.844431059694756],[93.19220629265445,24.842861728678624],[93.19165077987267,24.84012650048054],[93.19600672865167,24.836793259664184],[93.19958474986935,24.83958558709576],[93.2004938943442,24.838054901286803],[93.19769197800615,24.834260121480224],[93.19317174712461,24.835675160920335],[93.19150913172201,24.83450676298974],[93.19155290393088,24.83309393175848],[93.19580551231621,24.83101106203622],[93.18995744208735,24.81874498721297],[93.19685238649046,24.81146088233428],[93.19102258170628,24.804056257347778],[93.17984615436964,24.803167070694315],[93.17924513203724,24.797308217528197],[93.1760493287016,24.793951017224508],[93.17459059224096,24.793897356644386],[93.17348881752812,24.796100541479813],[93.17346626622123,24.8013321374217],[93.17058356438966,24.801951408847913],[93.1609883794639,24.796329777200874],[93.15976622331651,24.793481798703],[93.15413787831119,24.788815589623688],[93.14936122243348,24.78747588186666],[93.14840230859694,24.789182233162578],[93.15105336905272,24.792382147614454],[93.15106867005694,24.794779087553863],[93.14615408505391,24.797542400204918],[93.14164934561944,24.79738040451244],[93.14100212652524,24.801361764769815],[93.13460882293637,24.808228021616042],[93.13846642502328,24.810096424637848],[93.13473269432583,24.810679086485028],[93.13165623397232,24.805312195750986],[93.12693368272586,24.808860263604554],[93.11876404330766,24.807758816347448],[93.11779471081043,24.809356698546594],[93.12183999072316,24.816723465250725],[93.1212711334678,24.819323438730116],[93.10932803446038,24.811576868956603],[93.11129736075209,24.800684981311818],[93.10787603895763,24.794970022341303],[93.10828682506234,24.791945745530505],[93.1047119003374,24.791381074251206],[93.10600784679721,24.788542073832986],[93.10419850686434,24.78641577704687],[93.10512380664127,24.781215794038726],[93.10041719240627,24.779522400815335],[93.10017597858284,24.77370397408539],[93.10350967870448,24.767301885671518],[93.10228202756247,24.7593181028033],[93.09814943320076,24.75447203353863],[93.10101936009067,24.74968432450381],[93.0982284921323,24.746851566951992],[93.09977543596733,24.743273015138946],[93.10149436765336,24.742876234136695],[93.1026180370046,24.74694968634735],[93.10765904551086,24.7415435871855],[93.09699595235851,24.732053436027677],[93.09578826447708,24.724310394866965],[93.09055205205958,24.725179989541395],[93.0902702011476,24.72149279150421],[93.09314450103633,24.719008115707496],[93.09069133494606,24.718282411823704],[93.08999883986323,24.714424612216856],[93.08652177041886,24.709634214887426],[93.08241353118113,24.70891663173012],[93.07727551540395,24.713058136678185],[93.07344541254452,24.707907869230386],[93.0817338927866,24.70225904077096],[93.09115525370487,24.6881326824049],[93.09218345819254,24.68558697656231],[93.09000696422665,24.677276295427205],[93.0921807039579,24.676960833897436],[93.10180835220136,24.68080399028384],[93.1040521623214,24.674259017821324],[93.096367676937,24.66435863338277],[93.09526367619891,24.652928909796895],[93.08614593686355,24.652836579140494],[93.08308465264842,24.649915259553428],[93.08752355186077,24.6370921090224],[93.0871798600263,24.629770359354946],[93.08511123755636,24.628275641489452],[93.07861722114602,24.6289509262168],[93.07557693594899,24.624639068353574],[93.07703524930312,24.620179657522026],[93.08316946439103,24.615866081815657],[93.08410830986412,24.61370418488545],[93.07384115096991,24.60571123543978],[93.0710486840103,24.60074484197207],[93.0801661601393,24.59021200991073],[93.08910594681016,24.592484963018723],[93.09348503080099,24.591804291232407],[93.1014734926028,24.5876934820669],[93.10425843168031,24.5824846979929],[93.1017362839594,24.580895390966454],[93.09310738893699,24.5816069968187],[93.0890617344268,24.57347183211699],[93.08429420363578,24.571236184749033],[93.08186067651424,24.571280698894164],[93.07563991863017,24.57515179146856],[93.06205522749278,24.576342957021687],[93.05818146022231,24.574161098999205],[93.05948616705277,24.571037935791097],[93.06907068628114,24.561986563524446],[93.07070594618668,24.558150233570913],[93.06451718808968,24.546889842722187],[93.0615953367797,24.547412239081464],[93.06041771461251,24.553686269926633],[93.05690335969396,24.55451081805372],[93.04989126419804,24.544310248480205],[93.04708779018125,24.52867211915179],[93.05044617960019,24.523306645805924],[93.05002893820183,24.519537199970788],[93.04120773274177,24.515669789463644],[93.03863612917118,24.512974664061822],[93.03711084731093,24.509494950780613],[93.04262748591233,24.50645615332315],[93.04266764958867,24.50489606874096],[93.03245185995564,24.495400311090723],[93.04013836385451,24.486417299880387],[93.04626259416801,24.473668240806656],[93.04546002042854,24.463380169140102],[93.04355235449793,24.461875938364315],[93.03800907096687,24.462030867333603],[93.03561866657225,24.459858237577627],[93.03632106288616,24.442321294221916],[93.03281979282805,24.428853573468984],[93.03717686629777,24.42371911280456],[93.04254775324434,24.420652463853994],[93.04298420780997,24.416608045855384],[93.03980742630047,24.411920642949934],[93.02454393481402,24.40687802474056],[93.01606348190074,24.40880878634772],[93.01389226284216,24.41705906333957],[93.0105457374732,24.415995725805768],[93.00869769991453,24.411779175653148],[93.00906574866958,24.40658914054727],[93.01682680195721,24.401172273691195],[93.02494457534587,24.39136090702508],[93.02294444582306,24.386461891178595],[93.0184182115005,24.383473553534376],[93.02153589105085,24.373305301551493],[93.0176545321179,24.36435524737659],[93.0177324735452,24.349946665636637],[93.02063254969269,24.347464156441024],[93.02906284517206,24.344611954224266],[93.03494062807725,24.345856477716808],[93.03990963481685,24.34349493746054],[93.04034237035721,24.341369589694015],[93.03423725170136,24.322378903788557],[93.02310594045329,24.302158378078524],[93.01872235769952,24.29614908943771],[93.00812671275365,24.287244576082553],[93.00680931182991,24.2826150288602],[93.00765837428364,24.27660165503737],[93.0121893867452,24.270968146329157],[93.00475524566079,24.262219779108623],[93.0041953724566,24.257579722100385],[93.00927378860793,24.243442322065373],[93.0164602237443,24.235865371781667],[93.02397944426924,24.233750230336074],[93.01986540191479,24.23116204887866],[93.01596727502877,24.224822332900786],[93.02192914114288,24.21786866648989],[93.01974549299403,24.209463918857843],[93.01671019524345,24.205731402153134],[93.01491431027691,24.200032575652912],[93.01144451988128,24.19778123744918],[93.00040778775787,24.197945622502473],[92.99920354850879,24.19625182438165],[92.99942538028169,24.19362908193598],[93.00767574320963,24.182117643356403],[93.00313402821978,24.173785083427173],[93.00596378424682,24.161762184237986],[93.00330641761774,24.15792844680564],[92.98832526303183,24.14935423241036],[92.98759243359274,24.146215782072805],[92.99057207262662,24.137124062237287],[92.98351506136648,24.125544947510853],[92.97491193092475,24.125526524676534],[92.97098068944243,24.121070107333907],[92.97284510957692,24.112612754076842],[92.98040482705322,24.11276605915447],[92.99099709613023,24.115562279970497],[93.00619839635127,24.10735448122077],[93.00963739429558,24.106797933962294],[93.01277203403848,24.10143733270463],[93.02224681147848,24.099809106625994],[93.02686726110805,24.100806548231912],[93.03442874287553,24.097043178172704],[93.03805854298618,24.09204575348068],[93.04166004975869,24.09289450113043],[93.04667118568847,24.090023189545057],[93.05278229341229,24.089543033706782],[93.06058377358266,24.09188234090143],[93.06972646991326,24.099326738154474],[93.07475236606149,24.101877505009597],[93.07841110899227,24.101774553038645],[93.08246837063426,24.089411295195845],[93.08768668501803,24.081408861405322],[93.09203166985897,24.080283710172623],[93.09762977936846,24.07308232851761],[93.09789414187848,24.065597705118464],[93.09949139406436,24.063232821195413],[93.09750211439355,24.061125590601115],[93.09707644589953,24.056378815563843],[93.100944323815,24.05275708787089],[93.09728135161586,24.049752869457805],[93.09691459284153,24.04405275778201],[93.09937244095107,24.04324880348596],[93.10331418284078,24.04674768984205],[93.10379804150395,24.049742215776288],[93.10650614947184,24.04854360902786],[93.11225124941295,24.054379960226242],[93.11402017324288,24.053925972454316],[93.11410838690544,24.055739195447032],[93.11789136504343,24.055808611337348],[93.11688317951186,24.057066423423777],[93.1191955733089,24.058046170283983],[93.11821378836518,24.05908501046499],[93.1210983604892,24.058736970751475],[93.1196929704817,24.060492412720293],[93.1241994813939,24.06066847031241],[93.12604989589484,24.06218046972532],[93.13177861505673,24.07139571907181],[93.13085586110532,24.07282752627109],[93.13362288328447,24.076478095234098],[93.13343357501645,24.078627858382568],[93.13984480269019,24.084661989653288],[93.14046300620072,24.087919167774608],[93.14332307228379,24.085794454688063],[93.15104496441491,24.084047760263697],[93.15069349856,24.08289103780141],[93.15394270853594,24.081430532568064],[93.15583292379384,24.077662757578896],[93.16119487699493,24.07332557633242],[93.16586423899338,24.073661769139125],[93.16656601277481,24.07136601977423],[93.16281875075423,24.05988064075194],[93.16353361837925,24.055032241072997],[93.16747543752403,24.051442562342494],[93.18741196781343,24.05379733339333],[93.20966815837221,24.0482182019184],[93.21266782714197,24.049257104411534],[93.22044359483398,24.061268527663874],[93.22264246763024,24.070852651442152],[93.21899666672776,24.07798305755789],[93.22032701057807,24.083448689468327],[93.22469652751116,24.08463875672502],[93.23257937887658,24.082178661112593],[93.23803620495146,24.083173129248255],[93.25025142252306,24.080237059833724],[93.26100617078382,24.07016755674727],[93.2608912008005,24.062478919920743],[93.26308033226583,24.058283440521464],[93.2594331829921,24.055768920510044],[93.25715464759641,24.051384728704843],[93.2507674884841,24.03297990072374],[93.25147121071137,24.030177731340196],[93.25521547146059,24.027990310007414],[93.25312899497436,24.021273363847314],[93.25597799920298,24.0248258328837],[93.2712933432443,24.03393861163497],[93.27375126950724,24.036602769534625],[93.2738087482107,24.039420604622848],[93.28218661172188,24.04298106945811],[93.28345249606068,24.04604240378245],[93.28650816939853,24.047685454609784],[93.28643324541227,24.052552259957604],[93.2937720914147,24.048879494334138],[93.30285673142511,24.05280015604521],[93.31521675023399,24.051933309253297],[93.31772673296933,24.05322581504339],[93.32262145891642,24.048847761124126],[93.32617422040661,24.048524906049494],[93.32601964999061,24.051979731992656],[93.32852801575847,24.05385416926976],[93.3322762380781,24.053579074567388],[93.33597435416779,24.060293716342507],[93.33836210763404,24.061793572981273],[93.33796788107328,24.06334701116486],[93.33605270792184,24.063562727021512],[93.3370200461591,24.06770355483366],[93.33326320091108,24.070004762599606],[93.33430804489278,24.074541708424277],[93.33071479184115,24.073179487611387],[93.32836778505789,24.07727458461614],[93.32846535916572,24.081022519662355],[93.33113034261008,24.08238190481135],[93.33085776590511,24.08549442099731],[93.33635169958772,24.09064895906439],[93.34508308699412,24.091531213251585],[93.34743132536764,24.087567398614276],[93.35051950514236,24.090587950557833],[93.35405090200015,24.090924315415194],[93.34928482558156,24.095427720058623],[93.34640443242027,24.09459958878382],[93.34539566388207,24.096889096560805],[93.3428310375263,24.09742086869246],[93.34253311126233,24.102932505587503],[93.34692225728266,24.10303463089423],[93.34879620045749,24.104946581442675],[93.34994094338698,24.101771690413255],[93.34859885765756,24.10135844586521],[93.35073241574615,24.100244214396763],[93.34836415841656,24.099061757521262],[93.35130480607553,24.098114032752193],[93.35444369305311,24.098962176027385],[93.3545272812903,24.095995237180635],[93.35916515554142,24.093923812128676],[93.35837499382424,24.091063240285315],[93.36383394531306,24.09214786368514],[93.36762380185115,24.09007672988483],[93.37228185046695,24.090864843853545],[93.38364917069974,24.08543356011639],[93.38378728038649,24.086970666781923],[93.38649166304089,24.085945101109044],[93.38977255030868,24.082844225206898],[93.3960950522801,24.083537816670333],[93.39850264683604,24.085391006442897],[93.4011927498707,24.084005945874075],[93.40273103843793,24.08134398075659],[93.40667053813269,24.07969485963054],[93.40653279495861,24.076656520019977],[93.40949250127467,24.077128871105845],[93.41016475731413,24.073323444675296],[93.41387454701096,24.0741716954217],[93.41662300460649,24.07185815781907],[93.416189297089,24.068860350327206],[93.42155990016795,24.064117811716674],[93.42577115730413,24.051368811140186],[93.4249805167849,24.045362859282037],[93.42740982092626,24.04317449874549],[93.4278834783211,24.03744600332272],[93.43001698969728,24.036605373542184],[93.42847745786169,24.03577570568331],[93.42975988916803,24.034809233268053],[93.4290493945418,24.03323171445278],[93.43339414582081,24.02746120130577],[93.43303745446589,24.024540797243937],[93.43789868762592,24.0169138680486],[93.44312129865166,24.0139667144659],[93.44988935512256,24.015407513666158],[93.45302737881913,24.013197972873183],[93.4540756408905,24.010588162949208],[93.4526802608102,23.999590193183828],[93.46094709345059,23.99871949719266],[93.46336987672132,23.993953361088362],[93.4627795632054,23.983791237953874],[93.46048263210935,23.980739034882777],[93.46335653134946,23.97361093859915],[93.46640265200257,23.973239466102687],[93.4713416397403,23.96477613566445],[93.47463938569102,23.961948907301238],[93.477066785404,23.961660563744445],[93.48201797855151,23.957277092562112],[93.48568657600097,23.957325036160444],[93.48947756261971,23.954793007417074],[93.48955048156627,23.951459258011308],[93.4914726768483,23.95063580923432],[93.4941219406735,23.953832018181945],[93.49590889548783,23.953154951045708],[93.49895007540687,23.9459579657577],[93.50021829087383,23.94467773419472],[93.50275534344196,23.945032050410518],[93.50552766568134,23.942384469124764],[93.511048473364,23.943650551975587],[93.51499153128557,23.942834055800297],[93.51953571484583,23.950788455520488],[93.52498339607108,23.95607391354869],[93.53018331744941,23.954270784337403],[93.5344845705057,23.959067226556392],[93.53982761596669,23.96100403149147],[93.54361904545482,23.960595546732513],[93.5451767780564,23.95848003541794],[93.5503392280093,23.959547779727597],[93.55032629855742,23.961904728403134],[93.55280790710619,23.96205455635689],[93.55148432577332,23.963808312287142],[93.55351648472761,23.96474967881805],[93.55377824032664,23.969474196090257],[93.55549522716012,23.97031923744585],[93.55428330641706,23.97225397966425],[93.55578284705282,23.974713811494627],[93.5551287208124,23.976786585728465],[93.5574755712888,23.978348575539847],[93.55729765276027,23.98133239365628],[93.5595443078448,23.982026520154278],[93.56197090805718,23.981332694879175],[93.56277605816486,23.979206896440722],[93.56488939158312,23.980405315694043],[93.56986320161454,23.976857904183692],[93.57093846794164,23.977580391093948],[93.57057022694715,23.97052408636615],[93.5737271511973,23.969287444370703],[93.573591060025,23.96698331609537],[93.57653737515513,23.96690358654029],[93.57995137657834,23.962928697590396],[93.5852655412029,23.960161057672906],[93.59185325638893,23.960692163688403],[93.59293795143329,23.964040062799576],[93.59692055499028,23.9661242496847],[93.59924092223382,23.97264916867208],[93.60852581019577,23.9719125489522],[93.60920944878823,23.977672258514175],[93.60797807951927,23.98064145705404],[93.6138490522963,23.992505101926284],[93.61198126258115,23.997176482165816],[93.61673018566941,24.00709254772898],[93.62375862152032,24.01137256448659],[93.62605256571806,24.011436215987178],[93.62772553869588,24.009546674764948],[93.63596971851973,24.010513816347856],[93.64215605296211,24.009126254148505],[93.65235690540858,24.00970572242638],[93.65405086662466,24.008832930976833],[93.65449559736902,24.002728632185004],[93.65642432519978,24.00200654816561],[93.65894959456634,24.003407990976218],[93.66268610824453,24.00193363190336],[93.66792482785999,24.003282853850063],[93.67075078670833,24.002584560700388],[93.67581413451906,24.0063584670666],[93.68113118183737,24.007819090256046],[93.68342729726315,24.00637794181235],[93.69043256196967,24.009097619530298],[93.69292577944687,24.006918249125402],[93.7168722436375,24.000660507617503],[93.72332489891718,23.997537461500738],[93.72757633050952,23.999359955906986],[93.73514877172346,23.999680255876097],[93.74010506460685,24.002559477157423],[93.74121049636119,23.997156978945313],[93.74481284755002,24.0035888183358],[93.74663805532408,24.002783416908297],[93.7543018516092,24.005539799657768],[93.75745999127993,24.003218115902477],[93.75904630647722,24.00379384657364],[93.7614819419447,23.999614872723058],[93.76355156962946,23.994814862362336],[93.76218912717742,23.994487630252294],[93.76331697189808,23.993536958518455],[93.76229548770705,23.991349328420846],[93.76479874385755,23.99004109593387],[93.76482056034256,23.986389523193857],[93.76878640403132,23.982233613309752],[93.76794328393319,23.981148058241153],[93.77128744493633,23.97615974595274],[93.77053240734676,23.974744018231004],[93.773787407863,23.970931387206427],[93.77225326232585,23.97086927526791],[93.77329695376903,23.969853368286948],[93.77196655422314,23.96902017858251],[93.78004591654856,23.964441009189144],[93.77969804754802,23.962776815146416],[93.78156268776982,23.961337241895475],[93.7852596692873,23.96152138154698],[93.79270217638195,23.95127071102171],[93.79786369298523,23.947347405525484],[93.79809083829305,23.94171629598278],[93.80061865348512,23.93810459109648],[93.79954115753947,23.932719672697544],[93.80776267556365,23.926760203086634],[93.81603046221488,23.926012969376192],[93.81964572129601,23.923610530865236],[93.8246007215037,23.926429313365002],[93.83145010066063,23.926440074967665],[93.83498166999497,23.930807916680767],[93.83993347040361,23.932295832798122],[93.85913248653969,23.932101803343304],[93.86966142259257,23.93848121423557],[93.87191220274092,23.941256647023412],[93.88275690200602,23.941708096424808],[93.89189129970003,23.949490520803504],[93.8933823512564,23.952934665261978],[93.90214617772602,23.949914901077936],[93.91908446487199,23.951474339886808],[93.93010819208503,23.950039532614426],[93.94408637675792,23.946250010163634],[93.95073962673887,23.940728360851423],[93.95512539329711,23.934394843878415],[93.95455099163979,23.93242513688841],[93.96036471837706,23.928407951875144],[93.96434237760674,23.929536112869485],[93.97524956368302,23.924724609495726],[93.9802574782542,23.928939191075898],[93.98456317078465,23.927234026849828],[93.98866742689238,23.928640445041484],[93.99815764277888,23.921787349652185],[94.01673290561257,23.926910951273406],[94.02443449312337,23.919110764283047],[94.02523778282008,23.915644306386284],[94.0372588915268,23.913002429289413],[94.04048803224096,23.910733421336065],[94.04088088258268,23.903704082075464],[94.04297204827472,23.903195095661278],[94.04118583007894,23.900720354951236],[94.04588862647395,23.89668774462404],[94.04481773673892,23.8941497424499],[94.04921029006914,23.892156186221516],[94.04902576263503,23.887240166515717],[94.05394492545278,23.888739982329124],[94.0573660559061,23.886841253921304],[94.06190771699703,23.890567882673164],[94.06689998740754,23.889053255973483],[94.06814687776797,23.889973747586794],[94.06872699360879,23.887871593470262],[94.07446923870393,23.883467102191066],[94.07947594683768,23.88396566806245],[94.08169005416285,23.88211553601605],[94.08598963275948,23.887357855545595],[94.08869563417801,23.888160497722346],[94.08992257654927,23.88682500636344],[94.0922354033343,23.887051014055313],[94.09606395659985,23.889188013616856],[94.09863757329501,23.88586508016816],[94.09819036050553,23.883074674382964],[94.10088685146019,23.884661132279764],[94.10248205638553,23.88326171263718],[94.09932039981047,23.88059842087896],[94.10294399166419,23.875879867963253],[94.1048883025702,23.875365436774437],[94.10312684374028,23.87013288679361],[94.1092489423516,23.8673350408234],[94.1084190418612,23.863921080855324],[94.11308368950108,23.86297376523898],[94.11251534159051,23.856239584063072],[94.1094426631443,23.85478946014691],[94.11610781939605,23.852380308893423],[94.11065409071229,23.84932598803428],[94.1139137211455,23.84601763510304],[94.11345853670622,23.843331857942164],[94.117070030948,23.84375253521133],[94.11705970750876,23.83798844034968],[94.12246552903841,23.835928345483232],[94.12509875703748,23.836659805425693],[94.12606123269413,23.833477972645277],[94.12915910259585,23.83471778622535],[94.13284788968129,23.83288602680811],[94.1439159119227,23.835809956467955],[94.14183035620964,23.842514771763245],[94.14260154550799,23.84711400972268],[94.14478109554251,23.849750505760987],[94.15164420455024,23.849962744795178],[94.1536940010268,23.84763696076806],[94.15664060631273,23.848169686126855],[94.16761754297758,23.902166986399944],[94.16969044232663,23.928414952639663],[94.17251369095773,23.92583103467127],[94.17688959401416,23.925933152913245],[94.1854417396736,23.929429449397052],[94.18984354026134,23.93363982622853],[94.19072449919584,23.938685410100966],[94.18746389139558,23.94585191189951],[94.18840831001675,23.959668336814477],[94.20424566057804,23.986983743148738],[94.20931448541705,23.99207634146024],[94.23730958742297,24.035378808772307],[94.22778956004547,24.05691527797569],[94.22958728835499,24.059740866746576],[94.23317496017376,24.057716498820888],[94.23499400730161,24.05285726306691],[94.23928749442224,24.052918320695674],[94.25451056261925,24.082483497835508],[94.2516018491703,24.126404800078344],[94.25965853172973,24.165309886544946],[94.276431601627,24.17337568246366],[94.29152806036952,24.23299012897747],[94.29792587978932,24.237160674953547],[94.30164724787183,24.236679464863972],[94.30661050898688,24.241417729226406],[94.30888763402756,24.250191234253727],[94.32164759178404,24.276305558911837],[94.32172028076192,24.328896220749947],[94.35049473775207,24.335082920646304],[94.37845075675489,24.37970077483006],[94.36095875435599,24.394476266396058],[94.39477066971041,24.409479235392403],[94.40832696330507,24.439886468741715],[94.39683360225138,24.454591767305168],[94.39986982347007,24.461891117771398],[94.39834558545216,24.48234862796317],[94.4259791631669,24.48167923272475],[94.45453239295037,24.565996854106288],[94.46759106928498,24.572283702873225],[94.47303206794282,24.571407702229276],[94.4788264485621,24.57864597944195],[94.49659037279413,24.59036002695946],[94.51495474353847,24.610744334267682],[94.52564164384248,24.626324466361005],[94.5347679611905,24.642932451447763],[94.54492510700517,24.66882390705657],[94.54715113497416,24.68668500551652],[94.5408408042765,24.70138786430056],[94.5452280386819,24.710458052899565],[94.55090007504768,24.713103354329423],[94.55671053461224,24.712222463608917],[94.56482178353697,24.705438818107623],[94.570756296849,24.705905982078793],[94.56764492347196,24.71587715339166],[94.57181486888484,24.724047098215717],[94.5758799054456,24.725177585718075],[94.58001116221587,24.723860029800573],[94.5806992025532,24.7161688346627],[94.57870930034991,24.708694312478205],[94.58516913047379,24.704738953512912],[94.60501397241707,24.715869876100736],[94.60656149027555,24.727322733931768],[94.61185688011071,24.737825961351113],[94.61922750132136,24.747756765220867],[94.62845291003173,24.75602839051731],[94.62893820330443,24.75815614343257],[94.62782756581302,24.763687031542716],[94.61790237488617,24.780570647821826],[94.6182258168975,24.78553087367896],[94.62237009205283,24.79063072429489],[94.62961372651661,24.805350335291752],[94.62896573756619,24.817844886442696],[94.6322955381012,24.82417135939305],[94.63320342493468,24.83618695744201],[94.6318301461053,24.839622538107502],[94.64483159167146,24.849436968620388],[94.64986947493885,24.855167628583892],[94.64832918941671,24.86083543058811],[94.65227102383288,24.86328228517776],[94.65692905897396,24.87131316100818],[94.66065213834707,24.872668625362362],[94.66287302795266,24.87112498533763],[94.6654601337501,24.874390022816165],[94.67323623741203,24.875411858228702],[94.67520284899494,24.880236770405478],[94.68089581071693,24.886416410019724],[94.68764498370226,24.889338430872943],[94.68655899867717,24.8928525124745],[94.690431271151,24.90074390172388],[94.69012176290809,24.904295700915224],[94.69251620522991,24.906164315314808],[94.69522425211237,24.916771970665387],[94.70142469818953,24.9230593628298],[94.70179475288262,24.929577692743695],[94.71024293920917,24.928982735592868],[94.71360261052402,24.935002558444904],[94.70742843927061,24.942915655358192],[94.70576357448655,24.950660069336934],[94.7020172646802,24.952983886450248],[94.70169119240173,24.955829913969136],[94.69659685361198,24.960180291217004],[94.69768565755042,24.96502639600749],[94.69634849997868,24.96826069738945],[94.7011638202445,24.97446121742453],[94.70250574427716,24.98185598891333],[94.70711728172083,24.98711880257075],[94.72697021299324,25.000039004687384],[94.72638677787744,25.001949647351086],[94.72848932522413,25.005856907347834],[94.72746544163294,25.010019932643893],[94.73876684977841,25.023596000053374],[94.73747519457072,25.0267228658154],[94.74123163378026,25.0344724895992],[94.74408122999866,25.037007641089374],[94.74205104643971,25.039391407398092],[94.74347763309463,25.04370787686531],[94.74255544059027,25.044992594993147],[94.74450740424417,25.047400870207742],[94.74212309761371,25.05343943097851],[94.74461135010235,25.060085203635445],[94.74170822327613,25.06425328379587],[94.73769370437368,25.065592307132672],[94.74467192889183,25.080128072999457],[94.73995497055634,25.092202891831192],[94.74114475411587,25.103588789875925],[94.73632009855758,25.110133482839988],[94.74090560102766,25.1211881646983],[94.74094483225277,25.126575704683027],[94.73789140021155,25.128690132371453],[94.73856341729916,25.131003089181796],[94.73647672072569,25.13505256426853],[94.72971849272233,25.134401629130203],[94.71805223921412,25.13894018358773],[94.71464469667778,25.138060986757665],[94.70729274605198,25.14425805592305],[94.70238183515846,25.145519478058365],[94.70105194765226,25.15106800730577],[94.69745102298812,25.154940993499704],[94.69186316864594,25.15549984751073],[94.68947069632952,25.15761196920742],[94.68774210326258,25.153571949443176],[94.68014113245351,25.148907635663832],[94.67778898820512,25.15086376917242],[94.67742313044104,25.154419695944835],[94.6696417401937,25.156872267911478],[94.66419298548169,25.16275827881694],[94.65311188556637,25.165429742741836],[94.64825435705859,25.16834618297447],[94.64006269544122,25.166096601768572],[94.63507115895426,25.171590486975735],[94.62907811860485,25.17535469302733],[94.62002676476898,25.186824337455256],[94.61101401962571,25.181867798950517],[94.60598369657976,25.18137286159607],[94.60330729015823,25.186778163464588],[94.59622308419952,25.191286130023308],[94.59206021212117,25.19227945817263],[94.5914725001263,25.198119457681667],[94.58892930847153,25.203210869948578],[94.58137637417397,25.211381119724564],[94.57563994477198,25.21386287805357],[94.57913820277895,25.216197923070514],[94.58274154211459,25.223004048593967],[94.58288504887955,25.227273373161328],[94.58577781992715,25.22910313695079],[94.58539401741695,25.23869446281752],[94.58781977680621,25.24534687837946],[94.58619914147351,25.24836446810077],[94.58948163762396,25.25535597428494],[94.58511962072522,25.2667544426455],[94.59186229978934,25.279047949492288],[94.59352853899577,25.285949236054588],[94.5998654813854,25.29472923622276],[94.60366859705708,25.305508385932857],[94.60622049967519,25.306515482206123],[94.604391664504,25.309178167506325],[94.60738704741155,25.316144172262618],[94.61867332613102,25.32978943473995],[94.62379838191355,25.343292557974035],[94.62235306358832,25.345824738499495],[94.62954396424996,25.348947803097776],[94.63123445886737,25.353340086309313],[94.63437322726733,25.355691919904487],[94.63470739695975,25.358143494348255],[94.63261002480743,25.360303944932518],[94.63406109055387,25.37098336420699],[94.63195027152008,25.380872492071628],[94.63233011605313,25.388795458568293],[94.63474079542371,25.395189525624772],[94.64066804944993,25.397951097801165],[94.64908683032395,25.405831435731475],[94.65658033208233,25.404398429472444],[94.6603325078875,25.405685446104798],[94.67042032622011,25.418725446059454],[94.67011823356984,25.421344541106958],[94.67314160618503,25.424430548224343],[94.67123982691446,25.442268463730528],[94.67545193565354,25.445610547355752],[94.66838546333686,25.44849703910579],[94.65570317930967,25.449742600174044],[94.6458666646778,25.456929547894855],[94.63731739901718,25.4558282828774],[94.6307253216121,25.458969881517536],[94.62597658537345,25.459066273814273],[94.62294942366442,25.46110581367334],[94.61597476994953,25.46246914396395],[94.61034585092074,25.46974943730682],[94.60171710501871,25.476603772300464],[94.59530677655856,25.478331317591383],[94.59267546286937,25.483976213889797],[94.58557458507728,25.48536447003986],[94.58152007856827,25.488482183042773],[94.57677332760636,25.49573078223963],[94.5679324921607,25.50093229597177],[94.55905225121678,25.500675764296705],[94.55388861009783,25.502621380478242],[94.5531653252586,25.510321213548078],[94.55593809036742,25.510768585209963],[94.55689301658242,25.51909458906909],[94.56005378741861,25.521436898888588],[94.55591294831922,25.523514352349878],[94.55448645239414,25.52852003598116],[94.55677837268755,25.531602710261893],[94.56193625650384,25.533720687662527],[94.56048487544874,25.536069750876194],[94.55771756580866,25.536691452348013],[94.55777241604159,25.53931564351523],[94.56661404649628,25.548011276957535],[94.5650588579236,25.5510386403278],[94.5571198268186,25.55321156310026],[94.55588499274758,25.554686023103326],[94.5642934438942,25.563446919470152],[94.55839799112736,25.565821336579567],[94.56096962883394,25.573129051045136],[94.55088403472998,25.579508454427092],[94.5583476351658,25.583089051221865],[94.5598588314424,25.587826399338322],[94.5564692345505,25.59069964940731],[94.56073376357969,25.59432455972383],[94.5596332438133,25.597836883010096],[94.56620365205704,25.59715175067476],[94.56521201349304,25.60316141633367],[94.5718969569355,25.60533786405907],[94.57087048080642,25.60688785585143],[94.57245055630578,25.61094733536528],[94.57512807124836,25.612806603018587],[94.57666333428973,25.61641002813815],[94.5757709020724,25.623421040084338],[94.58016697320525,25.625600429175172],[94.57957568322064,25.628152222302],[94.58106848379686,25.62962018664245],[94.58405581061292,25.630509473413934],[94.58361700785115,25.634243053009723],[94.58589015066016,25.635432814514022],[94.58651692499681,25.63290583781191],[94.58988407568472,25.636605210016814],[94.59178305041497,25.6343444359756],[94.59342434879584,25.635585420321984],[94.59337211715197,25.63745366184764],[94.58913325388879,25.640274063143675],[94.58114253641727,25.63991344627637],[94.5734161338451,25.637454513837227],[94.57210172610792,25.64122669969004],[94.57592363992522,25.64372765200695],[94.57338822947742,25.647753634773604],[94.57631127195349,25.65005262719594],[94.58006737519307,25.650542423147545],[94.57602198209264,25.655303030031785],[94.5836385925708,25.656304121784302],[94.57836962937469,25.66168145280828],[94.58643976690045,25.6638374645758],[94.58415637521236,25.66631406708656],[94.58059952908256,25.665808168135552],[94.58041953814066,25.66875842917581],[94.58512384819691,25.67030066067443],[94.58839750672163,25.67510706929258],[94.58970057322837,25.681480035831385],[94.59543249218933,25.681809103386723],[94.59638938840973,25.6829532190996],[94.59499951949374,25.684930056334526],[94.5895074192726,25.687027473299963],[94.58389636144662,25.684854462615125],[94.57866545178425,25.689983694939556],[94.57176078401653,25.691797741941613],[94.56373221513225,25.687313992440465],[94.56051591493674,25.68308223326644],[94.56326848232469,25.674685296780808],[94.55917597618084,25.67182484714657],[94.55764551463466,25.673078237941176],[94.55625720339737,25.672336086045803],[94.55519494557389,25.668387091791065],[94.55169259124922,25.666028379197993],[94.55120335976234,25.662797471482865],[94.54827192702153,25.661445688844886],[94.55003090470463,25.657727918508062],[94.54372462630725,25.654632854737358],[94.54348017315887,25.653185981517705],[94.54550853044285,25.652564536226894],[94.54346751050662,25.649978844726505],[94.53934540756912,25.650557140219725],[94.53404565731157,25.64194098645338],[94.52925093811015,25.642543391819732],[94.52927963119865,25.637344275890207],[94.52457731180901,25.637174576618335],[94.52072960466495,25.63882964545797],[94.5209290872519,25.634353540838813],[94.518174360314,25.6296564058596],[94.51386210648873,25.628293132998458],[94.51286473128327,25.625013062715993],[94.50685556707283,25.62387897991882],[94.50516776829957,25.61356384436006],[94.50219000854129,25.612397484348172],[94.49541335878638,25.613066413550435],[94.49449676548116,25.609564928325852],[94.49247520125738,25.608536101485694],[94.48802928350771,25.611645235251917],[94.48710282131081,25.61422587121881],[94.48414678101943,25.612967350306036],[94.47897384323561,25.61518548089468],[94.46875832848704,25.61411375685347],[94.46117720595417,25.607940094308706],[94.45878501660708,25.60415985228827],[94.4528108381837,25.601646737921527],[94.45104659457641,25.598762878748712],[94.44519157767544,25.596787303675242],[94.44519105485594,25.591592983438254],[94.43799844829357,25.592477658066656],[94.4249839888339,25.586523612037638],[94.42116249003826,25.576686166919377],[94.4223641115966,25.573809041784024],[94.42019457418422,25.57297366796727],[94.42129387403844,25.571816182195573],[94.4190569477084,25.56994917479938],[94.42179013484244,25.5689655734813],[94.4224558430618,25.55332901702193],[94.41664959210438,25.536589864218918],[94.41401002469432,25.53716868139486],[94.41329947706754,25.536093891857668],[94.4106967854999,25.538411182172926],[94.39987171352543,25.534113793228894],[94.38529903098404,25.532501276487686],[94.37793570589011,25.528108047421195],[94.3736244006858,25.522188841732007],[94.35508209614153,25.51224122810041],[94.34803446868285,25.51216127127812],[94.34364101434245,25.509211105873796],[94.33725717809833,25.508650485647667],[94.32898362336469,25.504574755072852],[94.32578484750378,25.504919475955646],[94.32158707497832,25.502932421231435],[94.30967418721222,25.5036951141894],[94.29902366149071,25.507414461899355],[94.29336529299196,25.505662766781505],[94.28618328654996,25.505713106540945],[94.28462968080878,25.50791955053886],[94.27403870979734,25.49947048789562],[94.26126102917857,25.49798389554347],[94.25519791125386,25.500641719543722],[94.24975510698226,25.494314820085048],[94.24003103627112,25.495947532015855],[94.23188725396007,25.49309914230619],[94.22793061081641,25.49453404548699],[94.22157331350078,25.490807335215695],[94.21861231181407,25.49158604834132],[94.21419638881177,25.495585671071556],[94.20841544878576,25.49604155542175],[94.20739260185046,25.498620993861984],[94.20859425035825,25.50381021749996],[94.20504197844986,25.506524346500502],[94.2005317781568,25.515080409070272],[94.19744732279726,25.516411082878115],[94.19508946795862,25.520922228314983],[94.18659787054595,25.52402467080828],[94.18772533258432,25.529189745194458],[94.18594518340659,25.531602204452046],[94.19119963881089,25.539677908412177],[94.19204321435484,25.548684908638087],[94.18363591215348,25.548267879274857],[94.17809904349186,25.550610720842155],[94.17684815293349,25.546603091399973],[94.16490796356923,25.541278334476242],[94.16273341535424,25.542444392321862],[94.16123228020884,25.547788176233844],[94.15624796797343,25.551123699835564],[94.1536129092078,25.5455664806684],[94.1498634472131,25.54316335333272],[94.14602610572905,25.53214185534444],[94.14351276329455,25.529269866574488],[94.14384164370657,25.522648733480008],[94.14042532193498,25.519431820593443],[94.13290224943408,25.51865422677039],[94.12256028153796,25.522863275094455],[94.11158922075339,25.523349755152214],[94.10807142888054,25.521922869960896],[94.10737173020743,25.52417597091603],[94.10350435804347,25.526304829991997],[94.08811784946539,25.530822391451547],[94.08464849834596,25.530388783157086],[94.09083136169802,25.532437198785413],[94.09416908357721,25.537277692901316],[94.09222610307614,25.54427153967347],[94.08476136986475,25.554725760427427],[94.07981775131171,25.558055465046564],[94.07572265712155,25.558252300638696],[94.0747490917627,25.55571421320862],[94.07111486834759,25.55604589407668],[94.06728628004772,25.55230774230561],[94.06559486914871,25.55697463549539],[94.06102340465158,25.558270383372477],[94.05980966302343,25.56411458917447],[94.05387113783533,25.567728618637997],[94.05324935184345,25.57081808162755],[94.05030835204488,25.57132391050258],[94.04808921056085,25.575588181381406],[94.04457718587216,25.575198488695616],[94.04295293661704,25.57670786642507],[94.0381771844445,25.57005471581749],[94.03676754899898,25.579012601360297],[94.03463564111556,25.579676935912186],[94.02984229364158,25.57733826694985],[94.03068357039672,25.580424826747592],[94.02666919342812,25.57924477082118],[94.02660017676315,25.585609253647178],[94.02202035703554,25.584913976854573],[94.02173138697498,25.59024486861321],[94.01335853696139,25.59123352890258],[94.01283821298587,25.592601546003877],[94.00233522836324,25.586412041283406],[94.00408654521364,25.581704547698685],[94.01072106711752,25.5735960806848],[94.00727481258235,25.567226968146898],[94.00467012405986,25.56543838593964],[93.99374019982709,25.569238019225512],[93.98314770976452,25.568265720428393],[93.97877702502157,25.564719902967205],[93.97479084347479,25.564586987014426],[93.97411540650087,25.560106605012464],[93.97195999060476,25.55729453667607],[93.970163717566,25.555703871314616],[93.96557211104357,25.55516494645318],[93.96338645965167,25.551512320002182],[93.96044452291027,25.550730419054695],[93.95787180003882,25.551794876170955],[93.95501454927586,25.550232824280364],[93.94572033590292,25.55679141128093],[93.93946277763496,25.558275812325178],[93.93043189730271,25.559747229350542],[93.91834280140037,25.55949307715287],[93.91339313718547,25.563318626123248],[93.90775773232036,25.56452065580564],[93.90379828822965,25.562218114406427],[93.88869753464175,25.5651252552345],[93.88482087479609,25.56414351137935],[93.88221696690955,25.560812927312732],[93.87990065016966,25.560812745784215],[93.87107078045867,25.555073108101883],[93.86135138817353,25.553249985558832],[93.85106818896159,25.55447552009842],[93.84784386411567,25.5567261698265],[93.84136590509104,25.55612003844212],[93.83440865982807,25.560604251171007],[93.82980445802704,25.558302994363974],[93.83061675063954,25.555701281991436],[93.82760215007312,25.552726786168314],[93.82103818544488,25.55316535790755],[93.81915284534404,25.550042218550697],[93.82030811113876,25.54487931794773],[93.81699437068438,25.544273211749577],[93.81650609769991,25.540295421791445],[93.8047663817644,25.54152974601007],[93.79776573889004,25.54013052421563],[93.79411918160606,25.53740904073303],[93.79169712327578,25.538378391501446],[93.78588433348139,25.53735461610728],[93.77991270268012,25.533673762458733],[93.77612772848562,25.534737258916813],[93.77034343594698,25.53368766793596],[93.76674454327197,25.538202233587064],[93.7649255473481,25.538483513718084],[93.76511520685743,25.535740166781572],[93.76732421175177,25.53359148544758],[93.76356161638759,25.523037586985847],[93.76635169832014,25.518171196592892],[93.76476348318602,25.516758796906963],[93.7614505916396,25.51686722785786],[93.76264640828455,25.51380502898335],[93.75917136813443,25.512512757744126],[93.75795559272049,25.507687347500042],[93.76127908618389,25.495805617419077],[93.76648291253873,25.49353328666869],[93.78030495294726,25.501202980390318],[93.78748911354936,25.503209954704015],[93.79052703438055,25.500268150130154],[93.80023860683112,25.49684102667696],[93.80432617763076,25.49158394090852],[93.8047291537824,25.487581964765813],[93.80997683229616,25.483815505979127],[93.80784577062573,25.476347133545588],[93.80844440703278,25.47215239362656],[93.80498854321898,25.463309590692614],[93.79396522024783,25.45458158189522],[93.78648318278911,25.44610048019463],[93.78545623324788,25.442084971186638],[93.7824307271339,25.43966695869046],[93.78329992891798,25.43308042474506],[93.78031165437926,25.429768301244284],[93.77268174344502,25.426162734186022],[93.77513541169354,25.422057856135527],[93.77407949417935,25.41965147400513],[93.76796923626176,25.420000721359834],[93.76782515906659,25.417693524397066],[93.76536784994623,25.415444432181197],[93.76046861625309,25.41478008054587],[93.7520024429596,25.407928456108827],[93.74220077307926,25.404040788706258],[93.73474930169643,25.39429906942624],[93.73589173146405,25.385159193241982],[93.73134187773772,25.37998359976256],[93.72573461888707,25.378316761841017],[93.71582089046326,25.37184318869859],[93.70934543145007,25.357182353935002],[93.70200769756197,25.358107000807486],[93.69681167936356,25.356142566864598],[93.68657143579186,25.360086585767892],[93.68762425501666,25.35540313291369],[93.68513003142631,25.351082295621826],[93.68718475785715,25.345575049976446],[93.68285215539406,25.341180641000527],[93.6808989817095,25.334159009884512],[93.68158903337476,25.328925700426804],[93.6777572012584,25.326666027462906],[93.67339112487288,25.32770445939959],[93.66988095071366,25.324764597245483],[93.66470124951407,25.325739494376997],[93.66771468586388,25.3184584896647],[93.66762840088421,25.310838661852483],[93.65817432152666,25.303964598865473],[93.66051770540437,25.298805261210557],[93.65222729108947,25.284179806883113],[93.64489367418034,25.276020766911266],[93.64380277447233,25.27157281218288],[93.64598162561757,25.266363656914844],[93.64119025623381,25.26600184829488],[93.63721648850593,25.263659625427614],[93.63494938956215,25.255407283744994],[93.62885023122821,25.248200587381824],[93.62783617340963,25.241853399141007],[93.62207125034514,25.23557491314804],[93.62271870749292,25.23144400024603],[93.61903613944416,25.227541712372005],[93.6148522009741,25.218285625256055],[93.60893541771081,25.213054837404005],[93.60823221740472,25.21062092133339],[93.61086705877806,25.204895295476764],[93.60517885992367,25.19901455206996],[93.59838969573855,25.201777896885417],[93.59541650930338,25.198599972434153],[93.59332713395368,25.203517815613157],[93.58791223045652,25.201090950180248],[93.58857465713018,25.205712250435653],[93.59139129056756,25.20805927677789],[93.58950896251784,25.21338864174932],[93.58597994439893,25.214244370073438],[93.58675427780078,25.217635838259785],[93.5845504615755,25.219112531955005],[93.5841318637211,25.22177607267553],[93.58084898758327,25.221204775757997],[93.57856688048601,25.22349997315316],[93.57180042121973,25.224346207595342],[93.5691159991309,25.226265005726063],[93.56852972444051,25.229772218511496],[93.56445120865891,25.231125693202177],[93.56283064249646,25.24099267046767],[93.55597743741475,25.245972836612538],[93.55096309000781,25.24779297924408],[93.54379585995389,25.24789897884395],[93.53513293585023,25.243639478914638],[93.53313790426665,25.24592170029543],[93.52673199551772,25.244727972043002],[93.52100522210674,25.24737830908438],[93.51697188439739,25.246651472231363],[93.51241566071738,25.242795823670143],[93.50849870783794,25.244712903025043],[93.50435082415011,25.24228808957874],[93.50125199933929,25.24238018010091],[93.50106986501712,25.25601545689191],[93.50623618401391,25.269326542736923],[93.48976791518751,25.27483170155231],[93.48119079007496,25.26994182167521],[93.4719567737075,25.27133144496136],[93.47013276069278,25.28260852750157],[93.47371912276787,25.293705776220715],[93.47198157170095,25.30351493763073],[93.46686332784321,25.311683922216083],[93.4534045966783,25.321624814523577],[93.45389382726688,25.324915826952036]]]}}]}