{"type":"FeatureCollection","features":[{"type":"Feature","properties":{"shapeName":"Nāgāland","shapeISO":"IN-NL","shapeID":"1811400B74762431478096","shapeGroup":"IND","shapeType":"ADM1","displayName":"Nagaland","coverage":"context"},"geometry":{"type":"Polygon","coordinates":[[[95.23391968067268,26.68245856965871],[95.23018262980194,26.694002494052356],[95.23143446987963,26.697262799895334],[95.2304798787362,26.70083212156995],[95.23282005383173,26.705791937482644],[95.23034331594842,26.709554642158224],[95.22575881869312,26.71025635115774],[95.22696787111549,26.71609912269497],[95.22205604034711,26.7223623756535],[95.20990026160291,26.72898560219981],[95.21943709017116,26.74582060549157],[95.21595858881223,26.746366105149885],[95.21485047019686,26.748158863088964],[95.21647446882203,26.755630964921654],[95.22079332795956,26.75608337805187],[95.22435637336312,26.76166238578203],[95.23108771748501,26.765054996769667],[95.23250354771272,26.768204300845028],[95.22784144859334,26.77117716320099],[95.22880306815551,26.775341409827117],[95.23235677197847,26.776142190501968],[95.23213119512914,26.777668781762788],[95.2351425599639,26.776659234412335],[95.23539144629822,26.779029904258834],[95.24192462925494,26.780866690024393],[95.24248709230208,26.782548249419747],[95.24072110326821,26.783734222319048],[95.23780463646004,26.78266040162631],[95.23737620295158,26.784238781614597],[95.23924967361258,26.784394288708498],[95.23830529541566,26.785762365845375],[95.23285097204719,26.786853841855],[95.22867895242427,26.785507394591477],[95.22441794928261,26.788289159675948],[95.21476487961492,26.7901109669967],[95.20827975742424,26.795090723051068],[95.20748865696758,26.79792539263351],[95.21169370225357,26.797916819379715],[95.21199785474079,26.799493264841296],[95.2087466505049,26.80357206333086],[95.20473052541475,26.804698077517763],[95.2001504011583,26.81417052357875],[95.20003128634823,26.81870746422305],[95.19731889611138,26.82258347225182],[95.1993491066198,26.827915660686635],[95.1967091358662,26.83049509079501],[95.1981050279862,26.835125865134863],[95.19698221922101,26.83610000384975],[95.19804206866121,26.838873109462586],[95.20350046229622,26.843789261185893],[95.20292745751918,26.846351421411352],[95.19996718885778,26.844525717629026],[95.19344310673321,26.848157186116847],[95.19362754433577,26.84524924423883],[95.18695583936562,26.84779176628847],[95.18508958307466,26.85442615863774],[95.18094699495543,26.856032902945852],[95.18153048666508,26.86126527076989],[95.18599220488225,26.865730286941368],[95.19954674137223,26.87097118182],[95.20806917794856,26.879024475614184],[95.20866372971601,26.882337576339648],[95.21486179974922,26.883608420919657],[95.22103004032515,26.880571874241827],[95.22806234881325,26.880765351064387],[95.23026170400485,26.883691279453185],[95.22960723281135,26.891135556752793],[95.22666187618366,26.89480980528244],[95.2287308570814,26.895830831447686],[95.2299056809965,26.900666813610115],[95.23220313581035,26.902831895248898],[95.22878336360975,26.908339730640648],[95.23022694459323,26.91173798973048],[95.22856703850954,26.912946867214796],[95.2323545693094,26.915960230905696],[95.23190637286469,26.919707474415166],[95.22948707954883,26.920698855068263],[95.23004047230657,26.922632624686603],[95.22604053934938,26.924290583217086],[95.22606678363043,26.92655045001559],[95.22167368142958,26.928463047307567],[95.21216686467666,26.930111922020178],[95.20848585879817,26.940483626679857],[95.20667874758553,26.94198849813956],[95.20761116651109,26.947537253398032],[95.20956526096884,26.948095042650806],[95.20905771642656,26.950621397549504],[95.20689681002747,26.951431296828037],[95.20904788795904,26.952540305573503],[95.20261051481897,26.955723140869324],[95.20204993014906,26.9580646395328],[95.20324497693785,26.95774471817216],[95.20492763016115,26.96109057504828],[95.20787408183517,26.96106393637001],[95.20871913061622,26.963790191864966],[95.2113381355894,26.964324260414326],[95.21129571624337,26.966275895984396],[95.20630753406573,26.969872136727417],[95.20502740064985,26.969382164768597],[95.2032130597958,26.971485319848547],[95.20359601609302,26.973809636782935],[95.2016046918566,26.97388269310034],[95.20127357733443,26.977086502196357],[95.20378195927196,26.977251499101325],[95.2046754434165,26.979064267584036],[95.20235324989801,26.982024898142438],[95.20065358887142,26.98254652643253],[95.19992649876869,26.980625105202385],[95.19768606900904,26.98301560021048],[95.19556129285067,26.981841905027768],[95.19149272591086,26.98485697983234],[95.19299519954605,26.986459299134964],[95.1911578806853,26.986676194709283],[95.19177595394015,26.991244894146153],[95.19051112512176,26.99289305901429],[95.19518130279056,26.99460507271533],[95.19695943435214,26.996844251789145],[95.1946454837747,27.031319394633655],[95.19311585227183,27.031819040597735],[95.19414535033353,27.034223699885107],[95.19296733200927,27.036024743908317],[95.18227920280998,27.025533554801193],[95.15008335036349,26.999338344206677],[95.1446673293621,26.99594588388567],[95.13870794080155,26.994949272359666],[95.12411473175591,26.985536885897474],[95.11186536922035,26.980757510874767],[95.10782651495687,26.976036949700372],[95.10598472518097,26.965590144925823],[95.09517934068427,26.95764620975433],[95.0808656208797,26.950201261737444],[95.06415487250362,26.947180790569902],[95.0495984746217,26.93885711329977],[95.04398460776385,26.93883601197693],[95.03403325879425,26.935693755171435],[95.01667161721443,26.92115992762176],[95.00405534408927,26.920991199370835],[95.00015851796378,26.919603264249528],[94.99119724538795,26.920908682180617],[94.98989156298711,26.914303281005576],[94.98252600378311,26.913095293566144],[94.9764075936543,26.921380489993727],[94.96709144701539,26.92361163703356],[94.96114667943442,26.93722086613495],[94.95741110988556,26.93757511568009],[94.95540921247829,26.940193567213317],[94.9531517991699,26.937703899275302],[94.94177174801288,26.935403869983706],[94.94016968175538,26.933653716159057],[94.93075954079502,26.932656062305764],[94.93076180634617,26.936997154549665],[94.92552238155326,26.940888970638845],[94.9238684789106,26.94660248790214],[94.92213100420047,26.945826915826064],[94.91663086226092,26.94134768232307],[94.91428296434891,26.936871948361304],[94.90235509537882,26.934762926243696],[94.89772743946402,26.931347692866776],[94.89054798603405,26.929638497654924],[94.87349626861712,26.917613366192967],[94.8659157946679,26.908831575663427],[94.86513590249105,26.904075213885825],[94.85835748754663,26.892310226137088],[94.85774406397172,26.88857368503339],[94.85097654918495,26.881194635295426],[94.85003183411975,26.87468278364488],[94.84310430243144,26.868607402313305],[94.83894277692767,26.869757155307784],[94.83638185252917,26.86887196692185],[94.83445244557205,26.860446370707646],[94.82856779774148,26.85542207127143],[94.82410557826435,26.854337469027882],[94.81740239183506,26.847611104932508],[94.82103220991205,26.84179572197114],[94.81935895396491,26.837688538823343],[94.81553099897732,26.837398204127073],[94.8130832021175,26.83374645272803],[94.81436804809533,26.81964046458717],[94.80636663528207,26.8185131894275],[94.80613223338342,26.815227836127107],[94.80369381942674,26.81376900301003],[94.79515862318006,26.814518194356992],[94.79568455893114,26.810177239526553],[94.80309488927061,26.806264130674077],[94.80262514763213,26.80141281377266],[94.79968434905616,26.799876944857715],[94.79108022597606,26.799849625095085],[94.78863941531424,26.795655937845662],[94.77556525831235,26.789862174492153],[94.77364364064707,26.79070919471944],[94.77012531966652,26.789136212493947],[94.76731290561604,26.785433720832536],[94.76670670988591,26.777662422051023],[94.7604996432251,26.77550952767335],[94.75823650675004,26.766103246566406],[94.75173113563453,26.76629181061037],[94.7482602762437,26.772796104384405],[94.7400927927822,26.776080755487023],[94.74059127961144,26.77193318594769],[94.73680256303547,26.763817920818358],[94.70707445992952,26.746406861831407],[94.6922532000743,26.732028237396214],[94.65292357622494,26.71885094689016],[94.6486727491988,26.720521433923334],[94.64155205187662,26.720504466698284],[94.63573246992037,26.717183648183074],[94.62417990899112,26.71538357424513],[94.62021015403761,26.712220089915533],[94.61887353814994,26.713095528665963],[94.62056682023972,26.723231165836925],[94.61573219338177,26.726660605432187],[94.60797266094191,26.728925312283348],[94.6095446992144,26.73703486078288],[94.60759460405626,26.737309967008784],[94.6059917697392,26.7339883215734],[94.59698043584923,26.73465030243067],[94.59346311469362,26.73155840273021],[94.59552487672975,26.726387182443226],[94.59205773366928,26.724973942404723],[94.59283128104526,26.72334916003419],[94.59100288245534,26.720695303301987],[94.59407356664158,26.71917526940807],[94.59614378990939,26.72010973046633],[94.59828477886201,26.718648031108522],[94.6014404535556,26.71920817959502],[94.60231520063994,26.71662693208158],[94.60099916425712,26.714645678551175],[94.60324573400169,26.71244838152966],[94.60218558362587,26.71172166013993],[94.59720970836763,26.716883296812384],[94.59327563090393,26.71506841823642],[94.59242402082806,26.705059076266732],[94.59434908083753,26.70236074326975],[94.59144061801854,26.700257242176253],[94.59378765983611,26.697292840082604],[94.5897685478476,26.696714365050926],[94.58529140286204,26.69839189972082],[94.582372574383,26.697488518029648],[94.57723154385975,26.700758713134046],[94.57199389503613,26.6946691023048],[94.5677845854475,26.693020367123605],[94.56630386541522,26.690163185336534],[94.56737518185001,26.687573307931906],[94.57148003623576,26.686740086824045],[94.56640255073906,26.683655902088237],[94.55929765657936,26.686531964195638],[94.56233721414101,26.69562644802484],[94.56088746442646,26.700653033537314],[94.56226183560719,26.70516635756376],[94.55494107987795,26.70516297746414],[94.55021317197748,26.70181344525464],[94.54781447343784,26.706419021030253],[94.5451005282172,26.705323960615562],[94.53917337120905,26.70628265404892],[94.53350439450512,26.70140534326779],[94.52645223863911,26.69904502376664],[94.52411869670365,26.695857402884013],[94.5206088252767,26.699311605014746],[94.52072387251513,26.694261920152673],[94.51760505030772,26.68741832254261],[94.51748953504703,26.68203006387576],[94.51320106771217,26.680190043451017],[94.5102880558246,26.68486749441229],[94.50815746307477,26.685402682646465],[94.50895617405848,26.680326580522255],[94.505044583223,26.67874844861387],[94.50137418375306,26.67239129510757],[94.49258343207943,26.665987229894213],[94.48496583255613,26.667951958717456],[94.46019316713743,26.66172797307085],[94.45835890434533,26.653637697695583],[94.45400996152722,26.654005685125846],[94.4530547756991,26.652647911445897],[94.4589849618264,26.644706468685587],[94.4597123016608,26.636944061854535],[94.46540371828051,26.633158866822257],[94.46322921318466,26.633656189026407],[94.46181219628242,26.63245212951917],[94.45784119356901,26.633695623350402],[94.45350663188027,26.632041961327985],[94.45505571999388,26.635570096306928],[94.45263443601137,26.634163458142524],[94.45118466922884,26.636389025566817],[94.43551042936691,26.622136579306392],[94.42565225904849,26.617248652131703],[94.40283086558094,26.610665996263723],[94.40546515179543,26.605723941564747],[94.40498272235187,26.603991094214344],[94.40249763103472,26.603224383249433],[94.40179235292538,26.59366188930232],[94.40757943922456,26.59172463087486],[94.40739750792163,26.58800170522945],[94.40928977493165,26.587802615079237],[94.40949980014675,26.584932382429564],[94.41210906019573,26.583063391288466],[94.41154072216662,26.5795255655798],[94.41329164465658,26.577286687946696],[94.40984340753955,26.57661521512337],[94.41115685946932,26.572246458383578],[94.40803984826553,26.571033293821806],[94.40575553221102,26.56797406722795],[94.40611528861767,26.56281145129067],[94.40401727057667,26.56152563782271],[94.40647638890403,26.561953853146417],[94.40724376126077,26.560428325589008],[94.40332897242284,26.55837133913822],[94.40638423163732,26.555852491325446],[94.40190797598393,26.55476585699187],[94.40488848997688,26.554295912027886],[94.4061817100498,26.54928641854684],[94.40113365785339,26.548380387841377],[94.40611044669832,26.54593787741558],[94.40606471616215,26.54412823190236],[94.40298932390547,26.545351863865715],[94.40102186970283,26.542987582036197],[94.3965061591438,26.542807789268085],[94.39738901172691,26.541665891073738],[94.40263212679905,26.5414438125614],[94.4025613638092,26.539571025223424],[94.39980703213001,26.540397347976352],[94.39767928883627,26.538718929505016],[94.40078399491726,26.534250688208996],[94.3980950686756,26.535352255721808],[94.39515466715505,26.533705597897],[94.39750189312723,26.52998217033651],[94.39567521481104,26.527432615791405],[94.39316682119541,26.527473620249484],[94.39132617048331,26.530452349145143],[94.38991088193971,26.52700464369554],[94.38535107488,26.53062887165473],[94.38510469304873,26.52587693921788],[94.3808555530587,26.525899677362677],[94.37810620253778,26.52126963360095],[94.3760494279481,26.52187896724533],[94.37556283301657,26.518277658437256],[94.37327032881825,26.517203609564486],[94.37598406652802,26.515768563203338],[94.37616461622206,26.51391817939374],[94.37499082447123,26.512920895345403],[94.37300438706997,26.515037443782717],[94.37120862696922,26.51452744915936],[94.3745893997101,26.50854343530179],[94.37208147591335,26.5061425328616],[94.36923258127919,26.504757030934734],[94.36833471245775,26.5060612249624],[94.3655359950204,26.503642169862857],[94.3626216599144,26.505758512244782],[94.35739032445062,26.505275109510094],[94.35411525916417,26.50315362927085],[94.34769992169801,26.50455607346139],[94.34753964248839,26.503296987441555],[94.35054923225218,26.50252134497875],[94.35286919255884,26.49938028973808],[94.34947455342326,26.49635964362087],[94.34937807526006,26.493871596919714],[94.34655501976674,26.492171259345294],[94.35001430795836,26.492526029747914],[94.35275547931859,26.490156996955907],[94.34917884959131,26.491194338249006],[94.34676452934886,26.486102092202447],[94.34459766981436,26.488851775814695],[94.34377046965973,26.484803655345917],[94.34071625967746,26.48563434333942],[94.33935067222357,26.48059461326901],[94.33622046836155,26.482149827238793],[94.3338450559507,26.479424021258325],[94.33191065346229,26.480682735168987],[94.33032215625718,26.479595765567687],[94.32543083312842,26.482047685287004],[94.32638005593968,26.4755371964104],[94.32150569929168,26.4757575103181],[94.31946555790778,26.47430922854491],[94.32247588608675,26.472543023707967],[94.32118512110951,26.471114244368692],[94.32375765713134,26.465611220274447],[94.31836393590856,26.465384513850452],[94.31649403694912,26.458412597230947],[94.30788396612353,26.462624221651993],[94.30661639205367,26.46089073997871],[94.30569245681762,26.463331693518853],[94.30342058692136,26.46426031561888],[94.29982581751352,26.463748490548443],[94.299187025515,26.46692069943455],[94.29334266263332,26.471195731379375],[94.29314493535446,26.474390694798174],[94.29147440669254,26.47531494820626],[94.29220489242707,26.477666592783933],[94.28965598658877,26.479813169797808],[94.2899703798702,26.48886619736249],[94.28314236624401,26.50507150249211],[94.28329339011123,26.51084801202546],[94.28572501370267,26.51244262636983],[94.28647023001125,26.515322254958967],[94.28166742148069,26.524597611115848],[94.2828224689848,26.52949479869102],[94.28087138208662,26.535161719354047],[94.2818503822529,26.54069057873991],[94.28605343866887,26.542606726414544],[94.28118167096554,26.548745559070767],[94.28469461373244,26.561167127376326],[94.27141981441862,26.55164964159389],[94.27055373967002,26.54937450382511],[94.25624635298823,26.541321533380493],[94.2532296000584,26.53288900479904],[94.24772590168864,26.5283082121464],[94.24862736466952,26.52506430759819],[94.23653160236945,26.5062347125067],[94.22117774216204,26.498226264551416],[94.20741625898344,26.486565788473904],[94.20239779908917,26.472878481738874],[94.20257264178616,26.46916182374857],[94.19396326805322,26.46133346130872],[94.18513671132898,26.45853318250507],[94.1760343924738,26.43651980944895],[94.17164264133915,26.42988329650841],[94.17563066802553,26.424526885254096],[94.17181382250304,26.415939737974593],[94.17391722774079,26.40960906666233],[94.17309410953081,26.403378338367823],[94.17748936679001,26.382110559061626],[94.17213642728451,26.373750537319733],[94.17401455301533,26.370814457153134],[94.17103312992727,26.362851211339006],[94.16006298452598,26.35439220279138],[94.16193964600289,26.347255129465],[94.16696981633524,26.348087870481184],[94.16861866505609,26.35103326016687],[94.1725211469746,26.350693131361837],[94.1775014805716,26.346520228321367],[94.17446342948469,26.34055899331899],[94.17154288342684,26.338057275284644],[94.1670921237578,26.33941429264356],[94.16278096677547,26.335609791335482],[94.14749020243701,26.333553569933432],[94.14496757860896,26.330689978553643],[94.14092129168482,26.331472648308424],[94.14089298936346,26.335409188588983],[94.13863861685233,26.33637405924608],[94.12829062485388,26.33045681403989],[94.12482702385056,26.330909187581465],[94.11965342041512,26.328901707986823],[94.11583819006351,26.329787946076408],[94.11488482781542,26.324052505331448],[94.1215900013181,26.317858650503435],[94.1119663703406,26.318092734157773],[94.10958607468783,26.32002166018365],[94.10496212073036,26.320047164521124],[94.10241967288063,26.315328216540447],[94.09961451092941,26.313995469960858],[94.10068468830043,26.308729515898033],[94.09768837833151,26.302057729399042],[94.08417500534281,26.28907168973628],[94.08400357714221,26.283440490864844],[94.07463389720057,26.283694200130597],[94.07215245304346,26.27621123429449],[94.07461401029678,26.273133802391737],[94.07453087031895,26.2644785104351],[94.07082708316486,26.26241766693365],[94.06776775188717,26.257072059903503],[94.05598857296121,26.25511285252858],[94.04759460175869,26.249463403460343],[94.04230476620695,26.234603579939865],[94.03637113234558,26.22615174531348],[94.0319399119323,26.197635515039405],[94.02169290763976,26.193909785925694],[94.01526883944734,26.184116269896478],[94.00771734514919,26.182593928642312],[94.00098547820782,26.172366297419195],[94.00251236086595,26.170968547031308],[94.00127721597782,26.165876680217945],[94.00356851643366,26.16020576618412],[94.00100316693411,26.155302347098537],[93.99648647271982,26.15357360455675],[93.99442859679563,26.148408947876927],[93.99581174092343,26.14652133949416],[94.00073665026402,26.147083769072644],[94.00350469472602,26.144328652147422],[94.00207970347901,26.134529527894138],[93.9982181227537,26.131339963592886],[93.99076855490092,26.133739945654252],[93.98714622428184,26.131179432145306],[93.98877820623493,26.128303236698187],[93.99772811602072,26.12886905912778],[93.99339346989036,26.12403462538444],[93.99377801530729,26.11875397167445],[93.98666455481303,26.11400292836577],[93.98864613682018,26.110914413288864],[93.99568096598097,26.11229414898221],[93.99783719215745,26.1096561744188],[93.98938770417203,26.09762727185071],[93.98855203829415,26.086435400310965],[93.98264177859649,26.08345676420506],[93.98144043551589,26.081341026313698],[93.98729353541204,26.06688547321092],[93.97066166899937,26.046516186499122],[93.97029195566608,26.040446291221233],[93.96237553425847,26.036637740764128],[93.96260216123835,26.025860168863918],[93.9604464345252,26.01545859132705],[93.9529059472842,26.00306519138244],[93.95905249713924,25.99443251778558],[93.95405637475278,25.96936005071925],[93.96861078915458,25.95735527054461],[93.96986203275088,25.93687803892457],[93.97789054054977,25.928171033381584],[93.97859914961217,25.91682877734492],[93.97110985466426,25.912857810703112],[93.96660801948315,25.905991599777682],[93.96097566529673,25.901332884893584],[93.95966896151138,25.902204753521968],[93.95156777102288,25.898666386905873],[93.94491080022001,25.897740066476455],[93.9442208868953,25.89562370033992],[93.93786938101829,25.896407417979763],[93.93532862828948,25.894544539904306],[93.93388186906654,25.88534707021669],[93.91589979615429,25.88380080392323],[93.91078447721111,25.879546224181425],[93.91147200461043,25.876621467527787],[93.90740989655748,25.87262365083895],[93.9018519471311,25.870945880555063],[93.89594781124875,25.85795775061231],[93.88987234777707,25.85873474522129],[93.88644426616008,25.848417791843648],[93.88170556320485,25.84344900498853],[93.8760096963312,25.842578082712894],[93.86908182867293,25.85103135871602],[93.85847727154112,25.85379270860167],[93.85216168929234,25.85832774129125],[93.84804672706304,25.85714907858257],[93.8450934463962,25.85838960595953],[93.83960692830628,25.856709549576806],[93.83038162739372,25.849345852415905],[93.82962443205082,25.846610563428072],[93.82516625229755,25.84449697428074],[93.8210539913023,25.838840389699104],[93.81629372339034,25.822712528104574],[93.80620886410829,25.816989828293345],[93.80374371269549,25.81151854207614],[93.79537854327761,25.809027454947245],[93.78995701290859,25.8113261436999],[93.78741577688616,25.815860530930465],[93.78699729760939,25.822260104686215],[93.78414694590782,25.826266194852373],[93.78469341714629,25.829127888409854],[93.78023005591047,25.835524930700903],[93.78135906394942,25.839596673264968],[93.78026078368303,25.840963469720855],[93.77806690731639,25.84021728087346],[93.77772095981227,25.842514354311323],[93.781015967698,25.84469193090082],[93.77744072766446,25.849911396897106],[93.78103863488755,25.854106555976756],[93.77843266716411,25.856966288423493],[93.7813110489975,25.856593615308974],[93.7843324543022,25.858522607207153],[93.78487682527951,25.864363105987067],[93.78974808363812,25.86790896788956],[93.78885348019274,25.870205679590317],[93.78507712713002,25.87014473770885],[93.78725224308027,25.876979172657663],[93.78466068163902,25.880051029267584],[93.7840636909456,25.884442133495718],[93.7891091002984,25.88977080078077],[93.79193351224785,25.889239808411695],[93.79195190615158,25.891442354078134],[93.79527432702653,25.89248224959928],[93.79342607117724,25.895662985299367],[93.79391239032596,25.899621439755915],[93.79558354331702,25.900335427947418],[93.7955795161696,25.90660880510592],[93.79191158886331,25.906697035903587],[93.79416653000808,25.90765511770984],[93.7942030914401,25.91276407396051],[93.79206196953682,25.913011107296803],[93.79176579139441,25.91565571849926],[93.78862575906486,25.9169853127765],[93.79043010885633,25.920159119793095],[93.78905112302996,25.9223562648816],[93.79089499510069,25.926328993582228],[93.78891228031799,25.928160205992725],[93.78988938953061,25.929853237370185],[93.78725875945933,25.93022628353849],[93.78780679646134,25.931558043369478],[93.78637389914155,25.93219803806427],[93.78979162947152,25.934023396046594],[93.78664389588504,25.938313601694432],[93.78716894769386,25.943991513050626],[93.78453833109732,25.943971866910232],[93.78724684779866,25.946681416850666],[93.78579197499207,25.949767584982435],[93.78317554369218,25.950510702721136],[93.78022553199469,25.956579043219943],[93.77680449855941,25.958224104640006],[93.77851511723583,25.960396066511763],[93.77499956126975,25.961485920918495],[93.77436703142705,25.96563308542097],[93.77705737161696,25.96654203639583],[93.77709587430834,25.968338399915663],[93.7734841375214,25.970583476346384],[93.77132438006755,25.968090662858806],[93.76535641439267,25.969850961635473],[93.76448871369342,25.96862717142358],[93.76804963278472,25.967524137331065],[93.76993722765695,25.961360441216527],[93.7694302176123,25.958850801310238],[93.76345870089709,25.959469165859858],[93.76813673972288,25.95368673419672],[93.76786447832659,25.95111402822996],[93.76409554175484,25.95094873056908],[93.7641122279612,25.954541268166476],[93.761719032501,25.951235731385175],[93.75855770470935,25.95272260193393],[93.75836981038958,25.94560511471495],[93.75283767405287,25.94677399816844],[93.75236810668756,25.942215316976505],[93.75028782139026,25.940967904319805],[93.74704581590291,25.94327585133985],[93.74502370011353,25.942435981108257],[93.74611074065908,25.93880004883579],[93.75192509621701,25.93605887727676],[93.75121958274902,25.932908083778138],[93.74974744162772,25.932640533644808],[93.74953095572909,25.93445467907951],[93.74754871615517,25.935021638432776],[93.73943661113596,25.931890827278515],[93.7394346042996,25.929917431651997],[93.73645974070975,25.927770471843914],[93.73854614083922,25.925420161959018],[93.73694050377846,25.925247969861616],[93.73605167650038,25.92286314581551],[93.73387227828117,25.92399252212777],[93.72811854373353,25.920678686829586],[93.71859847952511,25.919952081219538],[93.7135222363985,25.916909399917202],[93.70653233557827,25.918925298576696],[93.70535550482684,25.915022438818486],[93.70078214398616,25.91075589395521],[93.69388269812517,25.911821934395928],[93.68997901246416,25.907761728868703],[93.68763887689454,25.907678298588966],[93.68467165257789,25.903801107170747],[93.68143590026322,25.904485757041634],[93.70198255910707,25.851642450273506],[93.7142274058117,25.84461278135233],[93.71173829902521,25.84423965294354],[93.70771594861013,25.847911305880896],[93.70078504015464,25.843370300077524],[93.6995545314717,25.845605002781987],[93.70103352584033,25.84967068523473],[93.6991312911239,25.846670363782998],[93.6945983131485,25.848094319424572],[93.69133899712561,25.843948157025356],[93.68820289223049,25.846048172308677],[93.68555329243539,25.843765639126875],[93.69012522046319,25.84078938382721],[93.68046334101749,25.838446510525625],[93.67934494837024,25.83572096693504],[93.68058568527098,25.833531567683213],[93.67853366636244,25.828509027383536],[93.67252908176329,25.827739396871927],[93.67106647715704,25.824147305764846],[93.66754148708384,25.826062017415225],[93.66819818789587,25.82192759477428],[93.66486760582659,25.82327803412475],[93.66044395910947,25.82171311852458],[93.65471977374477,25.823740869334117],[93.65150739200058,25.81995490596018],[93.64604218644074,25.822479089600325],[93.6464161703649,25.819833902730842],[93.64421685649583,25.81879611902308],[93.64337867533516,25.81587165083906],[93.63806313359323,25.81573230215968],[93.63850617011494,25.80988756264751],[93.63300439593652,25.811476410050386],[93.63485625672507,25.80937337626889],[93.63160511357464,25.806742314629084],[93.63279144131526,25.802856262060473],[93.62941589856598,25.801660389641672],[93.62460467371953,25.802662486061923],[93.62766581600084,25.798979573865275],[93.62659882854739,25.797251017013707],[93.62330335353771,25.797404433648886],[93.62665846141091,25.78970928434779],[93.62310386825582,25.78742550817855],[93.62242586659178,25.78506501184001],[93.61840791702325,25.78380119114069],[93.62000323333969,25.780330513505522],[93.61732654844042,25.776087903725298],[93.61262590800206,25.776656246706054],[93.61019863045998,25.77384876840482],[93.60494464217965,25.775003555345684],[93.60255866288612,25.765177706619443],[93.60046523343956,25.765263196038063],[93.59841594990105,25.768900589494297],[93.59157898815629,25.762625634830737],[93.59015839506094,25.763067658556864],[93.58941990533721,25.766154559841283],[93.5858261132964,25.766248432226654],[93.5822492733633,25.760646452802707],[93.58538514559478,25.758074659957355],[93.57765627624885,25.75459265200562],[93.57673837140331,25.75697089291656],[93.57432135890997,25.756505203948663],[93.57137484794713,25.758887137089033],[93.56784128345454,25.758533830704042],[93.56817101367285,25.75690913303771],[93.57233268829692,25.756540574720514],[93.5731260956272,25.754216524007433],[93.57019623583648,25.752861416742906],[93.56823658889192,25.755085766455913],[93.56623324250211,25.754850283741728],[93.56687468093746,25.74735336140965],[93.56341240764415,25.744824451903938],[93.56141760692758,25.737868585262866],[93.55942489299744,25.7369018887055],[93.55818804310692,25.738814912382562],[93.55420196845964,25.737928492278254],[93.55516608623664,25.733731565963136],[93.54948608900082,25.73283955017167],[93.54933866468289,25.729418410921447],[93.54578951801341,25.73156488728648],[93.54235670586814,25.731039473128018],[93.54296807230105,25.725953252278053],[93.5394576097826,25.722660974377302],[93.54295629987926,25.721056218809164],[93.54309503120014,25.714742160092342],[93.54792959876926,25.711820165575528],[93.54182150668986,25.704690186129596],[93.54107315615926,25.698944251321734],[93.53619908966708,25.70190216755178],[93.53197335168853,25.697083804223247],[93.53113481748993,25.69267368441051],[93.5273801515548,25.69128568636549],[93.52350360938838,25.69269572550349],[93.52386442850205,25.696017772978873],[93.52239857648607,25.69767319647131],[93.5203861211792,25.691714108503938],[93.51255716603589,25.68468549153126],[93.51362964129741,25.682917083255802],[93.51744550136802,25.68239189388458],[93.51825486996427,25.67952650775432],[93.51399844643393,25.677167301511457],[93.51104967261489,25.672191331364772],[93.50734379777607,25.672608167436547],[93.50970830104613,25.668566071581942],[93.50650665506787,25.667981305894145],[93.50541238218597,25.666522566831606],[93.50636084142927,25.664253120983087],[93.49989029260742,25.660817517347336],[93.49645800148501,25.6546333713639],[93.49112739679242,25.65329558454993],[93.48792159520767,25.65441292872259],[93.48671035987915,25.653217829739447],[93.48767482889743,25.651492992957596],[93.48511746182747,25.64843033846016],[93.48134567939287,25.651326262218284],[93.48284422020377,25.64555702912912],[93.48164325261895,25.644601082556964],[93.47665192543951,25.647867850588813],[93.47373089339305,25.644110135743897],[93.47139178908935,25.64549734773148],[93.46870204268588,25.64442491902085],[93.47194196587839,25.642491110060103],[93.46407162175663,25.644721190449552],[93.46036724620603,25.64071774971384],[93.4572176926328,25.64123637578275],[93.4556376845071,25.638786547583585],[93.46050076011177,25.636879060703414],[93.46080121154003,25.6324106410856],[93.45499203476969,25.633953073603053],[93.44949909821706,25.639629259812352],[93.44938199832818,25.63571168838472],[93.44656832034809,25.634697638881054],[93.44427681327971,25.639711565985937],[93.4420618148258,25.638273498977505],[93.44152984329432,25.6347812993581],[93.43963840273436,25.635770604472203],[93.43726297325553,25.634905024396293],[93.437166727756,25.631759218777958],[93.43447794973636,25.63129100781181],[93.43356101327471,25.629531081441357],[93.43033488371339,25.629572992060254],[93.42728431639962,25.63263422874869],[93.42481388828286,25.630400974440786],[93.42445840606032,25.625567177219196],[93.41987288023405,25.624801402053038],[93.4221612782332,25.620526549414894],[93.4215181851011,25.61834218828729],[93.41825725390734,25.61773840369635],[93.4136336493945,25.621093236287827],[93.41426989826245,25.618154782805025],[93.41038644805154,25.61664379931772],[93.41091315725208,25.613691912114255],[93.40773251388516,25.614514099437073],[93.40616857302665,25.61150400520067],[93.40142956284757,25.611193533740224],[93.40117944761793,25.605867764666797],[93.40277632340974,25.602256736368673],[93.39937106349254,25.599165619704607],[93.39868355405953,25.59613270011621],[93.39685704911818,25.597125989546566],[93.39460691935011,25.59454915439304],[93.3939402229839,25.596165013189452],[93.39233756024507,25.59600277692589],[93.3891962576977,25.59119629826693],[93.38550343987157,25.59287112501201],[93.38685194226706,25.59007265565457],[93.38565209218646,25.58715256242794],[93.38331305884968,25.588019344782612],[93.38196898155526,25.584061176967897],[93.37825404720682,25.582703994882035],[93.37901999663214,25.5816194912713],[93.38149248189092,25.582069537329318],[93.3797389947108,25.576677252132495],[93.37420521984706,25.577187382362194],[93.37529997063267,25.57318391725064],[93.36941303389473,25.570520897688972],[93.36544739502185,25.56528060473671],[93.36235727758105,25.56609729671265],[93.36149662326689,25.56397143347668],[93.36396487476571,25.56129966914541],[93.35837750641208,25.557358941469083],[93.35862160742089,25.55473211667993],[93.35634762917866,25.55628902369187],[93.35451172785945,25.555620746313323],[93.35206794736727,25.560093238274064],[93.34574397305707,25.55920747174957],[93.34318116129818,25.560136695160775],[93.33788293188843,25.556971560757358],[93.33565472370823,25.554077875557866],[93.3369885602084,25.55292728806851],[93.33251709437205,25.548480358594126],[93.32914873006024,25.548894589455575],[93.32692556771701,25.546587452158306],[93.32713028299045,25.544768618588943],[93.33026993712929,25.54378119322809],[93.33039981375643,25.542133799248035],[93.33289722546772,25.542454926642595],[93.33368914518788,25.53968845108133],[93.33629626455155,25.538831606338704],[93.33488974626005,25.5345163641896],[93.34026278287509,25.532937992219093],[93.34047610760226,25.53504578879611],[93.34498842612277,25.534293063270386],[93.34823773311672,25.530041968671576],[93.3502420963995,25.532100445583648],[93.34987462076957,25.528778473083378],[93.35256583861351,25.528404298954293],[93.35499385367244,25.524875115955727],[93.35759664405474,25.515374597910814],[93.35676121623042,25.51379932156404],[93.36148651272838,25.51243674769836],[93.36203911317202,25.50681293611707],[93.36390914777708,25.50663254103424],[93.36423766706636,25.50385678628683],[93.36910660238163,25.503626845581064],[93.36696322750359,25.501058552038522],[93.36742512505302,25.4993416890793],[93.3765764712615,25.49763194249297],[93.37728753541958,25.493082370627164],[93.38541809273303,25.490491238916995],[93.38376683832387,25.4880450485317],[93.38645209404928,25.48735879061394],[93.38453737814028,25.48519692966919],[93.38662065842075,25.483061920778542],[93.39131966572192,25.48225802751082],[93.38900693146337,25.478530187273485],[93.38651561032974,25.47788493209246],[93.3891010704136,25.47647652305965],[93.38888183207692,25.47263556829882],[93.38436182397759,25.469264301364166],[93.38672350923257,25.468934640145307],[93.38681265175317,25.466208462629833],[93.39031755369999,25.464538142524418],[93.38824421507479,25.46359503500616],[93.3902474069544,25.460485029166197],[93.39156512857667,25.461884109241876],[93.39390125227025,25.45854377917639],[93.39720770559104,25.460357702042888],[93.40054774332701,25.456457528466352],[93.40237093348493,25.450883006340625],[93.40862403071921,25.448385649027266],[93.4103096915021,25.44997402531848],[93.41545319239238,25.445084576826257],[93.41985256483389,25.445065238378092],[93.4255110447237,25.44841688900543],[93.4362946271085,25.44827995883151],[93.43845434503646,25.445608977736153],[93.43743396397659,25.443144970983074],[93.43942122962453,25.441113002787713],[93.44323393930344,25.44119702231894],[93.45019457031675,25.435754841841437],[93.45532843767394,25.434497347049433],[93.45809611741988,25.43108452218574],[93.45822866743333,25.426017144807496],[93.46222033768652,25.417951345397245],[93.4592366301827,25.408465644458143],[93.45956098757728,25.403333516324665],[93.46309840494412,25.395690018274045],[93.4728893282787,25.386092538728334],[93.47358485337902,25.380075448513136],[93.47167370647666,25.375987473556766],[93.47242753493387,25.374384651509917],[93.46491534282768,25.360767534999084],[93.46370251748111,25.359743682580064],[93.45865127446885,25.360780263137293],[93.4514836725124,25.354054457540602],[93.4518666234197,25.347125889097757],[93.44833607546983,25.340736542104157],[93.45195379413825,25.336063078196766],[93.45641340041621,25.335482924525643],[93.45532356790677,25.332238230410802],[93.45657349726783,25.32996277975756],[93.45389382726688,25.324915826952036],[93.4534045966783,25.321624814523577],[93.46686332784321,25.311683922216083],[93.47198157170095,25.30351493763073],[93.47371912276787,25.293705776220715],[93.47013276069278,25.28260852750157],[93.4719567737075,25.27133144496136],[93.48119079007496,25.26994182167521],[93.48976791518751,25.27483170155231],[93.50623618401391,25.269326542736923],[93.50106986501712,25.25601545689191],[93.50125199933929,25.24238018010091],[93.50435082415011,25.24228808957874],[93.50849870783794,25.244712903025043],[93.51241566071738,25.242795823670143],[93.51697188439739,25.246651472231363],[93.52100522210674,25.24737830908438],[93.52673199551772,25.244727972043002],[93.53313790426665,25.24592170029543],[93.53513293585023,25.243639478914638],[93.54379585995389,25.24789897884395],[93.55096309000781,25.24779297924408],[93.55597743741475,25.245972836612538],[93.56283064249646,25.24099267046767],[93.56445120865891,25.231125693202177],[93.56852972444051,25.229772218511496],[93.5691159991309,25.226265005726063],[93.57180042121973,25.224346207595342],[93.57856688048601,25.22349997315316],[93.58084898758327,25.221204775757997],[93.5841318637211,25.22177607267553],[93.5845504615755,25.219112531955005],[93.58675427780078,25.217635838259785],[93.58597994439893,25.214244370073438],[93.58950896251784,25.21338864174932],[93.59139129056756,25.20805927677789],[93.58857465713018,25.205712250435653],[93.58791223045652,25.201090950180248],[93.59332713395368,25.203517815613157],[93.59541650930338,25.198599972434153],[93.59838969573855,25.201777896885417],[93.60517885992367,25.19901455206996],[93.61086705877806,25.204895295476764],[93.60823221740472,25.21062092133339],[93.60893541771081,25.213054837404005],[93.6148522009741,25.218285625256055],[93.61903613944416,25.227541712372005],[93.62271870749292,25.23144400024603],[93.62207125034514,25.23557491314804],[93.62783617340963,25.241853399141007],[93.62885023122821,25.248200587381824],[93.63494938956215,25.255407283744994],[93.63721648850593,25.263659625427614],[93.64119025623381,25.26600184829488],[93.64598162561757,25.266363656914844],[93.64380277447233,25.27157281218288],[93.64489367418034,25.276020766911266],[93.65222729108947,25.284179806883113],[93.66051770540437,25.298805261210557],[93.65817432152666,25.303964598865473],[93.66762840088421,25.310838661852483],[93.66771468586388,25.3184584896647],[93.66470124951407,25.325739494376997],[93.66988095071366,25.324764597245483],[93.67339112487288,25.32770445939959],[93.6777572012584,25.326666027462906],[93.68158903337476,25.328925700426804],[93.6808989817095,25.334159009884512],[93.68285215539406,25.341180641000527],[93.68718475785715,25.345575049976446],[93.68513003142631,25.351082295621826],[93.68762425501666,25.35540313291369],[93.68657143579186,25.360086585767892],[93.69681167936356,25.356142566864598],[93.70200769756197,25.358107000807486],[93.70934543145007,25.357182353935002],[93.71582089046326,25.37184318869859],[93.72573461888707,25.378316761841017],[93.73134187773772,25.37998359976256],[93.73589173146405,25.385159193241982],[93.73474930169643,25.39429906942624],[93.74220077307926,25.404040788706258],[93.7520024429596,25.407928456108827],[93.76046861625309,25.41478008054587],[93.76536784994623,25.415444432181197],[93.76782515906659,25.417693524397066],[93.76796923626176,25.420000721359834],[93.77407949417935,25.41965147400513],[93.77513541169354,25.422057856135527],[93.77268174344502,25.426162734186022],[93.78031165437926,25.429768301244284],[93.78329992891798,25.43308042474506],[93.7824307271339,25.43966695869046],[93.78545623324788,25.442084971186638],[93.78648318278911,25.44610048019463],[93.79396522024783,25.45458158189522],[93.80498854321898,25.463309590692614],[93.80844440703278,25.47215239362656],[93.80784577062573,25.476347133545588],[93.80997683229616,25.483815505979127],[93.8047291537824,25.487581964765813],[93.80432617763076,25.49158394090852],[93.80023860683112,25.49684102667696],[93.79052703438055,25.500268150130154],[93.78748911354936,25.503209954704015],[93.78030495294726,25.501202980390318],[93.76648291253873,25.49353328666869],[93.76127908618389,25.495805617419077],[93.75795559272049,25.507687347500042],[93.75917136813443,25.512512757744126],[93.76264640828455,25.51380502898335],[93.7614505916396,25.51686722785786],[93.76476348318602,25.516758796906963],[93.76635169832014,25.518171196592892],[93.76356161638759,25.523037586985847],[93.76732421175177,25.53359148544758],[93.76511520685743,25.535740166781572],[93.7649255473481,25.538483513718084],[93.76674454327197,25.538202233587064],[93.77034343594698,25.53368766793596],[93.77612772848562,25.534737258916813],[93.77991270268012,25.533673762458733],[93.78588433348139,25.53735461610728],[93.79169712327578,25.538378391501446],[93.79411918160606,25.53740904073303],[93.79776573889004,25.54013052421563],[93.8047663817644,25.54152974601007],[93.81650609769991,25.540295421791445],[93.81699437068438,25.544273211749577],[93.82030811113876,25.54487931794773],[93.81915284534404,25.550042218550697],[93.82103818544488,25.55316535790755],[93.82760215007312,25.552726786168314],[93.83061675063954,25.555701281991436],[93.82980445802704,25.558302994363974],[93.83440865982807,25.560604251171007],[93.84136590509104,25.55612003844212],[93.84784386411567,25.5567261698265],[93.85106818896159,25.55447552009842],[93.86135138817353,25.553249985558832],[93.87107078045867,25.555073108101883],[93.87990065016966,25.560812745784215],[93.88221696690955,25.560812927312732],[93.88482087479609,25.56414351137935],[93.88869753464175,25.5651252552345],[93.90379828822965,25.562218114406427],[93.90775773232036,25.56452065580564],[93.91339313718547,25.563318626123248],[93.91834280140037,25.55949307715287],[93.93043189730271,25.559747229350542],[93.93946277763496,25.558275812325178],[93.94572033590292,25.55679141128093],[93.95501454927586,25.550232824280364],[93.95787180003882,25.551794876170955],[93.96044452291027,25.550730419054695],[93.96338645965167,25.551512320002182],[93.96557211104357,25.55516494645318],[93.970163717566,25.555703871314616],[93.97195999060476,25.55729453667607],[93.97411540650087,25.560106605012464],[93.97479084347479,25.564586987014426],[93.97877702502157,25.564719902967205],[93.98314770976452,25.568265720428393],[93.99374019982709,25.569238019225512],[94.00467012405986,25.56543838593964],[94.00727481258235,25.567226968146898],[94.01072106711752,25.5735960806848],[94.00408654521364,25.581704547698685],[94.00233522836324,25.586412041283406],[94.01283821298587,25.592601546003877],[94.01335853696139,25.59123352890258],[94.02173138697498,25.59024486861321],[94.02202035703554,25.584913976854573],[94.02660017676315,25.585609253647178],[94.02666919342812,25.57924477082118],[94.03068357039672,25.580424826747592],[94.02984229364158,25.57733826694985],[94.03463564111556,25.579676935912186],[94.03676754899898,25.579012601360297],[94.0381771844445,25.57005471581749],[94.04295293661704,25.57670786642507],[94.04457718587216,25.575198488695616],[94.04808921056085,25.575588181381406],[94.05030835204488,25.57132391050258],[94.05324935184345,25.57081808162755],[94.05387113783533,25.567728618637997],[94.05980966302343,25.56411458917447],[94.06102340465158,25.558270383372477],[94.06559486914871,25.55697463549539],[94.06728628004772,25.55230774230561],[94.07111486834759,25.55604589407668],[94.0747490917627,25.55571421320862],[94.07572265712155,25.558252300638696],[94.07981775131171,25.558055465046564],[94.08476136986475,25.554725760427427],[94.09222610307614,25.54427153967347],[94.09416908357721,25.537277692901316],[94.09083136169802,25.532437198785413],[94.08464849834596,25.530388783157086],[94.08811784946539,25.530822391451547],[94.10350435804347,25.526304829991997],[94.10737173020743,25.52417597091603],[94.10807142888054,25.521922869960896],[94.11158922075339,25.523349755152214],[94.12256028153796,25.522863275094455],[94.13290224943408,25.51865422677039],[94.14042532193498,25.519431820593443],[94.14384164370657,25.522648733480008],[94.14351276329455,25.529269866574488],[94.14602610572905,25.53214185534444],[94.1498634472131,25.54316335333272],[94.1536129092078,25.5455664806684],[94.15624796797343,25.551123699835564],[94.16123228020884,25.547788176233844],[94.16273341535424,25.542444392321862],[94.16490796356923,25.541278334476242],[94.17684815293349,25.546603091399973],[94.17809904349186,25.550610720842155],[94.18363591215348,25.548267879274857],[94.19204321435484,25.548684908638087],[94.19119963881089,25.539677908412177],[94.18594518340659,25.531602204452046],[94.18772533258432,25.529189745194458],[94.18659787054595,25.52402467080828],[94.19508946795862,25.520922228314983],[94.19744732279726,25.516411082878115],[94.2005317781568,25.515080409070272],[94.20504197844986,25.506524346500502],[94.20859425035825,25.50381021749996],[94.20739260185046,25.498620993861984],[94.20841544878576,25.49604155542175],[94.21419638881177,25.495585671071556],[94.21861231181407,25.49158604834132],[94.22157331350078,25.490807335215695],[94.22793061081641,25.49453404548699],[94.23188725396007,25.49309914230619],[94.24003103627112,25.495947532015855],[94.24975510698226,25.494314820085048],[94.25519791125386,25.500641719543722],[94.26126102917857,25.49798389554347],[94.27403870979734,25.49947048789562],[94.28462968080878,25.50791955053886],[94.28618328654996,25.505713106540945],[94.29336529299196,25.505662766781505],[94.29902366149071,25.507414461899355],[94.30967418721222,25.5036951141894],[94.32158707497832,25.502932421231435],[94.32578484750378,25.504919475955646],[94.32898362336469,25.504574755072852],[94.33725717809833,25.508650485647667],[94.34364101434245,25.509211105873796],[94.34803446868285,25.51216127127812],[94.35508209614153,25.51224122810041],[94.3736244006858,25.522188841732007],[94.37793570589011,25.528108047421195],[94.38529903098404,25.532501276487686],[94.39987171352543,25.534113793228894],[94.4106967854999,25.538411182172926],[94.41329947706754,25.536093891857668],[94.41401002469432,25.53716868139486],[94.41664959210438,25.536589864218918],[94.4224558430618,25.55332901702193],[94.42179013484244,25.5689655734813],[94.4190569477084,25.56994917479938],[94.42129387403844,25.571816182195573],[94.42019457418422,25.57297366796727],[94.4223641115966,25.573809041784024],[94.42116249003826,25.576686166919377],[94.4249839888339,25.586523612037638],[94.43799844829357,25.592477658066656],[94.44519105485594,25.591592983438254],[94.44519157767544,25.596787303675242],[94.45104659457641,25.598762878748712],[94.4528108381837,25.601646737921527],[94.45878501660708,25.60415985228827],[94.46117720595417,25.607940094308706],[94.46875832848704,25.61411375685347],[94.47897384323561,25.61518548089468],[94.48414678101943,25.612967350306036],[94.48710282131081,25.61422587121881],[94.48802928350771,25.611645235251917],[94.49247520125738,25.608536101485694],[94.49449676548116,25.609564928325852],[94.49541335878638,25.613066413550435],[94.50219000854129,25.612397484348172],[94.50516776829957,25.61356384436006],[94.50685556707283,25.62387897991882],[94.51286473128327,25.625013062715993],[94.51386210648873,25.628293132998458],[94.518174360314,25.6296564058596],[94.5209290872519,25.634353540838813],[94.52072960466495,25.63882964545797],[94.52457731180901,25.637174576618335],[94.52927963119865,25.637344275890207],[94.52925093811015,25.642543391819732],[94.53404565731157,25.64194098645338],[94.53934540756912,25.650557140219725],[94.54346751050662,25.649978844726505],[94.54550853044285,25.652564536226894],[94.54348017315887,25.653185981517705],[94.54372462630725,25.654632854737358],[94.55003090470463,25.657727918508062],[94.54827192702153,25.661445688844886],[94.55120335976234,25.662797471482865],[94.55169259124922,25.666028379197993],[94.55519494557389,25.668387091791065],[94.55625720339737,25.672336086045803],[94.55764551463466,25.673078237941176],[94.55917597618084,25.67182484714657],[94.56326848232469,25.674685296780808],[94.56051591493674,25.68308223326644],[94.56373221513225,25.687313992440465],[94.57176078401653,25.691797741941613],[94.57866545178425,25.689983694939556],[94.58389636144662,25.684854462615125],[94.5895074192726,25.687027473299963],[94.59499951949374,25.684930056334526],[94.59638938840973,25.6829532190996],[94.59543249218933,25.681809103386723],[94.58970057322837,25.681480035831385],[94.58839750672163,25.67510706929258],[94.58512384819691,25.67030066067443],[94.58041953814066,25.66875842917581],[94.58059952908256,25.665808168135552],[94.58415637521236,25.66631406708656],[94.58643976690045,25.6638374645758],[94.57836962937469,25.66168145280828],[94.5836385925708,25.656304121784302],[94.57602198209264,25.655303030031785],[94.58006737519307,25.650542423147545],[94.57631127195349,25.65005262719594],[94.57338822947742,25.647753634773604],[94.57592363992522,25.64372765200695],[94.57210172610792,25.64122669969004],[94.5734161338451,25.637454513837227],[94.58114253641727,25.63991344627637],[94.58913325388879,25.640274063143675],[94.59337211715197,25.63745366184764],[94.59342434879584,25.635585420321984],[94.59178305041497,25.6343444359756],[94.58988407568472,25.636605210016814],[94.58651692499681,25.63290583781191],[94.58589015066016,25.635432814514022],[94.58361700785115,25.634243053009723],[94.58405581061292,25.630509473413934],[94.58106848379686,25.62962018664245],[94.57957568322064,25.628152222302],[94.58016697320525,25.625600429175172],[94.5757709020724,25.623421040084338],[94.57666333428973,25.61641002813815],[94.57512807124836,25.612806603018587],[94.57245055630578,25.61094733536528],[94.57087048080642,25.60688785585143],[94.5718969569355,25.60533786405907],[94.56521201349304,25.60316141633367],[94.56620365205704,25.59715175067476],[94.5596332438133,25.597836883010096],[94.56073376357969,25.59432455972383],[94.5564692345505,25.59069964940731],[94.5598588314424,25.587826399338322],[94.5583476351658,25.583089051221865],[94.55088403472998,25.579508454427092],[94.56096962883394,25.573129051045136],[94.55839799112736,25.565821336579567],[94.5642934438942,25.563446919470152],[94.55588499274758,25.554686023103326],[94.5571198268186,25.55321156310026],[94.5650588579236,25.5510386403278],[94.56661404649628,25.548011276957535],[94.55777241604159,25.53931564351523],[94.55771756580866,25.536691452348013],[94.56048487544874,25.536069750876194],[94.56193625650384,25.533720687662527],[94.55677837268755,25.531602710261893],[94.55448645239414,25.52852003598116],[94.55591294831922,25.523514352349878],[94.56005378741861,25.521436898888588],[94.55689301658242,25.51909458906909],[94.55593809036742,25.510768585209963],[94.5531653252586,25.510321213548078],[94.55388861009783,25.502621380478242],[94.55905225121678,25.500675764296705],[94.5679324921607,25.50093229597177],[94.57677332760636,25.49573078223963],[94.58152007856827,25.488482183042773],[94.58557458507728,25.48536447003986],[94.59267546286937,25.483976213889797],[94.59530677655856,25.478331317591383],[94.60171710501871,25.476603772300464],[94.61034585092074,25.46974943730682],[94.61597476994953,25.46246914396395],[94.62294942366442,25.46110581367334],[94.62597658537345,25.459066273814273],[94.6307253216121,25.458969881517536],[94.63731739901718,25.4558282828774],[94.6458666646778,25.456929547894855],[94.65570317930967,25.449742600174044],[94.66838546333686,25.44849703910579],[94.67545193565354,25.445610547355752],[94.68109084933818,25.455137776650616],[94.6797178516815,25.458066365037432],[94.68193089450308,25.459312723334833],[94.68342586181576,25.466157672419563],[94.69233026025432,25.465418492546007],[94.70398725213194,25.468350173757425],[94.71019413643472,25.471439881360666],[94.71808284481585,25.469163192268734],[94.71956201615257,25.471899368901262],[94.72523577009717,25.473491412731974],[94.72746148904571,25.47597902103583],[94.74416377529181,25.481242059604835],[94.74712477608018,25.488864579866686],[94.75173904530061,25.4937726622648],[94.75728629579196,25.491490546488063],[94.76196405793664,25.482074227777726],[94.78097562801227,25.48041090988691],[94.78433557870316,25.48102290483619],[94.78613546207106,25.487144359906246],[94.78895355706742,25.489533739148506],[94.80550510331386,25.491776442863085],[94.80785056409651,25.493890403850322],[94.80787081302135,25.498881294533238],[94.81197931995702,25.51154600148997],[94.81529906834402,25.516584925831296],[94.81870594702535,25.51755046600936],[94.82484471297843,25.523804356232475],[94.82305009014487,25.53367926871987],[94.82527014970711,25.542406137419096],[94.82663302604546,25.54397976000789],[94.83002262114073,25.5440316690496],[94.83470054318556,25.552956764079063],[94.83789416271675,25.55320958074775],[94.84156030327392,25.55714038434301],[94.84362065046346,25.557443153655882],[94.84691923274575,25.562171332450504],[94.85357563042345,25.564405295508656],[94.87962869605761,25.56273783714157],[94.88539552175385,25.5635727742566],[94.88945786157215,25.566667925373416],[94.8982310817247,25.565570273407264],[94.8972349192449,25.57070131013231],[94.8909974616797,25.57828547882523],[94.88139770882074,25.585023794854685],[94.88185007434672,25.590757275176262],[94.89291995789733,25.59758516514832],[94.90007911030023,25.596906077527347],[94.91483457934068,25.607450168973575],[94.91646099173902,25.62102623090516],[94.92178384486901,25.635111875022655],[94.92101526966812,25.639995183733152],[94.92256525070711,25.645373636100956],[94.92484343845476,25.649688693809985],[94.93231198860778,25.65674507173718],[94.93548290052524,25.666830455681534],[94.94513906668574,25.672093479014777],[94.95026402185695,25.67322950261545],[94.95229445963913,25.678327280541353],[94.9613393833342,25.68480713363802],[94.97023248366145,25.68856154147342],[94.97502672945072,25.695948348858785],[94.97993541072572,25.69832602097749],[94.98890526939903,25.706989292929283],[94.99208134483271,25.719940268427525],[95.00337147912138,25.728597842006945],[95.01176278142921,25.73186545353599],[95.02279856852493,25.731484481518336],[95.02834963326298,25.738069303140612],[95.0338797852212,25.740136782666525],[95.03738772886358,25.739594774474757],[95.04084922421588,25.742332593564285],[95.04538856495844,25.75560472954703],[95.0486707610716,25.759796778961043],[95.043955600265,25.773699095853807],[95.04636002376793,25.77950359203909],[95.04569115617367,25.784226519220148],[95.0496311993492,25.79268336180851],[95.04976396944987,25.800915078068446],[95.04675800348996,25.80156517038817],[95.032929132292,25.814345004821252],[95.03320981808906,25.8229591416957],[95.02912192748916,25.83392898116778],[95.02933243150629,25.840266479430124],[95.02265126547958,25.845195481382397],[95.01803075206962,25.860078773739055],[95.00885122930396,25.866905070021968],[95.01014343068732,25.875237714673094],[95.01902201154464,25.880996412092983],[95.01893937103006,25.885025118049686],[95.0115934588796,25.89795309974385],[95.02619067171648,25.91346100745718],[95.0284390776175,25.913965454183128],[95.02786127583688,25.915305202034],[95.03242952077201,25.925051363135964],[95.03098874882043,25.93132600826171],[95.03553638460633,25.926973651608154],[95.04382095178707,25.926925112057017],[95.046360850218,25.928647628977266],[95.04767917281319,25.934542922968724],[95.05823555509295,25.940558358219914],[95.06233377811525,25.940361720493485],[95.0636051538554,25.94258794110649],[95.07313174073109,25.94178669255357],[95.08340366698455,25.950353953347893],[95.08924516603709,25.950557319018312],[95.09675241022268,25.957323812501613],[95.1030832449667,25.96865445349431],[95.10598734377002,25.971239355969157],[95.10978259648805,25.97077141822039],[95.11319880866515,25.974056828938686],[95.11674985886475,25.985027787583647],[95.12576825351285,25.986202275894627],[95.1270649895918,25.9907590180434],[95.13291577991933,25.99582503444886],[95.13439045159478,26.00051683145538],[95.13734801453057,26.002789454052138],[95.13904138196027,26.006603398206018],[95.14490348477219,26.01095194587656],[95.14516464478821,26.01458430142116],[95.14844839408849,26.01578040981955],[95.15185532756705,26.020927701773143],[95.1560176355034,26.022137124865854],[95.15886509642641,26.024818327221638],[95.16398585556692,26.048796926063233],[95.17656078283282,26.064319962009446],[95.18309164184787,26.068000729424455],[95.18568340271513,26.073299559295272],[95.18261095603431,26.074918237115593],[95.18225213926542,26.07803705716714],[95.17668465152734,26.08127146130707],[95.1758764534359,26.08422733775636],[95.16995374757997,26.085941578671658],[95.1707695031979,26.088649038077442],[95.16738048122778,26.089490302600236],[95.16470152987907,26.09253972708029],[95.1547466029197,26.08966518750495],[95.15056784952546,26.0866160164777],[95.14699802453642,26.088255166484814],[95.14201535981124,26.094577877524337],[95.13032189184149,26.094796027976987],[95.12229847479536,26.097503306693323],[95.11774097820255,26.101248412441766],[95.11558724215605,26.112877342131295],[95.12138781486259,26.11852081183314],[95.12206852584553,26.124159336693452],[95.12636044271107,26.1292114982586],[95.126360995175,26.131639023877845],[95.12279104172688,26.133884906137897],[95.12137799807317,26.13899773507662],[95.11894123342333,26.14079687475862],[95.12355724447711,26.14526742982534],[95.11893135015859,26.14831820777148],[95.11933986172899,26.153526850418352],[95.11711867567936,26.15869839945162],[95.11776378103772,26.164215042099006],[95.1265574019304,26.178073404108492],[95.12298576324281,26.18051325357951],[95.121911560521,26.184922873548118],[95.1322677550363,26.20126599702528],[95.14253367515377,26.21155325097156],[95.13308617505737,26.215387397725678],[95.12670684745768,26.222272014870658],[95.12217127335111,26.22357573544911],[95.11445564966401,26.232724806859984],[95.11950562066184,26.241577068075024],[95.12538815745154,26.24679076245347],[95.12450734134914,26.25042629692361],[95.12723099286642,26.253723496342833],[95.12377362706948,26.2548392813598],[95.11987317624181,26.261271866507347],[95.11941315706966,26.26486725404991],[95.12074277148798,26.271272718246152],[95.12490303665538,26.276539052423413],[95.12422096741972,26.285208576631703],[95.12824764591784,26.293183523983988],[95.12809661306746,26.301734322427677],[95.12230654615817,26.307203372240366],[95.12451278334312,26.31207296042855],[95.12593939335427,26.323409854383407],[95.12283340897062,26.324719817049356],[95.12283198783584,26.33071281319896],[95.12796628099446,26.336157943203208],[95.12823928260256,26.339580552972212],[95.1210898706323,26.34958147728453],[95.12301190511589,26.35170367082368],[95.12230223065154,26.357268860843636],[95.12886059338565,26.366002657863607],[95.13219898271312,26.37774158037744],[95.12916006385363,26.38492301025571],[95.12528425650912,26.388020349358353],[95.12023072818278,26.386611955832972],[95.11688962414655,26.39086258728456],[95.11397911766029,26.391255105696192],[95.1073965300579,26.395553973128283],[95.09979659410806,26.394019415108186],[95.09645909231608,26.400740061301004],[95.10304606190047,26.412543479065643],[95.10399892199031,26.42055253005495],[95.09487770437815,26.431238453535247],[95.09577023720679,26.432625235865196],[95.09425131721537,26.434849401909137],[95.08564515495958,26.44249868290027],[95.08443803391508,26.447317388135236],[95.07701974719714,26.44595336285213],[95.07258426876939,26.447710417401083],[95.07223484029356,26.44594322612073],[95.0660842704776,26.441553831439705],[95.0631587684143,26.444643524560863],[95.06174618290139,26.44989018213666],[95.06702558092783,26.457910922853756],[95.0680555479101,26.462241887643707],[95.07151715824676,26.463937799149367],[95.07294557117665,26.472541696901366],[95.07682600214993,26.476670775222185],[95.08290906447057,26.479569194072187],[95.08190333044139,26.48190015729414],[95.08472554870492,26.48346004764719],[95.0839648553223,26.485357164451756],[95.08628319057665,26.488046804229295],[95.09649544354241,26.4934432690195],[95.09920761189538,26.49834405699592],[95.09998868625516,26.505879765762554],[95.10703642690153,26.510042542567952],[95.11410003538913,26.518359885279462],[95.1156347522548,26.5239226467603],[95.11329577371524,26.529060275849396],[95.11304482754397,26.535447151680835],[95.10768064113114,26.539116106695694],[95.10721692000168,26.541475504221687],[95.11402424183366,26.547306768546942],[95.12280978777021,26.551736299521878],[95.12324540959757,26.55592966267961],[95.12530386942674,26.557703139116448],[95.12937093797667,26.558372666560615],[95.13193987175421,26.556658226678355],[95.13929304588544,26.556116084170643],[95.13858346754083,26.56010559292157],[95.14145739822196,26.564507126226747],[95.14097873451608,26.566717789248965],[95.14678582090673,26.574504407903287],[95.147592286148,26.578255495635425],[95.15427184329204,26.582821366195653],[95.14669364926702,26.593230434806454],[95.14841017167146,26.60611496298569],[95.14731147099357,26.610363331571715],[95.14910719695831,26.61601437504668],[95.1634697958941,26.62154486585691],[95.16786600446916,26.628548999415855],[95.1665745971965,26.63412278817418],[95.17212233187982,26.636202026571453],[95.18103530204282,26.642975191831813],[95.18396740941837,26.641529646837814],[95.18802198240272,26.642836145061413],[95.19276195916903,26.641161702702778],[95.19921952374176,26.64237592388662],[95.20076641816942,26.645202944925526],[95.20845447166215,26.64781134294503],[95.2122342221533,26.651273850610536],[95.21378252963092,26.656908193584584],[95.21969969108491,26.66090098876432],[95.22144277307908,26.665618329010794],[95.22921413183963,26.673759966711135],[95.23391968067268,26.68245856965871]]]}}]}