{"type":"FeatureCollection","features":[{"type":"Feature","properties":{"shapeName":"Puducherry","shapeISO":"IN-PY","shapeID":"1811400B81659894240990","shapeGroup":"IND","shapeType":"ADM1","displayName":"Puducherry","coverage":"context"},"geometry":{"type":"MultiPolygon","coordinates":[[[[75.53055591598205,11.704027560796984],[75.53009633069618,11.70200203908342],[75.53221750820354,11.700870706688782],[75.53658682930386,11.693938824344887],[75.54180505565272,11.696276544757179],[75.54242867510611,11.702355977876355],[75.54441045743756,11.704809014267502],[75.53947715423892,11.709275667985965],[75.53585313838039,11.709934125329239],[75.53055591598205,11.704027560796984]]],[[[75.53848825643483,11.761364662655966],[75.53821831987845,11.762709883729935],[75.53633385922826,11.762576109540085],[75.53586179454645,11.760984056164528],[75.53126155611245,11.758628541654392],[75.53391202637512,11.756920601529634],[75.5346074328978,11.752884395721686],[75.53755222538351,11.750557887845511],[75.53753401024449,11.748687433746662],[75.54055743496193,11.748579339306165],[75.54190918476719,11.742147070766997],[75.54025252160167,11.73474174869522],[75.53613123882606,11.733501512431616],[75.53192076951237,11.734544102748988],[75.53091949112701,11.730971826307602],[75.52663646668445,11.726135068231097],[75.52791331136804,11.716189070798794],[75.5319262079131,11.715739065665877],[75.53046464804751,11.71018315421429],[75.52871623185719,11.709332280407981],[75.53116885177178,11.708435936222598],[75.53093059430392,11.710354305916725],[75.53754375247374,11.712174458902648],[75.53702055927924,11.713502339234084],[75.53328521430922,11.714115093623363],[75.5325021025704,11.715811400503114],[75.53658716976535,11.719389931737817],[75.53776871667203,11.716045271227316],[75.54165536937694,11.715650205745716],[75.5453805148752,11.717717339587685],[75.5478813258115,11.715416011873264],[75.5515101934709,11.719211535174386],[75.55471360913029,11.719625765312372],[75.5555057246832,11.721747549478474],[75.55577670328528,11.727695321806593],[75.543286339827,11.734379099081309],[75.54237733818425,11.736960093191662],[75.54487802515304,11.748155204649294],[75.54427916776048,11.752239746753062],[75.54623518281629,11.756346142065834],[75.5442108257303,11.75887583009692],[75.53868979975701,11.76008631349612],[75.53848825643483,11.761364662655966]]],[[[79.68566703716903,11.812551303564646],[79.67934641357483,11.814627230293421],[79.6758675061774,11.8143479122054],[79.6745722595052,11.803559799588259],[79.68130823803561,11.79631914646354],[79.68388877445341,11.80215513133827],[79.68962616415442,11.80214088188235],[79.69053892345,11.808500117569116],[79.68811959689646,11.8122010139211],[79.68566703716903,11.812551303564646]]],[[[79.70034787597231,11.821662258286088],[79.6925612701064,11.822476034298996],[79.69195776033897,11.814165203650468],[79.70259985986314,11.813470708321622],[79.70034787597231,11.821662258286088]]],[[[79.79576112682633,11.785499854197658],[79.79845813700722,11.802047510776173],[79.80699829015762,11.833580813060266],[79.80218875683885,11.833932174371496],[79.80036151168572,11.837701296500692],[79.79822296345573,11.838744799520326],[79.7980772791745,11.834694899782749],[79.79377820812604,11.833595300908328],[79.79357667558362,11.832392937913141],[79.7986190971398,11.83334811497425],[79.80063874525713,11.830686439861658],[79.79747448087278,11.82460172006767],[79.79500564007911,11.825730983147581],[79.79573895191355,11.828542597579839],[79.79229796150594,11.827592382011407],[79.78732360170557,11.829398793913585],[79.78642374850567,11.831030197776956],[79.78015567725392,11.831886871658838],[79.7746415647151,11.82868930927104],[79.77297363308266,11.82271334191354],[79.76775216381562,11.822747505505987],[79.76492521143058,11.824170162339673],[79.76436613054045,11.833779305655689],[79.75070405942279,11.838673058848196],[79.74861604322415,11.840737992580713],[79.73958073779083,11.842412537720843],[79.73666780944656,11.844252974808008],[79.73814227630614,11.836962122159786],[79.72938288931063,11.837001482757605],[79.73232731348708,11.833443235615086],[79.73159890825076,11.82444435491314],[79.73269070986726,11.823847337022437],[79.73294543884417,11.818174731196452],[79.73472971308571,11.816899409245398],[79.73565812013521,11.809368831004537],[79.72446303748508,11.810489004291881],[79.7252364159778,11.80319379289528],[79.7230570429114,11.802900787934734],[79.72275657621182,11.796532293929364],[79.71695330137288,11.79760084881537],[79.71669143617937,11.79650709284713],[79.7138469675446,11.796345203164028],[79.71229475598875,11.791554512491723],[79.71981651155943,11.784993806868252],[79.7217990287128,11.786909652677958],[79.72611445987923,11.78256457412142],[79.73183910158804,11.780808736145417],[79.74020689857814,11.780941221948035],[79.74971863450556,11.776134813076908],[79.75503592167408,11.775278385334389],[79.75753258329208,11.78349219698919],[79.76089844310091,11.786983006486698],[79.76193132601459,11.790834010831844],[79.76584659994275,11.791871071733961],[79.7687556664296,11.790773866935604],[79.76879757912585,11.789169302588203],[79.77060040357793,11.78955871030806],[79.77015772728066,11.783470178081608],[79.77187396671582,11.782227843289782],[79.78042103869053,11.781155180721042],[79.78117689554365,11.784346522028512],[79.78436888283596,11.787385003758775],[79.79576112682633,11.785499854197658]]],[[[79.69944277571285,11.868191974518695],[79.6997260181152,11.87417300465838],[79.69714846500247,11.874040847061398],[79.69597923848993,11.86039426285556],[79.69908703118224,11.861265302900318],[79.69944277571285,11.868191974518695]]],[[[79.80770216240354,11.836406568099394],[79.81546191403233,11.860471952217582],[79.82264042692621,11.876523712898308],[79.8405729999714,11.955828715931101],[79.83274687901275,11.956564067787768],[79.82878953967476,11.958371347778886],[79.82228785614349,11.965809857364047],[79.81844289604759,11.977931399357956],[79.81623443283732,11.979074446014648],[79.81254361825425,11.97793458573014],[79.80975301350225,11.975267180099818],[79.80641732091729,11.968066156402369],[79.80501182580689,11.953299304262227],[79.79166545501943,11.959419934043531],[79.7846600897016,11.95990581922332],[79.78341726781109,11.956307569034575],[79.78079140240409,11.95656881696492],[79.77941070977869,11.95360328410141],[79.77671146279275,11.953742431910339],[79.77504200132938,11.949777875130362],[79.77314182016173,11.949126304115795],[79.77146373038006,11.943932310662404],[79.75988251498991,11.943642895994994],[79.76064021967755,11.932067767031167],[79.76213345683499,11.928588071528395],[79.75719472871036,11.928215348043059],[79.75637863532586,11.92608612243043],[79.75501541762773,11.926053886969692],[79.75506202671623,11.924453863866432],[79.75633810603522,11.92430526657231],[79.75621587496943,11.920431660280476],[79.75021249501111,11.919949872265745],[79.75105622057372,11.921735616363572],[79.74926133992365,11.922204865798708],[79.74863609901118,11.94403114278616],[79.74447016637265,11.964999075226748],[79.72957104593848,11.970713424695587],[79.72445721460542,11.971271147305183],[79.72344473333014,11.977093115025331],[79.72641823866728,11.985801896404686],[79.73034822879642,11.9859813077719],[79.72952129544143,11.984720547840384],[79.73193495901538,11.981519626938706],[79.74188651639412,11.977710066788807],[79.7480643770284,11.9847946286817],[79.75185388681679,11.984313823413228],[79.75546061729264,11.988333604884343],[79.76036347568798,11.989244215154885],[79.76201002202674,11.993168159921343],[79.76231337411502,12.002732683049924],[79.74755996041995,12.0078337348639],[79.74260124118697,12.001174285974653],[79.73767600845287,12.000922711546808],[79.73747137941768,11.99843165169691],[79.73477007888297,11.997450182997804],[79.73338884996336,11.993256037657046],[79.72055235664297,11.9926887368449],[79.7158418185668,11.98484801179575],[79.71236909247682,11.986474673258714],[79.70926567907154,11.975726317976871],[79.71597099001647,11.971018554616396],[79.71498542586036,11.967618362995983],[79.71079001590412,11.967236515134829],[79.71013909305597,11.965715516814154],[79.70339435056165,11.967063788591252],[79.70364881902714,11.965465916511207],[79.69800264066677,11.96040574609633],[79.69567189159356,11.963871032582805],[79.69159727899185,11.951351023982138],[79.69573069171881,11.947708579318547],[79.69724088188227,11.941759852756737],[79.70410752845561,11.940243632968384],[79.70663160126621,11.935095213983422],[79.71111225776617,11.933056495541798],[79.70788881416756,11.942342663582792],[79.70789113451596,11.946570642464],[79.70962091964725,11.949840424515362],[79.72084718910911,11.944898386226395],[79.71748098255057,11.928974550412898],[79.72551089980612,11.92310617098989],[79.73228197102311,11.91355510448483],[79.74064997372743,11.905469612213121],[79.73127925533332,11.903150034132528],[79.730501011565,11.891703382248542],[79.72887800467994,11.890250891164229],[79.72275512543261,11.891762922892882],[79.7249020612324,11.889406084782994],[79.72362137714929,11.88866163035091],[79.71876361957113,11.890471069769452],[79.71683278069943,11.892841429605673],[79.71113323702134,11.89075175248961],[79.7091473646604,11.893117748124686],[79.70525256333755,11.893877492508484],[79.70590285287342,11.89908400217475],[79.70898250224622,11.903311064136366],[79.70660730902426,11.905104686179167],[79.70655783880157,11.913502349835635],[79.71792695566495,11.913352650475105],[79.71860190754863,11.918974926234034],[79.69624346625264,11.919177026230338],[79.69553151276241,11.907906522796436],[79.69775337614175,11.9075655954507],[79.69789097828033,11.904725492699145],[79.69756265841704,11.902424941293264],[79.6956617199696,11.902411235018858],[79.69535755400766,11.894797689658345],[79.68710996058573,11.894506602549853],[79.68681572909249,11.888868237779006],[79.68259130624752,11.88879305827707],[79.68273937016592,11.891858682442347],[79.67380679067857,11.891588432393526],[79.67397048079131,11.880662436627203],[79.68503747625833,11.880962745053623],[79.68565061147406,11.886219276505653],[79.69651653343777,11.886656418333072],[79.69684665442323,11.888500101165437],[79.69959140736647,11.889065352244437],[79.70995429792394,11.889188862421873],[79.70823502308141,11.869104580324471],[79.71254814917084,11.866610279914363],[79.71339985895972,11.860713446693252],[79.71735439824894,11.854522363540218],[79.7196204075363,11.853041780264439],[79.72108516720091,11.86249505559194],[79.7325497354531,11.862552183253309],[79.73263416092014,11.865513824056952],[79.73988302447718,11.864596733250895],[79.74374412190888,11.85803010441781],[79.74308000550417,11.848460192458079],[79.75097452239189,11.84805010321307],[79.75385950953755,11.850170382822654],[79.75380174786478,11.865976553351482],[79.75542857438643,11.86789896799778],[79.75861777330812,11.868511752300812],[79.7573614200945,11.876111218463945],[79.76392291345738,11.877014722090589],[79.76446607170908,11.875497333046152],[79.76846270425588,11.875970285000681],[79.77002630105966,11.874650377225313],[79.76921084997059,11.865117171446405],[79.7708121652365,11.861369907590342],[79.76943811744925,11.858314927038283],[79.76689729195697,11.858047461377586],[79.76506685778457,11.85198794716512],[79.76313272119745,11.851875373645544],[79.76210510061473,11.848439050036434],[79.7642647817118,11.846913283446563],[79.7660917852181,11.84059092424407],[79.77237084376407,11.836665537129742],[79.77581293460791,11.83845793519023],[79.77665204193164,11.845245856528289],[79.78009135518464,11.848159054342815],[79.78166908608107,11.855812304373528],[79.80060534230158,11.855314398723273],[79.80262773926368,11.85405091467273],[79.80522509573683,11.847702551069428],[79.80767704281324,11.8467760292179],[79.80606844131206,11.840485031475874],[79.80770216240354,11.836406568099394]],[[79.77875386433787,11.904692896072696],[79.78143534534243,11.902808104912129],[79.78245397648415,11.899553073626036],[79.78785552293137,11.896787774396508],[79.79638034992472,11.899901487001507],[79.79652019605487,11.89498956874575],[79.79452672843823,11.885313639177719],[79.79205863414455,11.880369612297201],[79.79230635356733,11.876890841570892],[79.7895211800295,11.877203053426177],[79.78717906726789,11.873498179520393],[79.78506296434361,11.862958221660683],[79.77837913660869,11.863222142257362],[79.77771292892602,11.86664460241282],[79.7798450344388,11.872431508855932],[79.77960774894805,11.877958416933943],[79.77613785255124,11.878265373305885],[79.77261774033,11.875850128700167],[79.77348705799676,11.883329639792015],[79.77077725760286,11.884071236914114],[79.77195573406792,11.88541704087825],[79.77046783829316,11.890928076321662],[79.77281771249878,11.900490553086806],[79.76913223480683,11.900707167818743],[79.76918814505179,11.901788545049207],[79.76977625679693,11.902820707141961],[79.77509295017906,11.901871532663767],[79.77532057698384,11.905032020691337],[79.77875386433787,11.904692896072696]]],[[[79.7925147842728,12.018006788598147],[79.80092050454093,12.016965065395308],[79.8053875398863,12.021803137807565],[79.80531436761481,12.024543899860484],[79.78928976233419,12.027686726614663],[79.78831721386827,12.019235012965627],[79.7925147842728,12.018006788598147]]],[[[79.65359292261319,11.842968712592583],[79.64731887307323,11.844217656888707],[79.6471758972126,11.842252041448633],[79.64593690933174,11.842271111205472],[79.64579732910286,11.835045117556929],[79.64094715689896,11.82285239487423],[79.64432771853572,11.822218069139554],[79.64499285093501,11.820188117026278],[79.64697405385311,11.819722359358199],[79.646286532742,11.816257312716079],[79.64796268395925,11.815417815927333],[79.65962007199391,11.812841046592533],[79.663436075795,11.813039913858724],[79.66512535499184,11.814949392071483],[79.67122518885886,11.814853842946473],[79.67126195959838,11.823577284266769],[79.66357131805935,11.825131881601424],[79.65943703216998,11.829465258080294],[79.66172425517273,11.839308530713282],[79.65359292261319,11.842968712592583]]],[[[79.61843855591502,11.885260934429406],[79.60817028310983,11.876873368013356],[79.60484195491357,11.881160840132189],[79.599327116536,11.88294503783985],[79.60000559161222,11.875828656985314],[79.60130288644325,11.871196045492843],[79.60270125521849,11.87171008618118],[79.60293245911474,11.87005838503043],[79.60197174505434,11.857802793463547],[79.61043007964868,11.860284473516087],[79.61220869899547,11.862583205128],[79.61941706829614,11.862668465814144],[79.61914904425302,11.870148934718152],[79.6284905440442,11.869791067147641],[79.62685282814465,11.85427776543606],[79.64707049788032,11.850207493479463],[79.65277895643929,11.850546066118474],[79.65782681819285,11.852701597457623],[79.66159065862199,11.861230358176668],[79.66336199981838,11.861293368392007],[79.66266529253514,11.867300430137107],[79.65922365174727,11.867775398057175],[79.65768658129554,11.870135003525554],[79.64853786355759,11.87052846559789],[79.64841646882336,11.880314311567906],[79.64046941755949,11.880584870815216],[79.64111825901112,11.886605746214917],[79.6347784321311,11.888769088455376],[79.63449782718243,11.880979043030896],[79.62966890911815,11.881312969382174],[79.62974906489262,11.888620380225019],[79.62493149794027,11.88921149693809],[79.62491051149861,11.890772093462099],[79.62117169094675,11.890557673692129],[79.61843855591502,11.885260934429406]]],[[[79.68696048721065,11.967854873498524],[79.6878190664165,11.969551957620727],[79.6864862288429,11.97320707881271],[79.68030226864786,11.972847429633745],[79.67666011490539,11.968094037736353],[79.66216470454643,11.969087497871596],[79.66189974465678,11.962509480172224],[79.66047978936525,11.96252912677997],[79.65998298418221,11.958358228747505],[79.65433826648254,11.959419814524418],[79.65379351192455,11.960602174090964],[79.65279250303378,11.957802681829747],[79.65465913392221,11.953452880084777],[79.65817671469097,11.95248734740777],[79.65877631319366,11.950019887876705],[79.66379580165896,11.950888253755652],[79.6724841921026,11.947980737734719],[79.67654181846059,11.948477647565884],[79.68460721916986,11.953355434689147],[79.68349739195882,11.954431710457962],[79.6838470270472,11.960390393218841],[79.68696048721065,11.967854873498524]]],[[[79.63730376976962,11.980977229746337],[79.63998518789211,11.988525290319542],[79.63998666562077,11.992681759018492],[79.63610508480394,11.995705695341966],[79.63644698180444,11.99803783307227],[79.64232797708512,11.99929137736799],[79.64432330331609,12.00550050096896],[79.64602375036854,12.00566050794049],[79.64845030207191,12.019508886391536],[79.65136154248174,12.022298628969834],[79.64400529790889,12.02759611186825],[79.63754202813581,12.026739136084277],[79.63520382663897,12.029680575416712],[79.62638953640993,12.031895199523003],[79.62527057153582,12.030362312329983],[79.62924499413556,12.018692001060877],[79.62514162556332,12.01466343787379],[79.6209744469615,12.014301948750518],[79.62126345654794,12.010416275542807],[79.61883580800165,12.001939539691378],[79.6196275786015,12.000414865422949],[79.62613748441257,11.999608023555385],[79.62359135257185,11.989278273460618],[79.61710683225242,11.989568650680587],[79.61795257363451,11.984898320208522],[79.6197169798369,11.984854360651008],[79.62077976946301,11.982421556258199],[79.62435013703447,11.981776904059455],[79.62449831503888,11.976001860435897],[79.61852220972922,11.9699423167374],[79.62746999320274,11.968075016351921],[79.62661533424479,11.964049141191882],[79.62866134072917,11.959514150240121],[79.6284881167963,11.945184480085846],[79.62475910674569,11.943106741024737],[79.61890409164135,11.943223697498915],[79.61787474629324,11.936051358806303],[79.61842499315087,11.92608663835949],[79.62671288589475,11.92198434726589],[79.62832332714562,11.919575779820669],[79.62526614463812,11.903048180058962],[79.63209952479986,11.901271158528562],[79.64062185896826,11.902195934874419],[79.64106127348278,11.907674661659211],[79.65588542591321,11.907937644981384],[79.6560421576758,11.912897450103602],[79.66262360621437,11.91309317156384],[79.66266920649483,11.915145639293371],[79.66099942073967,11.9162891417479],[79.66885208960989,11.91841386138678],[79.66899935582428,11.926010889942845],[79.67053784381753,11.929824890438839],[79.66928783450642,11.937477283118863],[79.6641400342792,11.938337448781136],[79.66418387655663,11.937026262793996],[79.66069358301297,11.937078625278787],[79.66038459399628,11.941407495108269],[79.65857731300201,11.941921633259335],[79.65858528734681,11.944571564574986],[79.65661691237098,11.946887951583973],[79.65735676933055,11.948055218855774],[79.65287075797313,11.948166661902405],[79.65195378917215,11.943589711279136],[79.64708085186231,11.944502304714234],[79.64268776852607,11.942117436605766],[79.64221953875224,11.953894720867055],[79.64727889085655,11.953428664625996],[79.64832302247422,11.96732852196303],[79.64133353038747,11.970426406990759],[79.64027146749845,11.976211088574221],[79.63637099780617,11.9778152707414],[79.63730376976962,11.980977229746337]]],[[[79.6964898983896,12.03537025770059],[79.6927597151392,12.035293215053818],[79.69117942853576,12.028648543473413],[79.68934871139406,12.029063566028698],[79.68655323687489,12.02677064698826],[79.68417671055307,12.021704186545598],[79.67647713976014,12.021572551666354],[79.67222553030139,12.009695395932832],[79.66136068002781,12.012296084743092],[79.65831595445833,12.003768167373336],[79.65955000789334,12.002428778714451],[79.6569393329978,11.991563719272545],[79.66252889503737,11.989499115006614],[79.67384995382965,11.995053008405657],[79.67763660697544,11.98676445156702],[79.68083491301746,11.983344830655234],[79.68541354517224,11.991621194089102],[79.69351707667039,11.989896158692517],[79.6946702188478,11.991948960586415],[79.70143545999859,11.991862661469346],[79.70221817737699,11.994146393001193],[79.70558304724238,11.994555810767675],[79.71582855853491,11.990455056943999],[79.71960396656995,11.992169296445017],[79.71801358200445,11.99291790135748],[79.7174951435927,11.997749823380694],[79.71144538810783,12.001411408512553],[79.70902931794724,12.006899072490254],[79.70280772822323,12.011071047207638],[79.70527736043266,12.027582277512895],[79.70476546175622,12.031984926332758],[79.70072002553664,12.034057145435343],[79.6972281994671,12.033228020035693],[79.6964898983896,12.03537025770059]]],[[[79.80909705110535,10.880671147213771],[79.80596658403694,10.879701536943784],[79.80686714241435,10.877670292611738],[79.8099463264598,10.878428397259336],[79.80909705110535,10.880671147213771]]],[[[79.84128673482081,10.828006528052562],[79.85070499295807,10.827897309012457],[79.85269890703744,10.833387485360426],[79.85287464086322,10.845653304142308],[79.85088664218998,10.845807583878948],[79.85078228939501,10.846972248762528],[79.85307989602416,10.847895626258273],[79.85236216007846,10.866801027952567],[79.8534715354369,10.877207052636676],[79.85293358112561,10.886070514784624],[79.85103462795495,10.884542851495661],[79.85091967773457,10.885582235653526],[79.85230555274083,10.887647737096543],[79.85436081546587,10.983316684627638],[79.85186471439663,10.983904094017689],[79.85059271253073,10.98744336555267],[79.85118366295217,10.994342240338268],[79.83936279680714,10.995896988286894],[79.84019704604181,11.002115741134297],[79.83186963281531,11.002878543255541],[79.82890673298844,11.001849192715353],[79.82785212611624,10.998190718204382],[79.8229172122383,11.000817420661653],[79.82060145425052,10.998214921410293],[79.81516529930867,11.003769568529703],[79.81309433223579,10.999207811092583],[79.80807174368447,10.999938946976467],[79.80419637561616,10.997692726242219],[79.80317665122476,10.995255511639083],[79.80619431774127,10.99300586811094],[79.80375004137905,10.992158817359908],[79.80403967709127,10.987141665712977],[79.80176087399765,10.988143559283774],[79.79900334970596,10.985959494298175],[79.79939410248153,10.982904505352822],[79.79770790720104,10.982551333598064],[79.79384733887704,10.983145302030062],[79.78633258028412,10.989664601527783],[79.78607364090348,10.990851067641655],[79.78897667340655,10.99196240990125],[79.78646840016516,10.997294248470467],[79.78348132218241,10.99673912273409],[79.78351270303025,10.994839736199967],[79.77886679784048,10.99692078298301],[79.77978684247299,10.99866188452325],[79.76661051648058,10.997389135684877],[79.76319022146052,10.999156695029795],[79.76206620985114,11.001409949360538],[79.75998965705385,10.999072698780914],[79.75626907589553,11.003790390458736],[79.75429551135228,11.002619908825551],[79.74862565160443,11.003240394929872],[79.74671818959136,11.00263015096566],[79.74850748092376,10.997953610983142],[79.74728712410185,10.988357435999324],[79.75253225229854,10.988073777025708],[79.75282129871594,10.98292524497807],[79.75848742326882,10.983543952356332],[79.75836814945697,10.979858299976485],[79.75562877382897,10.979563941904532],[79.75551588973374,10.97802717931886],[79.75276878320442,10.97694576673812],[79.75471454938119,10.975231260829581],[79.75469712206467,10.971938507179566],[79.75936783692595,10.972245835804252],[79.76050080473873,10.96815119472653],[79.76272261691409,10.966588792974328],[79.76161983788478,10.965060734441881],[79.76388244974372,10.95982109923778],[79.75878780373016,10.960647034108783],[79.75568225053784,10.958464169039496],[79.74930102479797,10.958518074649117],[79.7462971249632,10.956321452350382],[79.74504398681995,10.956648387741188],[79.74615807563869,10.96505138085056],[79.74463058482115,10.966158020828361],[79.74159302690931,10.966521319757664],[79.73912044553082,10.964597054887228],[79.73843900421755,10.967400342664122],[79.73486340395955,10.967408746366146],[79.73493319676889,10.96941183764044],[79.73158692113158,10.969306336557196],[79.73089621369617,10.9705037300592],[79.71922800814882,10.96846608521418],[79.72064921389523,10.964415756622161],[79.71870431728765,10.955994200863165],[79.71946563589769,10.954515931700922],[79.71953138538994,10.956682420045414],[79.72119670202659,10.955570422975702],[79.71977008123565,10.952248607913566],[79.73235698394261,10.951224309165664],[79.7324050195558,10.955398536576],[79.73342395522639,10.954995487955202],[79.7331535479528,10.956792434989355],[79.73450289027309,10.957545637884737],[79.73651969162924,10.957196642676147],[79.73627814722576,10.952883310180955],[79.73727915072665,10.95246196996678],[79.73686716716767,10.948976641177447],[79.73134970840441,10.947492901413737],[79.73061991706759,10.944325699815534],[79.72398886086405,10.941888252417208],[79.7249459286627,10.93830630902385],[79.72708610374168,10.937839183066009],[79.7230267571099,10.936108118578417],[79.72302066922724,10.934950364376455],[79.72908372786316,10.936418335029087],[79.7292271043724,10.934042930936622],[79.72675641843912,10.935113417901333],[79.72546093461169,10.934142456638952],[79.72476320324908,10.929025896149748],[79.7300043384343,10.928435149624846],[79.73012224231535,10.927272099772024],[79.73066852760257,10.928364247226412],[79.73553755903755,10.927503816261211],[79.73523584098477,10.9247280497059],[79.73809628076695,10.924781918232224],[79.73726321191856,10.92565881493078],[79.73909788164752,10.92634204787667],[79.73836901737205,10.923324068738895],[79.73928153142755,10.924627090184217],[79.74256252559488,10.92462460284429],[79.74341838919362,10.919110923459344],[79.74165536639678,10.918011383861023],[79.74304001969423,10.917547816807245],[79.74527291438527,10.919336960616814],[79.74477634276421,10.916083389554785],[79.7432562657427,10.916063254752201],[79.74304346563167,10.914739357834252],[79.75368621014618,10.914103444008548],[79.75431868788662,10.916275700798913],[79.75888841504198,10.916665147776905],[79.76293715257023,10.913668538067407],[79.75748504534558,10.907915349285584],[79.75941336264626,10.901922092603936],[79.75918841910921,10.900991426802687],[79.75780705813725,10.901970427424082],[79.75694633105958,10.89653350878518],[79.76020654719436,10.900538255300834],[79.7616692757681,10.899305417463129],[79.76243143789618,10.900486685561358],[79.76086658614598,10.900716074772006],[79.76128443570377,10.901813279908458],[79.76348857083099,10.899798672119497],[79.76230459577809,10.898049460477237],[79.75859334991219,10.897271903049491],[79.75773421734414,10.894842845685325],[79.75577921648625,10.89466203759601],[79.75620825995075,10.89181501883275],[79.76786336177305,10.892526276348839],[79.76520972584736,10.894434389444314],[79.76506885653609,10.896339768088941],[79.77691765848981,10.89662405032671],[79.77662068084678,10.905468110693521],[79.77916421925124,10.905333033222002],[79.77698564029555,10.907180311319756],[79.77733849494592,10.909010332360076],[79.7798275029177,10.908876073305873],[79.7820437509282,10.906305032519585],[79.78924416654532,10.908502744131951],[79.79532366884254,10.902795876794086],[79.79127993582871,10.904896550496796],[79.79191570409802,10.900298298303795],[79.79377874172532,10.898755559500326],[79.79118417631774,10.896023365816708],[79.78944478999269,10.896796507095207],[79.78247692754135,10.895384089896954],[79.78203075859423,10.89048770067696],[79.78357626961636,10.888535101430374],[79.78988282110163,10.89040296702327],[79.7902724698477,10.894937721614031],[79.79519803765339,10.89091010271929],[79.7946091767133,10.887602264276365],[79.79970564091697,10.887413065230476],[79.80100169966622,10.890151943377603],[79.80425068057173,10.891117345376736],[79.8070331888081,10.887556953764028],[79.8112659057981,10.888503050545483],[79.8231928405203,10.884330263698052],[79.82849837413163,10.883846012287604],[79.82847131687528,10.882154425878616],[79.82458133681057,10.880451669581172],[79.82093045773176,10.881420117365993],[79.81922548856015,10.880018063296173],[79.81121934611694,10.880398125603062],[79.811024755755,10.875636332322069],[79.82232529882285,10.874302691826658],[79.82323663608533,10.87010964416383],[79.82472230673314,10.869098022718289],[79.82482439307866,10.864891002659135],[79.81788911431931,10.863511303901568],[79.81161824930703,10.85971672449786],[79.8095730962222,10.865729239164335],[79.80740655199635,10.86550545240716],[79.80785451038753,10.855679066423402],[79.8136766920682,10.850022575679732],[79.81935115388525,10.849197229014152],[79.82099717740454,10.845624801550654],[79.82518221720916,10.847000507720551],[79.82800606321996,10.84973619689436],[79.8309799692057,10.827444928275833],[79.84128673482081,10.828006528052562]]],[[[79.72200160240261,10.936063633957827],[79.72162365870473,10.938308857106673],[79.72017983248118,10.936117667124279],[79.72162485256574,10.935038759760003],[79.72200160240261,10.936063633957827]]],[[[79.85706671627314,12.006807197772092],[79.87379284829845,12.042623534488682],[79.84976470029905,12.051816570374996],[79.84344696119523,12.03452659686037],[79.84296101664397,12.021989930158693],[79.84046957244115,12.013271029925544],[79.85706671627314,12.006807197772092]]],[[[82.3188873044478,16.571445723303654],[82.31906661985659,16.575654493688347],[82.31809498228235,16.57256485684676],[82.31509884838322,16.572075463757212],[82.31726265095078,16.56772799006841],[82.31881763201265,16.56801367723031],[82.3188873044478,16.571445723303654]]],[[[82.34434707146436,16.60463509479215],[82.34409276469562,16.607156333307117],[82.34218452384323,16.605612536400457],[82.34018554146903,16.600000060140026],[82.33561381376553,16.595643546123156],[82.32947935253927,16.595126155944605],[82.3312770242549,16.59178685478351],[82.33589018944583,16.5895391555481],[82.33678840950853,16.59338992417356],[82.34179317907792,16.59891426367674],[82.34434707146436,16.60463509479215]]],[[[82.33476528131783,16.603275863561482],[82.33609054699185,16.602974605829857],[82.33819692295828,16.605606939149315],[82.33763947071377,16.61064495961033],[82.33476226118185,16.615495239568673],[82.33091558260877,16.617993821424378],[82.33648356262363,16.609976887821755],[82.33580550077244,16.604627494302775],[82.33063185421784,16.607101624096185],[82.33476528131783,16.603275863561482]]],[[[82.22814236456338,16.760727574880665],[82.22464320105459,16.75610272037404],[82.22072004351148,16.757491983956196],[82.22010683822717,16.756025457862407],[82.22259086234577,16.756110417205544],[82.21985880888565,16.750305926073633],[82.21479730262125,16.75274152610934],[82.21192147290161,16.751103953941257],[82.21061640315179,16.74642881471324],[82.20676108727727,16.742911474841176],[82.20867802112666,16.739866080253442],[82.20558619239524,16.734613069245217],[82.19682066182152,16.734805330138414],[82.18632728108761,16.737104755868476],[82.18636352451604,16.72999750649864],[82.19496092550288,16.73018166036921],[82.19341304203007,16.721649708892418],[82.20546106336437,16.717429051657962],[82.23233962774407,16.718197691054648],[82.23904333609451,16.716315927558647],[82.26673003029367,16.69465599302771],[82.28010252408963,16.700798944923843],[82.28869110901024,16.70196607416376],[82.29448632506276,16.704535732276227],[82.30364935475978,16.711015717855997],[82.31007378587157,16.718178888223466],[82.3137857908139,16.729389954897325],[82.30549554358562,16.748263350505297],[82.30307192667831,16.746296348111837],[82.29486888879616,16.73213726439206],[82.28971766868266,16.72666788763096],[82.27597326876584,16.72740263514968],[82.2698030635744,16.721796588501753],[82.26397911400923,16.722337945888725],[82.25806743587172,16.720415101831655],[82.24347233138084,16.72227357801618],[82.21747587308433,16.732766348619148],[82.21808256558279,16.740793832624885],[82.22270195250539,16.747917413766903],[82.22510300193613,16.749381321937282],[82.22451459644189,16.75287556495084],[82.22980563843105,16.752999948954418],[82.23199466030192,16.754804611051693],[82.22814236456338,16.760727574880665]]]]}}]}