{"type":"FeatureCollection","features":[{"type":"Feature","properties":{"shapeName":"Sikkim","shapeISO":"IN-SK","shapeID":"1811400B15456792557830","shapeGroup":"IND","shapeType":"ADM1","displayName":"Sikkim","coverage":"context"},"geometry":{"type":"Polygon","coordinates":[[[88.01482460061725,27.21170989137787],[88.02141954993625,27.217833885902305],[88.03241754760293,27.221097543919555],[88.04002115317074,27.22061738191656],[88.05299704885358,27.215039014749987],[88.06496399364022,27.213331067906488],[88.06909587563788,27.207927955335037],[88.07984097509421,27.19946997144048],[88.07982103698647,27.197556409614954],[88.07359558450678,27.191096549914377],[88.07436419474195,27.18558945582104],[88.07791381302697,27.180675993520257],[88.07819178052196,27.172579772250643],[88.08663234913494,27.164588891262323],[88.08892859661306,27.156121780754937],[88.08839883493718,27.1446746502835],[88.09615538946187,27.13344551170311],[88.11144064443273,27.130029903965603],[88.12100511236564,27.123907173051368],[88.12658683031613,27.12215979198159],[88.1336824709301,27.12179303180068],[88.13581870060835,27.120223439559435],[88.13726588383612,27.11587249211751],[88.14465686626102,27.115305817496687],[88.14696339855081,27.113271540588002],[88.15125208237967,27.112538403727704],[88.15361405060399,27.10977387532254],[88.1624865929859,27.113580593181045],[88.17210872737019,27.127184348608044],[88.1816942500167,27.132513346704613],[88.20494360268223,27.133396717093568],[88.21057530020018,27.1298209564129],[88.21557138395907,27.131566992204707],[88.2221021818887,27.124118729291954],[88.22462313125706,27.1238074119812],[88.23220373995358,27.11850398473477],[88.24260178338473,27.120417448738415],[88.24848628389161,27.12512170913348],[88.25479416937506,27.123957632406],[88.27871594247178,27.130534847813276],[88.28319100965408,27.127472945253988],[88.29519478357075,27.12593353254021],[88.30200401791595,27.128943787360864],[88.30872253679051,27.12613094490251],[88.31658684064026,27.12563706555715],[88.31743514401757,27.11994407019605],[88.32150422120047,27.11690704579841],[88.32168913760508,27.111999392987755],[88.32441140212354,27.10547975991352],[88.33360215832185,27.106083972609067],[88.33833227158638,27.10993480392181],[88.34187944106394,27.10974668897259],[88.34793585306507,27.101318805290937],[88.35006298101283,27.099654528403168],[88.35502448502318,27.099390990456964],[88.35661239113684,27.095338469841263],[88.38187922697985,27.094444775920163],[88.39705565644391,27.088631013305278],[88.4129070467748,27.08631972000582],[88.43064887155253,27.079449114794897],[88.43707437974435,27.082396032999377],[88.44521813690258,27.082506632503442],[88.45869123572214,27.089677632890805],[88.45969150619774,27.095456629956235],[88.46431132521,27.100672507348218],[88.46620982562976,27.112231177751237],[88.47521501504319,27.120828929476886],[88.47930622312144,27.12115162534537],[88.48390227001632,27.118353397983462],[88.48610647431381,27.123883031513753],[88.4962701284227,27.122243264840353],[88.49811511440436,27.123966595031412],[88.4968626994049,27.129498662911566],[88.50208606321888,27.131495148152755],[88.50431925345566,27.134467986315283],[88.50919253122697,27.135999800430373],[88.51412907375054,27.139834403662128],[88.51697582141117,27.145784530247344],[88.52201341542103,27.14806203560692],[88.52991150131535,27.148048286017442],[88.53053500129283,27.154210763818142],[88.52662063735804,27.156517539975983],[88.52803133012065,27.15933664252363],[88.53338657829643,27.163327460309187],[88.52591916091897,27.16728152283229],[88.52561440296725,27.170304045532053],[88.53043910613624,27.17086654852187],[88.53182356719425,27.17625568335808],[88.53696322958332,27.17698045006844],[88.54125583366005,27.181755954339906],[88.547901137144,27.18099922218857],[88.55503332212206,27.184073359038823],[88.56020798467121,27.183791947801126],[88.57784757667804,27.187554465477227],[88.5795992411764,27.186367968363637],[88.58288539257175,27.188283316304858],[88.58522052183031,27.185237376011557],[88.58904646818496,27.18932818260244],[88.59191095667414,27.188080803883164],[88.59576409862568,27.18932506070314],[88.59809651317549,27.18473691296989],[88.60690513503508,27.181065154539997],[88.61628798517708,27.181651886582838],[88.62243821363323,27.179307861498764],[88.62662904757143,27.173613749141744],[88.63228875006835,27.171480324117034],[88.63507803699186,27.163597809759082],[88.63744497559465,27.162464286869977],[88.64743803603783,27.16273478147428],[88.65515716135789,27.159575719973677],[88.65878665873629,27.16056374963814],[88.67237468980993,27.17483710793321],[88.68218011734307,27.176846771241646],[88.68827547310839,27.175143021455494],[88.69996605658777,27.167858473924102],[88.70658707411802,27.166396513385518],[88.71630569834358,27.153925302341545],[88.71651351549968,27.141469519700266],[88.72438912824059,27.13541147665435],[88.73457285161122,27.134818633729168],[88.73884984027337,27.13631215104065],[88.74553283077847,27.14202526597501],[88.74637857305889,27.144604931395097],[88.75768468388486,27.148356796470843],[88.76128833313928,27.152404441568585],[88.75809232229282,27.15944907862901],[88.75778803416,27.164846773696443],[88.76659007945338,27.17833148763518],[88.7751992330991,27.181650581639826],[88.77666344838464,27.18037540369925],[88.78054097420626,27.182411949760745],[88.78774718665193,27.18168969236528],[88.79126288814507,27.185834679487776],[88.79220366499607,27.188397812793788],[88.78992369678751,27.193717366718644],[88.80013269246204,27.207238232416827],[88.80385697467935,27.218598289402106],[88.80332252828927,27.232743456198055],[88.80542854313292,27.23952253497551],[88.80332404823872,27.247950821051866],[88.82746259200002,27.257023978028165],[88.83184710720508,27.26245956472519],[88.86587598726017,27.264869457655166],[88.8791038954145,27.261228856635412],[88.88072565723459,27.26415260255144],[88.88629475834689,27.267812328282524],[88.89792436148984,27.270369446408424],[88.90008789546116,27.27438474924688],[88.90364667476544,27.272772976654938],[88.90788902439024,27.277235263611093],[88.90844255548853,27.282438790595187],[88.91335996479485,27.290180910567088],[88.90853395817041,27.30340774753146],[88.91850166186805,27.318598168403827],[88.9197577734349,27.32729165115358],[88.9153941844844,27.33072820013207],[88.90561756771902,27.328730475954917],[88.89902443569183,27.332887447147943],[88.89499353151862,27.332120883891797],[88.89155396763567,27.338710705175693],[88.884049415701,27.34241924589403],[88.88190788865751,27.34615556039753],[88.88519248506911,27.351250989264994],[88.8811057937201,27.351450092855682],[88.88088394398092,27.360334427637156],[88.87602229579923,27.360121056546646],[88.87278795114466,27.363759915549974],[88.86664703642136,27.36587409901364],[88.86288065196334,27.369588769698687],[88.86434020229763,27.379002165619625],[88.86215199250378,27.381622405268836],[88.86101409833,27.387013963766854],[88.85643853751519,27.38446028414969],[88.8458132400801,27.385050615528492],[88.83797656751014,27.379321867176582],[88.83162622854469,27.385709454777025],[88.83048683059114,27.390102750602964],[88.82323040052445,27.39073417159851],[88.81928452818107,27.40067109659026],[88.81702707983841,27.40222888744513],[88.81250979992257,27.401265065885703],[88.806190505835,27.406794594094595],[88.80738552836927,27.411112130080966],[88.80480957785103,27.415072646696842],[88.8089224272428,27.42368387733384],[88.8011312426639,27.422566643852473],[88.79982789139119,27.426527333403687],[88.79516338388852,27.429142726191333],[88.79168334012226,27.43846274493487],[88.79425968769586,27.440543195552607],[88.79446001020759,27.445579501436363],[88.79633388870373,27.447772929267487],[88.78906620544147,27.446924553046195],[88.78250513338845,27.449899268461326],[88.7842934716083,27.458812986160908],[88.77949517262049,27.462415324898004],[88.77686418591803,27.468734244758267],[88.78360056330041,27.474947394005742],[88.78051958891258,27.481384483594315],[88.78628879065279,27.488337981388703],[88.78304345690732,27.49607885768594],[88.78323771579085,27.50100931851637],[88.78693782164893,27.504156631968787],[88.7855794377853,27.506884434046746],[88.79040659964323,27.515940504821042],[88.78826417608109,27.522291050247425],[88.79264656407551,27.524974305752018],[88.79256704251162,27.529079472354482],[88.7907787222581,27.53153832318437],[88.7830858259477,27.529353622745436],[88.77725928204798,27.53249610966269],[88.77285794678757,27.540736513251872],[88.77502640532326,27.544496850580835],[88.77295085055425,27.548429983723196],[88.77367471211188,27.554001855407087],[88.77138782867226,27.55822905848775],[88.76376324025608,27.56484593674358],[88.76573976744312,27.56834552443554],[88.7697657048311,27.571191711303005],[88.78141454629419,27.569866780585134],[88.78389685642723,27.573119127462643],[88.79104435498591,27.575044445829697],[88.79084362014747,27.580343164933055],[88.78816017542567,27.584964558917715],[88.79437652258171,27.590263295600444],[88.80448229464358,27.59442416864857],[88.80728198944794,27.601648878114688],[88.80915266365348,27.602547654725726],[88.80598221436841,27.608700633098987],[88.81158814101747,27.618498650573596],[88.8046400540788,27.623676246166273],[88.80830288973405,27.63442453052801],[88.81116369782552,27.636719725797594],[88.81519056586818,27.646169267752352],[88.81661425725295,27.64728490682425],[88.82237677283248,27.643691493031763],[88.8274191081504,27.64408531780604],[88.835486715122,27.65039195110861],[88.83575460621446,27.65388383250293],[88.84300439952781,27.65975643791799],[88.84816101941449,27.667756123774087],[88.84744532623776,27.675354806957774],[88.84483515260213,27.676495368219523],[88.84186187453876,27.682667536623587],[88.84741987786406,27.694120800517855],[88.84243079467619,27.702968436109273],[88.83858762851588,27.70358058290231],[88.8379014979968,27.70586757378036],[88.83983076661336,27.711259663838323],[88.856253169258,27.716651787171934],[88.85429827170637,27.720246582517724],[88.85758428026958,27.726811692773502],[88.85666067291865,27.731315700699632],[88.85878970080324,27.73363469866396],[88.85960065223104,27.738300246461183],[88.86524035912808,27.742496596297592],[88.86110392536685,27.754044859812275],[88.85918294460707,27.75468208791536],[88.85619476708644,27.753335887998816],[88.85355553654462,27.76506711728831],[88.8541027713511,27.770626554800156],[88.85629909203361,27.771850782840193],[88.8550028626045,27.783525860311094],[88.86189082889449,27.79787098595942],[88.86027149252565,27.80416533028486],[88.85859198430416,27.805166656283625],[88.85848080251638,27.812335623751117],[88.85559714577568,27.81594256780898],[88.87266972476843,27.826365755171757],[88.88073909423461,27.82957782529906],[88.88078999457524,27.832289980033746],[88.883072490643,27.834679915058153],[88.88021651997934,27.841044008372545],[88.8817811462524,27.850969117404336],[88.88802021809013,27.857114777841755],[88.87964301843394,27.867478576098282],[88.8781616659877,27.87816302897443],[88.8809654813643,27.882304466687494],[88.8829774542758,27.890665238857395],[88.87201214630232,27.899216894537922],[88.87245067148471,27.90187751048943],[88.86953865672709,27.907305547967205],[88.87036096735166,27.91591537712334],[88.86435857464181,27.92113930525948],[88.86054293465843,27.9276540403832],[88.85259814355582,27.926159264083537],[88.84315325396365,27.929301957501256],[88.83704819459665,27.92917932911586],[88.83877480148847,27.943005479264556],[88.84165914544039,27.944691840973967],[88.8432793747346,27.95391489145445],[88.84113095491793,27.966859929620142],[88.8431618544342,27.975495121090777],[88.84156836439271,27.981515368150514],[88.84395812469529,27.992632653808776],[88.83805471105842,28.000318404237774],[88.83617460993229,28.0150202004509],[88.82323820329101,28.020684984146627],[88.81656867224387,28.020879775721436],[88.81251494277758,28.023413645484194],[88.80310322168063,28.03168937090639],[88.79751329941666,28.041073612527917],[88.79378830753029,28.043670925128264],[88.79285347572986,28.048765708872907],[88.7871473761468,28.05056073529919],[88.78405636667898,28.05401522153166],[88.77727248279109,28.05433033976079],[88.7722880250286,28.06466387407243],[88.76603561949709,28.07030445387532],[88.75608579496854,28.07607915467315],[88.7234831090046,28.07432277205227],[88.7182546203019,28.074633747186446],[88.70948381931242,28.077665170186773],[88.69733400268676,28.07594971512605],[88.69316351918302,28.07773382773428],[88.68597482927525,28.078011494691765],[88.68112218490768,28.076926946600366],[88.67829134102082,28.07150923445588],[88.67200981300613,28.07232477457726],[88.66662484945905,28.07610745065462],[88.66377583624728,28.088049516231063],[88.65691905048081,28.089995882117147],[88.65475307758352,28.094509112573927],[88.64617561380611,28.09874172352141],[88.63694237537969,28.11671837398689],[88.63287069128585,28.12123031323424],[88.62723223394538,28.12547210087315],[88.61004576204932,28.12891513585834],[88.60908641791977,28.12234825437336],[88.61779201649101,28.1180367582778],[88.61951892791171,28.09813001641593],[88.61204372214071,28.099231764859987],[88.6053848019937,28.097696351734392],[88.60215542771755,28.091938053739756],[88.60257705738607,28.08923264379462],[88.59101854421975,28.08923277376585],[88.58372983858322,28.08335308329146],[88.57518468271502,28.08458710655655],[88.5663644627068,28.09039449636654],[88.55962209445977,28.08384790816475],[88.55250267005032,28.08145405340488],[88.55627156889283,28.07351507108597],[88.54887146138128,28.04753615157333],[88.55086835966404,28.03762067298055],[88.54278544719661,28.033140961006797],[88.53251994569408,28.03340307428527],[88.52746722495316,28.037691270932896],[88.52345560042255,28.03504875701696],[88.51970112852351,28.04367828033849],[88.50965971266689,28.041250885400704],[88.5048985212868,28.047527346567946],[88.49537663888827,28.053943355559213],[88.48782497391021,28.044515951211643],[88.48181257756136,28.04362212559104],[88.47974987139587,28.041845473573794],[88.47432126409902,28.033778010287683],[88.47277015208107,28.027029423879704],[88.46757462705777,28.016741941818857],[88.46182916240065,28.01597435209437],[88.46067828757104,28.014394616441646],[88.45649459254442,28.014840621780657],[88.44352637027072,28.009098055269536],[88.43076765308761,28.007954669461892],[88.42460782523435,28.00143129497763],[88.41505542077739,27.999244689411487],[88.41236885979987,27.995617598343436],[88.4107187507427,27.9832317967904],[88.40652569167754,27.981609144260563],[88.40278937473039,27.982534281951715],[88.39870643205104,27.97785356109021],[88.38756275908631,27.97917121021238],[88.38622943642251,27.98128807438565],[88.38006122908428,27.983854494103763],[88.37675721558782,27.989806904630015],[88.3718480878501,27.991038042292416],[88.37028754891159,27.989467215580355],[88.36275420417543,27.98846690634421],[88.35253150200626,27.989850762085855],[88.34533565162741,27.984790274178366],[88.34126564738311,27.985371178432825],[88.33656502041951,27.983877284361043],[88.33035283605653,27.97302848854595],[88.31822025630453,27.978690807937387],[88.31560832286928,27.976474382807698],[88.31335829281419,27.971123514902317],[88.30859016554182,27.967248977872806],[88.3034228000077,27.965662392511234],[88.29884378876388,27.967275668055972],[88.29222872167406,27.965610664030557],[88.28640451069913,27.966289648648743],[88.28087827539555,27.957091153479066],[88.27564028611043,27.954700041243985],[88.26624935831737,27.95715065501078],[88.2611629040409,27.947086263350954],[88.25432006372091,27.94523110119888],[88.2512037487115,27.942151225882775],[88.24147480463998,27.95761534078604],[88.2374898259373,27.97124443988693],[88.22919657833603,27.96642181773722],[88.22455096869196,27.960428661216458],[88.21244932602005,27.964746823222832],[88.2072494558457,27.96132965972848],[88.20529210679165,27.9551548807712],[88.20480018934208,27.947277696291053],[88.2064766612579,27.94211852755949],[88.20523091804608,27.941726163573673],[88.20027787886065,27.941906140983527],[88.19590501660147,27.944135633620277],[88.18523073313567,27.943509316915403],[88.17856797987733,27.949717239683004],[88.17022076778194,27.952633787069026],[88.1635925331867,27.957991861666333],[88.1536830600824,27.95767828095657],[88.14490868289977,27.964347866353737],[88.13453175706432,27.951987502353624],[88.12905022282759,27.949470119865648],[88.13548050466683,27.943748939147522],[88.13768417087343,27.936994115404914],[88.13177540327744,27.93313782346882],[88.13019705793337,27.925849176935735],[88.12143773292163,27.92255528076682],[88.11923289980344,27.916825389580733],[88.1232578346716,27.906903115432456],[88.13388201999236,27.897249173685264],[88.13939446795298,27.889324954319346],[88.13470186923306,27.881749862338793],[88.1396003681043,27.87739910531243],[88.14189259831647,27.87900595169415],[88.1454555565835,27.878897687916165],[88.15507641625837,27.87215972371229],[88.16477735265596,27.869218370587934],[88.17410669554641,27.863418719596694],[88.18069330760127,27.85727510184874],[88.19583624876988,27.85431693028207],[88.19763673939887,27.84520701047236],[88.20287741285007,27.841467860866853],[88.20271685246774,27.836455700345546],[88.19753273425192,27.835330469688188],[88.19332380015905,27.832285017439517],[88.18876228540199,27.824248506559837],[88.17314971937593,27.820287352034747],[88.18548614483217,27.810517987150902],[88.18817868948778,27.800108941703805],[88.19469964457686,27.795538435696646],[88.19807203603608,27.7907416057556],[88.19546617790711,27.786695752575483],[88.1817775328267,27.77566504744783],[88.18334998162926,27.7660714678249],[88.18168405952812,27.76194491419223],[88.17727407438983,27.75843100955803],[88.17822647633889,27.746476058081548],[88.16990095676103,27.74080282275528],[88.15878120772895,27.74053042199713],[88.15640076205754,27.7362934297436],[88.15407661829659,27.726996034624076],[88.1548791246624,27.716995484324897],[88.14735690196777,27.702738182263346],[88.15410139113716,27.69059649050121],[88.14622242678196,27.67834749297755],[88.14324463288769,27.66262798935295],[88.13635087515908,27.655683516547054],[88.13103102779199,27.65483492515145],[88.12927754151022,27.651754192455464],[88.12387149450345,27.648713798755633],[88.11944281811904,27.643854180665564],[88.12065755148728,27.637599304407768],[88.11727321423136,27.62948600813385],[88.11974084050277,27.627172563358076],[88.11569842621577,27.621801335817743],[88.11370899203474,27.609682848016984],[88.10435553566714,27.60151019880887],[88.09039833833425,27.595514097232314],[88.08306882403097,27.58875385006459],[88.077430624507,27.578871197408688],[88.07885445962225,27.577007508042186],[88.07505839303059,27.57201860377587],[88.07826549717251,27.568845125726146],[88.07981120762064,27.564229952274452],[88.07506399941629,27.558392633593407],[88.0692424591327,27.55619368101818],[88.06889339357623,27.546631220044908],[88.06135315427026,27.54102940372067],[88.05913435684099,27.53625296926341],[88.05993676079883,27.532417976288748],[88.06611338804623,27.528546759153357],[88.06110021473741,27.52548892645801],[88.05801618158601,27.51992727529344],[88.05724904009631,27.515998399398175],[88.06089346657643,27.511757746543605],[88.05546896458044,27.50539387640564],[88.05057620145229,27.504595270163776],[88.04672048133587,27.501669590755697],[88.04425607013486,27.49647690752412],[88.04540616163357,27.49370200402717],[88.04459613187726,27.486140298676627],[88.04636004759946,27.481555716162823],[88.04496770831642,27.47817238112814],[88.05653266419995,27.46765127188891],[88.06262825891714,27.459176031639338],[88.06724408761289,27.457637776543038],[88.06521314677414,27.452936527435533],[88.07173454652927,27.445460475675436],[88.06824751566673,27.438672641880757],[88.07531664789498,27.432738478659928],[88.0740754851928,27.425346939111027],[88.06761922048227,27.42459987539136],[88.05746437615139,27.418047224651367],[88.05207244257605,27.412378012344114],[88.05040803503445,27.406434659563185],[88.0477740973663,27.40528270391724],[88.04901693722316,27.399584171409895],[88.04653353833197,27.39475952608913],[88.04536194116538,27.378223899435213],[88.04227442255073,27.370999033927824],[88.04897775450709,27.360407742864087],[88.058950587585,27.355118634019973],[88.06274310493296,27.34416926310808],[88.06838007196835,27.33507077184256],[88.06516839629997,27.334189605216864],[88.06044832979357,27.328078243107136],[88.05302923998177,27.323962599261485],[88.0490656708273,27.312473840372814],[88.04131821354147,27.303263622309665],[88.04475032140755,27.29300842031014],[88.03863394865785,27.291582797048964],[88.0327910158941,27.28533868791666],[88.0334604099011,27.28051674586833],[88.03122540776242,27.272545531969623],[88.03158223116968,27.250363893813567],[88.0268492558727,27.24715803022295],[88.02472808914513,27.242617397333987],[88.02455445917376,27.2373791149459],[88.02034730105021,27.234987610532823],[88.0176177350251,27.22266353200294],[88.01352368647392,27.217942772091547],[88.01482460061725,27.21170989137787]]]}}]}