{"type":"FeatureCollection","features":[{"type":"Feature","properties":{"shapeName":"Telangāna","shapeISO":"IN-TG","shapeID":"1811400B25711494603400","shapeGroup":"IND","shapeType":"ADM1","displayName":"Telangana","coverage":"context"},"geometry":{"type":"Polygon","coordinates":[[[77.55143503514522,18.29191082540236],[77.56217089093725,18.28479961974575],[77.56698723079093,18.28727480665063],[77.57025971521755,18.292524124737614],[77.57260658815181,18.293296161660965],[77.5762107117167,18.288726866147282],[77.58189861861864,18.285378164986874],[77.60547049431892,18.281275169101644],[77.6043487823967,18.27876023006966],[77.6012187555028,18.277616688515252],[77.59450248870463,18.264846754285625],[77.59123415718958,18.26240596216367],[77.58458568534762,18.26171657923435],[77.58204340368623,18.259620610378324],[77.57383334636845,18.24498215420515],[77.5718286291495,18.243996312484786],[77.57306049878007,18.239438677183617],[77.5805666182749,18.232163223807962],[77.57992915847792,18.228152059593167],[77.58189609345436,18.22696656200358],[77.58154339421257,18.224849968211274],[77.58536318980245,18.219815010231034],[77.58062777468113,18.21384411849685],[77.57487003903725,18.201622019092337],[77.57219665814158,18.20350979971673],[77.56555405768833,18.204177187789785],[77.56393316094588,18.201932798669628],[77.56350915253849,18.196123948205944],[77.56409753647318,18.19425644122733],[77.57073727758889,18.192164291023712],[77.57477040958403,18.1740929272791],[77.57720453228856,18.172487943341032],[77.58136189949087,18.162312060796744],[77.58426375609928,18.159229177283592],[77.5924428529808,18.155435692580124],[77.5968905565812,18.155943056913955],[77.59455603907537,18.131369689277722],[77.59920795309607,18.120990350686572],[77.60114358178485,18.103135053533823],[77.59892149562334,18.098244808353794],[77.5970010870904,18.08676320646168],[77.58556002954582,18.081839194659082],[77.5836282663077,18.082454569621305],[77.575969776371,18.078055383938533],[77.56947390134634,18.078240564595003],[77.56596897424673,18.076670320847875],[77.55976114581455,18.071878657200777],[77.55747229326785,18.06372776610671],[77.54838264065813,18.065206946585104],[77.54768303181655,18.056127693723656],[77.54965803186762,18.054385998124907],[77.54952586004491,18.051238495217078],[77.55188177542085,18.05069204801066],[77.55383337346044,18.035817664262392],[77.56066126491577,18.036221556985126],[77.58064117035865,18.031579221268384],[77.58329300695883,18.028259047458604],[77.58527926020544,18.0160072000267],[77.58962822907469,18.011688318456503],[77.59590210973138,18.012848073210073],[77.60168899750286,18.019837210737997],[77.60597993340812,18.020230025472227],[77.60798996595864,18.01795497587183],[77.60751660949946,18.009851095932675],[77.6197075725584,18.00649092859776],[77.62783294838928,17.996784519068452],[77.63879066380198,17.996449890786145],[77.64638255983006,17.999277271282374],[77.64895083693918,17.99887494360134],[77.65208495476088,17.99389173271086],[77.65138061089942,17.987693765352102],[77.64825914674678,17.98025374312114],[77.65582436191261,17.968276783680537],[77.64955917784619,17.959066321901748],[77.64952962956156,17.95001315474993],[77.64094451393454,17.954111359923385],[77.64066584216036,17.951884226231936],[77.63725807774014,17.95232263023061],[77.6351722408544,17.95924361120012],[77.63333615897383,17.960364028350565],[77.63305797139158,17.9673797856942],[77.62458970412517,17.95960063069604],[77.6329300315322,17.95580131574383],[77.63255678242997,17.946671353999815],[77.62298976777323,17.94551939181698],[77.61872804328439,17.93948831142792],[77.62204139656485,17.92957238700192],[77.61908327397863,17.904057059048046],[77.60522883403276,17.90781007334893],[77.60003871147757,17.904136624953907],[77.58610837736491,17.90783405545211],[77.58504327278031,17.901924841034806],[77.58603596506819,17.893843111834943],[77.5958711771429,17.881353844070514],[77.60041478308645,17.88060009228765],[77.59912114709354,17.873086073267306],[77.59453063651576,17.872330922732342],[77.58346280381889,17.877035956151033],[77.58091132700224,17.87536414520252],[77.58063379249522,17.8734450045091],[77.57644379309194,17.87541813787924],[77.57350162458518,17.869187592905124],[77.5700439919886,17.8676461082979],[77.56936968060373,17.851563279283724],[77.5648883889948,17.85118693403911],[77.56748003936929,17.845418775120955],[77.56072756866857,17.83864470100713],[77.55407087544513,17.820067271089307],[77.54895355236056,17.819378576163174],[77.54674157583922,17.828483848881614],[77.54375628999547,17.827669423804668],[77.53242142140232,17.829109871501014],[77.52826667189076,17.82789708702555],[77.52907654713684,17.8129306650109],[77.52298871655863,17.811405071393143],[77.51498423060876,17.805446418787902],[77.50904871208196,17.787783555518633],[77.50762926254194,17.787864009122952],[77.5066025241048,17.78595242452395],[77.5123767734786,17.78212947879677],[77.51755884353557,17.782493866850977],[77.52215753956222,17.780553815910057],[77.52640082163828,17.781631246407265],[77.52704307125238,17.77989680935712],[77.52871662993172,17.780656621939823],[77.53443796673861,17.77762809714755],[77.5375536798768,17.7799335423131],[77.54058670219477,17.777770967552215],[77.54030102715461,17.774377972882345],[77.5460994582775,17.771655737806952],[77.54827340462128,17.76706051592751],[77.55014441120348,17.767208236735726],[77.55490318342046,17.763970912706792],[77.55987201139533,17.76341766292281],[77.5663219555595,17.766753155515243],[77.56919350480683,17.76649200722338],[77.56730971250319,17.75959752461911],[77.56857803756463,17.74890660350295],[77.56443025628474,17.747856686626882],[77.56098489467495,17.742809618770313],[77.55805297235233,17.741385494379514],[77.55673904701044,17.73737777639042],[77.54865441067598,17.7357663548215],[77.54627070591674,17.732824366138928],[77.5470680496646,17.728457523566956],[77.54600779328761,17.726841229210482],[77.5422318543482,17.7289371703859],[77.53332726367019,17.72767715202679],[77.53137035748557,17.728670122808442],[77.5286332222559,17.725167439778975],[77.52205174766617,17.726026979089234],[77.51828656695062,17.72358070681085],[77.51659627535246,17.72015973385808],[77.51169798668694,17.720925016359704],[77.50918837315916,17.716292747524406],[77.49709840409437,17.715514605231096],[77.49231374243087,17.708126309081532],[77.48605378116953,17.707926586810327],[77.48493594637603,17.709143788031863],[77.484195167745,17.705605388289285],[77.48222040934074,17.705999523495585],[77.4797775002144,17.70393616304669],[77.47749698223687,17.705346944914996],[77.47195243477623,17.703000370079163],[77.46752645423598,17.70298441841259],[77.45891281530209,17.698623887344013],[77.45786776740282,17.696301313056917],[77.4524751717691,17.694704189365932],[77.45220500704066,17.691139852290863],[77.45508843740595,17.688929597103044],[77.4537488849256,17.686495097186405],[77.45353275206487,17.677111976572135],[77.45486529409274,17.67448217132962],[77.44897308963397,17.65943149194644],[77.44826291211307,17.651123726637202],[77.4500579742228,17.650580952425546],[77.44976311390889,17.643958130219616],[77.45227756396615,17.639999696677467],[77.45212056450563,17.636421744113303],[77.45593600865628,17.634179489291057],[77.45579862480831,17.632489925901343],[77.45119156456805,17.62320783478461],[77.44877377503198,17.609343895535723],[77.4448071794533,17.609408533392912],[77.4461824534409,17.596469344110528],[77.44333074618159,17.59169057474622],[77.44502444329298,17.586250674966355],[77.44316300376857,17.583965336844308],[77.4556634023069,17.582334416391493],[77.45862507054352,17.57997497671025],[77.46185663131905,17.580755189779318],[77.47063731916657,17.57338737284388],[77.47086731033721,17.571860275060136],[77.4742962579301,17.572012231017254],[77.47627367714422,17.5706152772395],[77.47809427925581,17.566805922288125],[77.49410877938779,17.568360270197996],[77.49622714157505,17.559617222950255],[77.500475472183,17.55619676098693],[77.50007225528289,17.546727349699225],[77.50694134707042,17.542281685337247],[77.5154824578249,17.552419967054572],[77.51653335555332,17.559151970942104],[77.52842600247942,17.575367868275883],[77.53747872085623,17.57544447937637],[77.54516572242173,17.56439296275931],[77.55060130603508,17.551736474801444],[77.55427856683714,17.553852166823493],[77.56089117793296,17.552571466547747],[77.56740789207556,17.556359411161214],[77.5820067443378,17.559887136021676],[77.58813695922773,17.560005480175118],[77.58911267425503,17.564700023344088],[77.593841338537,17.564515658076807],[77.5972670243471,17.553727871218193],[77.59562485370209,17.544877369456337],[77.59566388190792,17.53659184342661],[77.5969403960115,17.534306067705888],[77.60305250086532,17.535842949808384],[77.60742285143493,17.532256353072984],[77.61210337050925,17.534759601331157],[77.61939783793999,17.52887793410236],[77.62101294324381,17.530400473120658],[77.62342866485811,17.52562980032988],[77.6280008668721,17.52363751530885],[77.63703705714596,17.525715450932918],[77.64530532529419,17.522385303921485],[77.66204955298257,17.5228258354269],[77.66658276092672,17.51713263245831],[77.66868147426372,17.51161151897905],[77.6754937440163,17.50862375498878],[77.67753284604939,17.50998309464818],[77.6834554162597,17.50817893207819],[77.68775536855549,17.51182349839625],[77.6888380010679,17.510942206150517],[77.69255794352405,17.498938028176998],[77.68804433232785,17.48942957306658],[77.68967092798248,17.482815069968353],[77.68909445840342,17.47668012437583],[77.68779155089848,17.475208956018125],[77.67667287355654,17.47838823505059],[77.67056679460167,17.47789265334376],[77.65740446525972,17.480922088807574],[77.6554793738092,17.4830864167889],[77.65235518596464,17.48273789022227],[77.6533671893362,17.493898127701762],[77.65717147461436,17.506586797942536],[77.64999216940639,17.49989161462612],[77.64791541987805,17.496078851224883],[77.64769776886449,17.487174365380675],[77.64482499790836,17.477569867568082],[77.64055045535875,17.47646785720107],[77.63828122471278,17.47352240845761],[77.61738016342136,17.473888377813015],[77.615271280257,17.472894348887117],[77.61304037174106,17.466831350521],[77.61431127676401,17.44595041541628],[77.6029583861696,17.44415565336888],[77.58427931761493,17.454507626883885],[77.57622668645742,17.456171478695154],[77.57590217006104,17.43071858237793],[77.5615496124935,17.437617782789072],[77.55272948411341,17.437054477849983],[77.5373421212375,17.44375081488876],[77.53263860080035,17.442381609006997],[77.51303975890434,17.43087443006733],[77.51421489992471,17.4141855527317],[77.529874621215,17.408180656526323],[77.53611456441858,17.40798483243587],[77.53788482943325,17.406097197070704],[77.5372752722073,17.402255166709864],[77.52432802020564,17.38800370070621],[77.52625592338296,17.381934954136],[77.53008680418347,17.380134256367867],[77.53319195223558,17.380501689532927],[77.532747132558,17.37620956227732],[77.5303624477368,17.374694700472258],[77.52984235373,17.370716213085657],[77.52486307026356,17.364700237586884],[77.51579938345715,17.36038970474185],[77.51151802538946,17.360586023039737],[77.50266594303642,17.35707023109897],[77.48824178614747,17.35873184071286],[77.48385952301886,17.355002449885486],[77.47447266998394,17.36151767705168],[77.47657408006343,17.363716564597006],[77.4760401591878,17.368414446190375],[77.47913718557145,17.370726015120557],[77.45364791338935,17.37399468287535],[77.45227320803535,17.371889902086732],[77.45289706194902,17.36738992615701],[77.45110598296925,17.359385024634793],[77.45171950715546,17.352684872667837],[77.45490867014455,17.351789136282026],[77.45709895235176,17.34741502739989],[77.45605226502707,17.331241623600338],[77.45249547099958,17.327480164188756],[77.45223180019231,17.317558568440848],[77.448884495984,17.30962646373005],[77.44769374493893,17.30750349833734],[77.4456385379094,17.30774365230399],[77.443016475071,17.301225277280885],[77.4405474079019,17.301307388921465],[77.437966976587,17.291924615035885],[77.45491857496884,17.28724734500302],[77.45857583747606,17.279003245197124],[77.45359921122625,17.27610458597806],[77.45085540959884,17.270539410453484],[77.4440368696056,17.270555308309714],[77.43582295761695,17.26018896135858],[77.42637058954999,17.256468614726028],[77.42258405677846,17.250765561038644],[77.4204593929095,17.237631288720237],[77.41148908148531,17.237678177441417],[77.41043177607398,17.240420702918797],[77.40831154089938,17.241211664892514],[77.40498682662552,17.236536145288667],[77.38022890884885,17.22253708343567],[77.38300234230421,17.217983003238682],[77.38880309916537,17.21533076636444],[77.40201705109342,17.214127842636685],[77.40378862225852,17.20989887839571],[77.39842974758393,17.21031940637134],[77.39645035566944,17.207536396665983],[77.39393437039136,17.194403552264014],[77.39026826756343,17.196391689052824],[77.38178411718447,17.19766157042434],[77.3723128153263,17.19556975819883],[77.37400025477346,17.1945577879974],[77.37339395304211,17.190875690699595],[77.3694975967355,17.186330567536668],[77.3719417652999,17.18113506708259],[77.37004782293187,17.175799363516997],[77.3662411104058,17.17221648793473],[77.36680991915212,17.169311505775138],[77.36265571581623,17.16449063398777],[77.36376517561632,17.158789113111894],[77.36685739511489,17.15898808981195],[77.36595995568817,17.15597459368629],[77.36693749609213,17.154420486581305],[77.37821115438015,17.15266781838963],[77.37795722759881,17.13994988653064],[77.38458276904483,17.140035608241288],[77.40386154120506,17.132922821677553],[77.40669820707328,17.124519098383267],[77.43604242143074,17.11498897167552],[77.43852846945366,17.116854141923966],[77.44583487100297,17.117963222515538],[77.44959243580155,17.115025270504013],[77.45431419473393,17.11486089290253],[77.4556705564898,17.111458375383407],[77.45923077669185,17.109107650625408],[77.46366159016831,17.110004883839906],[77.46472701904474,17.10776805465774],[77.46289306078147,17.094093057922805],[77.46729111449615,17.086338382898965],[77.47659807586129,17.079439681924576],[77.48101826047133,17.07924320651978],[77.4819793140949,17.07585425958681],[77.47902156520786,17.072636132321517],[77.47996492741022,17.068811815030955],[77.48349151648463,17.058915707158373],[77.48987424959753,17.050545038438237],[77.48769436988131,17.049538727813502],[77.4881438401371,17.047180113711995],[77.49668885407151,17.042729622335965],[77.49498348425129,17.02709848581681],[77.4977365663739,17.021630145998547],[77.50065888301121,17.019294825724923],[77.5025688180862,17.014113904065457],[77.50223851204784,17.009378871200393],[77.49786476764304,17.009336689868995],[77.49191182449466,17.0036700668516],[77.48659619471783,17.00322118280957],[77.47955361040117,16.996027126779214],[77.48292836802288,16.985656652918372],[77.48137840495019,16.970440143999596],[77.4783350061924,16.968376906498328],[77.47218365035057,16.957152181850454],[77.46598300844067,16.958939658784388],[77.46526568212676,16.956623382590493],[77.46724343012426,16.94985908519252],[77.46487487185902,16.944194540706263],[77.468079634093,16.941554634484746],[77.4683227658196,16.93960275190593],[77.46423915209876,16.929863706023912],[77.4694482901919,16.928072302880164],[77.4694720596143,16.919207960243718],[77.4665534853585,16.91511757924152],[77.45923922355045,16.917322009167705],[77.4584617047226,16.914917632079856],[77.45405283349524,16.913908292955803],[77.45474031058893,16.9103768058118],[77.45795011057501,16.909517149545206],[77.45649581808009,16.899934997960084],[77.45837515563822,16.894101501558104],[77.45593117572007,16.885346518517878],[77.46039359282655,16.88476194084267],[77.46005124936332,16.874695909928665],[77.46409422689396,16.850604081932886],[77.45951907930419,16.832866516164973],[77.45711901083372,16.830191558160045],[77.46327417553235,16.82222205352131],[77.46247283697643,16.81375555133937],[77.46649500593183,16.808336702535886],[77.46573866398846,16.805933419800724],[77.47429725326346,16.802328684560916],[77.4747286907382,16.793111634659162],[77.47342278286023,16.78922219127356],[77.47653666253693,16.788380359644176],[77.4745332999774,16.781252681962947],[77.46723016380413,16.780465309486715],[77.44110762965244,16.786235745433746],[77.43953473528548,16.789143870631662],[77.43775622822808,16.78338026066009],[77.43791755756828,16.774723584386287],[77.44318468640459,16.76252316657888],[77.4333396252011,16.736700694258378],[77.42983618032169,16.73481296761193],[77.42699114844325,16.72892473741234],[77.42835567408845,16.72660947712277],[77.4303952028213,16.726387579830998],[77.4310004678968,16.72313751990099],[77.42610333715972,16.722886863121488],[77.42770822053393,16.716641728351416],[77.432840002003,16.717314598665915],[77.43849716406432,16.711692493459257],[77.44126293938189,16.713129174786502],[77.44201350425966,16.71704496180212],[77.44616671046553,16.716505591432107],[77.44721956023304,16.720741032416196],[77.45219499621513,16.719608243967084],[77.45782906079388,16.715955513283973],[77.46136552055663,16.719008347268684],[77.46299197337912,16.717982073961384],[77.4638458355314,16.71918805261001],[77.47408425192981,16.71657207169433],[77.47119290022036,16.71179272527027],[77.471423603755,16.706211198979897],[77.46992688203255,16.705612600668697],[77.46983607493372,16.687043677052873],[77.46393190401707,16.67631689098646],[77.44775121915079,16.679323240826232],[77.44661551057813,16.676083980645757],[77.44426217516371,16.6757006466689],[77.44258665636038,16.669859022338112],[77.43458282258742,16.670990247883935],[77.42820497900459,16.66821386375494],[77.41889546462741,16.668586128617854],[77.41904722870645,16.658451297895283],[77.42975651682396,16.656216932411606],[77.43863013538763,16.64534389690365],[77.43784698412294,16.643898323230562],[77.43437682990962,16.643370364831377],[77.4343780641948,16.64139625212857],[77.44161409711465,16.641117170555805],[77.44471601841826,16.639247060578125],[77.45652002138881,16.646824339878467],[77.45705552509598,16.64969314815076],[77.46146648400803,16.651132697475393],[77.46243790239335,16.654285461282758],[77.47294110800152,16.652816116237158],[77.47614459193285,16.650121234707292],[77.47349480618644,16.64544820607195],[77.4708928368643,16.64376864727366],[77.46828328396455,16.635966989858805],[77.4644106395882,16.632512270045407],[77.46395879149186,16.628251855158766],[77.45619605476135,16.623000337137487],[77.45368173226487,16.61676171743506],[77.45821992675714,16.610728287754284],[77.46783023751563,16.6097710165071],[77.46743014046449,16.59885169571969],[77.46394347701288,16.599221065809974],[77.46228598110912,16.59767629519548],[77.46486076202088,16.592431627303323],[77.46225722873181,16.585492816098522],[77.43974462934655,16.58716195691095],[77.43088657948508,16.57888155901298],[77.42858508674402,16.573666957735462],[77.42566863161396,16.572202117793132],[77.4237916144042,16.56889611373129],[77.41540071364331,16.567537831934388],[77.41181274268553,16.570872855422447],[77.40497290453523,16.57190852079714],[77.40004378209592,16.56754003959244],[77.39290897763053,16.56998952650212],[77.39265546497249,16.564007491742206],[77.39753744921558,16.564776705237218],[77.39999544824207,16.55574762054701],[77.40421132631208,16.554192877553724],[77.40378928431687,16.551201899083324],[77.4092465379898,16.550424021288965],[77.4104876602678,16.54901867740527],[77.41905095581657,16.54893985022237],[77.41821025757645,16.522978705829036],[77.41915033553813,16.52239411653881],[77.41691979802643,16.517315733380705],[77.40223934280375,16.52153119364335],[77.39501215469619,16.519702049306087],[77.39105883981068,16.516218813832314],[77.38147147651614,16.515726721559346],[77.37782293036214,16.513720677844322],[77.37275070629808,16.509672318043997],[77.37010465125505,16.50459806900865],[77.36904680326133,16.488687557996847],[77.35473570563909,16.48879490913384],[77.35146672464207,16.49107621525131],[77.34640918354134,16.490384232702098],[77.34623625425587,16.488125106595877],[77.34441946369603,16.486959128274673],[77.34312681584997,16.48794840485117],[77.32959831253693,16.485921572044305],[77.32360865793784,16.486859893773474],[77.32033378399257,16.492231159768025],[77.29874813009785,16.49617753950066],[77.29935548645132,16.487923021819505],[77.29403171075154,16.476686583581014],[77.2650285013675,16.472529668449233],[77.25076334089397,16.474947818075684],[77.2457448594401,16.477447011203974],[77.23969837651778,16.475963764706243],[77.23591259653445,16.472661392766984],[77.24444465316921,16.463330586687615],[77.2621097330756,16.451855008311618],[77.2689853062079,16.4304784937631],[77.27631499208937,16.424454856161532],[77.2882455613952,16.408718778218542],[77.29748659899491,16.406915251129764],[77.3043367749575,16.40174435321319],[77.31396651717391,16.398024457032854],[77.33345313613471,16.39538628689295],[77.34913035301348,16.38386301161978],[77.35587034611488,16.382652906571607],[77.37807894572653,16.38558186025248],[77.40173677582649,16.37132088239733],[77.41147082771873,16.367465516486078],[77.42098032684108,16.36624842296343],[77.42956441299876,16.369680297030506],[77.43714431472118,16.378624485922387],[77.44101565743868,16.38078308319638],[77.47470543694877,16.38178682984076],[77.48972198605519,16.38503250477535],[77.49538303512674,16.381175403603077],[77.49886446679014,16.381075690153956],[77.5143968339226,16.374992335539783],[77.52342919198348,16.375850988977934],[77.5314569748419,16.363781982261415],[77.53880224110367,16.358223254240816],[77.54607048221972,16.35694760983733],[77.55503056362947,16.348786316468686],[77.5727496439625,16.340952539787303],[77.59344147953944,16.343939002904957],[77.59541187392801,16.342217804757087],[77.59526529941637,16.33965317839271],[77.5880620963269,16.333392393167287],[77.59086101049529,16.32929486032645],[77.59002882738575,16.32551742670735],[77.59541082918732,16.31813997441898],[77.59204478791881,16.302185425179495],[77.59339770104238,16.29746398331467],[77.59774739036045,16.292824240428025],[77.58202816107251,16.291357501166896],[77.56890920957896,16.30362151697841],[77.56323484567831,16.301654448353663],[77.54510504930914,16.2917305264456],[77.54085055895325,16.285475534341177],[77.53692700345648,16.26682339121203],[77.53285280048658,16.271700340443072],[77.52936268570767,16.272814724856744],[77.52963262675559,16.275503254095668],[77.52189881308229,16.278047814171394],[77.51388568893266,16.277862942940853],[77.51045864397153,16.27460786332366],[77.50484452109379,16.275820141844523],[77.50517222740777,16.267619611897352],[77.50243397287724,16.263077190497846],[77.49725428874562,16.258616365127313],[77.49009577234997,16.255199968496616],[77.49300793622791,16.24409613992341],[77.49237244374143,16.229317138623387],[77.4950930688345,16.227137812315927],[77.50358580531095,16.23095647431902],[77.51319660744788,16.230867021561973],[77.5156864571411,16.22780942094581],[77.51502093846622,16.221976006327786],[77.51218280295423,16.220939739115597],[77.50281864854988,16.223681542948327],[77.50117833741749,16.2217377456381],[77.4982132385148,16.20958027247535],[77.49957476917686,16.20628868911703],[77.49951414996319,16.198580408123146],[77.49135295201367,16.184550780744345],[77.4861808568496,16.163004998641725],[77.49070449953258,16.15960487980468],[77.49162520083357,16.135038193420076],[77.48982141608242,16.11964067253974],[77.50025067507137,16.120612497292235],[77.50233749561234,16.1171933571649],[77.51084256505933,16.11229122324264],[77.51330345666105,16.10804531177579],[77.50877789876988,16.109214765458383],[77.50095991115785,16.106209973856863],[77.49368598101111,16.086365400649964],[77.5069030482966,16.07965748062088],[77.50263900256104,16.058834078607067],[77.49946316967248,16.061044139730924],[77.49653476066092,16.05506447492263],[77.49948424414904,16.053744798635016],[77.49683830049713,16.047143526863305],[77.49789709890844,16.044111139215275],[77.4953772724342,16.041722267842307],[77.49402889041295,16.037010377141602],[77.49560451476005,16.031004598797924],[77.49806136304464,16.030000154966263],[77.49748125528868,16.028690116489322],[77.502278982948,16.022492832620543],[77.50269711367847,16.01873373940735],[77.50436530222906,16.018228656883508],[77.504439495885,16.01135168896451],[77.51407893361826,16.008099248238334],[77.5095855956014,15.9804126059721],[77.51112349429982,15.979388671761019],[77.5106932803305,15.975176412592285],[77.51642774421863,15.967377241630578],[77.51983846858766,15.966930909284615],[77.5173912691075,15.945183312373558],[77.51346826787129,15.926810324278092],[77.5325022536082,15.924102109088865],[77.53837338448872,15.921307639449163],[77.54902167340519,15.919136135549484],[77.58085070868688,15.918492656408619],[77.59335313562111,15.911934417627124],[77.59849234256436,15.912425659186368],[77.61143453076276,15.917949499884404],[77.62509628567345,15.909057591738943],[77.63651625347012,15.896072623114165],[77.65924293935389,15.885514533313527],[77.66619549451278,15.885978860777524],[77.68254428201647,15.883334291290675],[77.6927890360292,15.883330460232742],[77.71277469607982,15.894532241498027],[77.72413746814233,15.89583076321888],[77.73137424486724,15.893713850784678],[77.73885195334456,15.888049114865083],[77.74409009803823,15.886118241493332],[77.76082839235421,15.88463522068267],[77.76691111151844,15.886161370966096],[77.77727167364266,15.880790400088676],[77.7823962820642,15.876188476061692],[77.79295877648111,15.876495897591779],[77.80355735352808,15.874152750496034],[77.8198735582381,15.877843222696713],[77.83876892224859,15.885111223825414],[77.84600609782548,15.882139992177368],[77.85855220354377,15.88372663737338],[77.86236316330452,15.886379589471433],[77.87008909785445,15.89726368006238],[77.87825636482198,15.90523552792039],[77.8880184791854,15.906102823236845],[77.93699635413925,15.8835168678138],[77.94908937657769,15.884775912171307],[77.97537301099922,15.88335926487885],[77.99700236433922,15.86633827233534],[78.00890159501809,15.861774776236759],[78.00883538469009,15.864804557919054],[78.01506423729313,15.87601386721167],[78.02554887741934,15.90238473421076],[78.03103810303156,15.90298277102167],[78.03192760224947,15.907367034162018],[78.04498000385178,15.904162945606219],[78.04685663837925,15.874922769731675],[78.0562438579268,15.87466699386986],[78.05586979764585,15.866349078661564],[78.07155761823827,15.861767189342805],[78.07244307773233,15.857009964844352],[78.07139339452623,15.850389594883968],[78.07515194836992,15.847203327422319],[78.08491565814126,15.845080756203483],[78.08359230318382,15.840945063468748],[78.09882691383389,15.836037339275594],[78.11126584425062,15.838383174367689],[78.12335473084548,15.836728396089672],[78.13015049046142,15.83811648902289],[78.13403647122651,15.83628294298982],[78.13431295829791,15.844038652359378],[78.13010712069783,15.850721910673764],[78.13557320391169,15.854727309273736],[78.15880361919272,15.853782971933414],[78.16683063668653,15.854649724077769],[78.17538044582793,15.858098701706663],[78.17671105378295,15.876786247685663],[78.1866414234974,15.884828732691048],[78.18997070480616,15.892292117073618],[78.17947251089895,15.901955994812084],[78.18446554757242,15.909840317645983],[78.20454908176816,15.918006542925434],[78.23217084663689,15.924017538810435],[78.24350547987144,15.929426435252797],[78.25165256259287,15.93524855910911],[78.2536592237661,15.942561119485983],[78.2521145535671,15.953852383237987],[78.25336593819891,15.966349439761839],[78.25129188451471,15.97194957914048],[78.25129721421929,15.976830069870521],[78.25985650777346,15.995587759289318],[78.25554083945181,16.012874478014595],[78.25752085839034,16.021376277887075],[78.26089843582375,16.0258401963458],[78.26701936842184,16.02717594483044],[78.2772234503118,16.024338971483377],[78.28408844578163,16.02146642447463],[78.29194890394366,16.015279808651478],[78.2994539822911,16.011567687707913],[78.3122960352848,16.011533656780447],[78.32196146936408,16.01713351151228],[78.32211009922106,16.028705104110117],[78.32659093268917,16.03676158629247],[78.33826837112099,16.04372472657338],[78.34776421405441,16.04749886664778],[78.36200148183839,16.045820544241867],[78.36545204289705,16.04680527487334],[78.38442448056229,16.064626850963602],[78.3976602876029,16.06615204715014],[78.40148509489377,16.072038314175355],[78.4079250506903,16.074834056267036],[78.42870292510848,16.073202295708136],[78.43454755928137,16.07122861761366],[78.44114714390726,16.07445459673059],[78.47480489578251,16.06852438135191],[78.49868238912227,16.059999672265462],[78.5229563934385,16.05371945694831],[78.54208312663523,16.044195663913122],[78.55179246587402,16.04282894955822],[78.5576644636288,16.044995257354405],[78.58696647962577,16.063463075632583],[78.59241746305803,16.06912988303355],[78.59628019272859,16.077993645107053],[78.60166354020646,16.083953663226858],[78.60999277791132,16.087153666838955],[78.62726926998195,16.087664695058436],[78.63806377408396,16.084489980478757],[78.65025169724399,16.07883469483395],[78.65045104688028,16.072020188615433],[78.66817368274518,16.054525884727973],[78.67265014411281,16.045898515635198],[78.68122241293295,16.03481876019009],[78.69939652319506,16.027176807365574],[78.70538453657217,16.026463353983004],[78.7236011066045,16.020149357765735],[78.73552554041696,16.008181935167837],[78.74093616793336,16.00869292426259],[78.75298534450113,16.01631005554831],[78.7661576137017,16.016472836554836],[78.78551032888794,16.02117637881067],[78.79151316356891,16.024115121743765],[78.79608720263762,16.028435360436017],[78.80123549603992,16.037794154305487],[78.81943311611136,16.048333440978354],[78.82768090087446,16.060850513990022],[78.83708666614106,16.070404916470917],[78.84031932196291,16.078169072191294],[78.84228910549712,16.085945896002126],[78.84233713122885,16.0963988985701],[78.83307042696484,16.137353649142845],[78.83387572978612,16.144506282854316],[78.8525059389725,16.14889028768898],[78.86465544657771,16.147048780541116],[78.8721771680124,16.143999518813377],[78.87653760836783,16.135561602977642],[78.87942182475899,16.11763671657297],[78.88701247392544,16.098512961905314],[78.88907640718963,16.0852176965981],[78.89243634799904,16.08450603247873],[78.89562720071916,16.08561125318983],[78.90613456732373,16.09486329583714],[78.9179572875915,16.100058510190046],[78.922054240396,16.104345200574553],[78.92164450891346,16.1228545255537],[78.92441143676953,16.13086718034008],[78.92430654947697,16.135809993141578],[78.92252728424148,16.140061845519103],[78.9150565565722,16.148540705206774],[78.91057005203966,16.16410214328826],[78.90472890602504,16.174614653135848],[78.90378242307538,16.179379169377526],[78.90542854900258,16.18362053815784],[78.91109039218487,16.188457464114556],[78.92020334439808,16.191990285271217],[78.93004044023995,16.198083552320444],[78.93764521541422,16.201228958430974],[78.94898257503567,16.203569349420686],[78.96029537202233,16.20910213966688],[78.96776442972349,16.21115549341419],[78.98119012893709,16.20988645286958],[78.9857429021881,16.21074676401737],[79.00953436297475,16.240246773700242],[79.02920512758567,16.241772983033503],[79.04804380700338,16.238705493677074],[79.05860770189385,16.235222755738235],[79.07213541289279,16.227105502888428],[79.08413082798572,16.230153157571806],[79.09445288562192,16.224319691642442],[79.10160231915174,16.222856428431776],[79.10866409507612,16.22851590938823],[79.11974909188312,16.231971662625913],[79.12379565369177,16.231052770194097],[79.14602797601344,16.214000330387712],[79.1569714118064,16.209321114836186],[79.1719291320415,16.210433238188422],[79.20630334694968,16.220940398107523],[79.21656932276271,16.227439033494125],[79.22065046342156,16.234112334355462],[79.2226788234005,16.241890341000218],[79.224610433925,16.27122811728241],[79.2304049690545,16.282524865984595],[79.23106221424563,16.3143604373371],[79.23383247664802,16.322025066938277],[79.23431861164214,16.333873290537536],[79.23361632312604,16.33603095343638],[79.21435310259999,16.34938823043813],[79.2102244599272,16.358263945224568],[79.21244868138416,16.373505733352495],[79.20846125207744,16.379324838058725],[79.2077462002978,16.384784028788687],[79.2115870910255,16.447420529308264],[79.21797542962581,16.4538499659571],[79.23178175670337,16.457641740377664],[79.23337918585734,16.459234252933935],[79.21708534560463,16.477588846997573],[79.21461868771712,16.483516772371996],[79.2148523871332,16.48794140358634],[79.22090631439426,16.5143725042737],[79.22857937230992,16.52480284563819],[79.24127588654952,16.529197802790698],[79.24479425424245,16.5318418241563],[79.25029534929449,16.54718365813538],[79.252239801236,16.559284133470417],[79.25685957353585,16.565851097165048],[79.26165932240454,16.56695555607656],[79.28138472794095,16.56063879074648],[79.29104348124945,16.561607724006816],[79.29553646263514,16.563044385162094],[79.30825715952217,16.574178702422135],[79.32645325874581,16.576491887391718],[79.34013420795915,16.58267276500199],[79.35371213568081,16.579300501563758],[79.37678933610357,16.582788990230505],[79.39683614537388,16.57981894336513],[79.41865977736043,16.580279827467706],[79.43307096796656,16.59078198464609],[79.43915665965608,16.612946194193782],[79.44719275013426,16.61974746408219],[79.45959761374043,16.62369366249082],[79.48335002655833,16.623130718337656],[79.49403177232924,16.63307704670338],[79.50386369746832,16.635954639465417],[79.51038993375293,16.635777229750957],[79.5294419621523,16.63067800078274],[79.54210914909282,16.632282418833988],[79.57564725525373,16.649820651254597],[79.58472770731827,16.659380003523086],[79.59219986869876,16.669917951911806],[79.59894088408296,16.673261749075408],[79.60633941954275,16.67134388922612],[79.6215070607884,16.66321260211238],[79.63310767350049,16.66046097404657],[79.64829527261679,16.67006510279378],[79.66220177352666,16.68668648942134],[79.68155817090721,16.694409698332542],[79.70693337052295,16.691308902710933],[79.71390492145683,16.68928169750377],[79.72291011805682,16.690314387595535],[79.72933698989121,16.695543284245677],[79.74462858696795,16.71911966158309],[79.77400614499214,16.730813448913054],[79.78584497923947,16.730179880428192],[79.79252612101166,16.725535164499338],[79.79888642139532,16.71071824573849],[79.81121061449235,16.695721512782136],[79.81727714332021,16.691906108020017],[79.82110257853344,16.69155210028875],[79.82817095258362,16.693822353912598],[79.85107724762528,16.705878350050668],[79.85886164812716,16.704694589857773],[79.87754293102901,16.697338074625407],[79.8855277753152,16.68738942130921],[79.89065993048344,16.65892169663739],[79.89373643036284,16.650152344655893],[79.91012022611146,16.633958400388067],[79.91755558351474,16.63232374166798],[79.93415894728177,16.631613576253102],[79.94976770355274,16.635942166849766],[79.9630835172475,16.64357419213043],[79.97939364036309,16.665381758810515],[79.99742412618095,16.70213421864299],[80.00759493087948,16.70887856914739],[80.02215776878369,16.710368218581618],[80.03005073877247,16.71444702511318],[80.03665530725155,16.72769879767839],[80.05496740413122,16.74468814794516],[80.05387368910311,16.765475227143124],[80.06646416351163,16.78645351185924],[80.07061371267598,16.801733873062126],[80.0698292202266,16.808375619838426],[80.07326567593866,16.81723272391444],[80.07107567939569,16.818132776414785],[80.07080574822922,16.821343030698753],[80.05950919368124,16.825227151639233],[80.0481886514202,16.833270968264035],[80.04641512013121,16.838725560428486],[80.04685568898081,16.853383182341364],[80.02901792862235,16.852064406624514],[80.01705136561968,16.854271475598456],[80.00396276011479,16.86183403454882],[80.00364272900661,16.863936109732137],[79.99877384938692,16.86525417250296],[80.0015714232689,16.867725421610682],[80.0050952608036,16.87649327114985],[80.0045905306831,16.881086648552998],[80.01242901335834,16.89272252761039],[80.01739568268155,16.9150147510181],[80.02456885868433,16.915098805385664],[80.02707146714955,16.917578147417952],[80.03146070928962,16.91691861364293],[80.03752153561204,16.91860059991377],[80.03956383385093,16.91711274541376],[80.04041648956579,16.9181230986949],[80.04455755773554,16.929301790916714],[80.05059695474688,16.936455267254864],[80.05190884899791,16.94214239166513],[80.04850615197424,16.946747651686636],[80.04823207508274,16.949469474607028],[80.05246042536216,16.95991100793699],[80.05744116320106,16.96407729449051],[80.05545623856274,16.971461635521834],[80.08339139688803,16.97021634927502],[80.09156715383331,16.968356099056876],[80.09412008592072,16.975618976122373],[80.09517149209556,16.99069188483279],[80.10255814284415,16.990999828489297],[80.10963807372045,16.98725536299374],[80.12040734145116,16.98793511593711],[80.12049016342542,16.99126342215994],[80.12786619069743,16.992307533783777],[80.14024726781322,16.99063325428679],[80.14638131491613,17.000297840597156],[80.15336709696076,17.00698372724565],[80.15729520152613,17.007455862202065],[80.16203209617271,17.004981020261226],[80.16777387504222,17.005632194044207],[80.17017539519016,17.01686834481362],[80.17773791271522,17.016644889827674],[80.18039411512765,17.019063591315362],[80.18729689014509,17.0199963851107],[80.1926443112998,17.026787030030825],[80.19201328254195,17.033577887147274],[80.19646240278558,17.04407494944679],[80.20410005270601,17.038329552472707],[80.19959155741535,17.026534701547355],[80.20206661275417,17.017067154398514],[80.21143918077945,17.010315237787932],[80.22287761344674,17.007879683434403],[80.22617117055331,17.01536351758966],[80.24008270831696,17.00516122364435],[80.24041099584093,17.00219062770307],[80.25608109896095,17.00114667249805],[80.25686872742901,16.99897247964046],[80.26488839670381,16.997281310965246],[80.26690444796671,17.001380488160244],[80.27048255003278,17.00402983683704],[80.282669732981,17.007714672855634],[80.29359949911024,16.996375328464904],[80.29437285245012,16.99387537585461],[80.29028372217516,16.98111906493321],[80.29352615705719,16.9767042251065],[80.30659725529553,16.973836094756756],[80.30502414712957,16.95374288478174],[80.3164830586904,16.948479062076125],[80.3131018888942,16.94056895043711],[80.31388014613724,16.924872526433088],[80.31159540967116,16.916703384039465],[80.31562242234257,16.915544797404593],[80.32381386926261,16.90647133312325],[80.32498159738529,16.900378769623583],[80.32170760378901,16.879674137135762],[80.34401610234843,16.874414679101417],[80.34090359799244,16.8597453318909],[80.34939128324204,16.859165683636707],[80.37407384314618,16.852439639097167],[80.37340112896588,16.839541981716838],[80.37808160941262,16.841665715888524],[80.37962221024341,16.84112388848442],[80.37370417472864,16.828277182390668],[80.3804396133716,16.81749544794234],[80.38317322540873,16.81585086073322],[80.38602306417225,16.816295629494647],[80.38734086215133,16.819005234258952],[80.38607397080109,16.824947606539247],[80.39084450106687,16.824782894818576],[80.39237339774783,16.8279763407813],[80.39668870045517,16.8275489056305],[80.39971512913893,16.833591407994238],[80.40422375827856,16.832092146996903],[80.40780373962022,16.84827444900645],[80.38348135114444,16.85007096529185],[80.37858234292838,16.851890588924277],[80.382788404209,16.85494571812465],[80.37884218152267,16.86160511078581],[80.38032221614036,16.863699439309602],[80.38294759825375,16.863587889059502],[80.38316233782747,16.865359966225554],[80.38556333785085,16.86319524682026],[80.41206884716442,16.852988230297697],[80.41213036379506,16.851948194023567],[80.42771708798537,16.849842430510666],[80.42795101287861,16.846928333361962],[80.42971402938727,16.84677263473698],[80.4285952073453,16.83816225794304],[80.43440823698984,16.83747220226852],[80.43820800464047,16.834294404334162],[80.44088447574069,16.834317753582198],[80.44142122181792,16.830823544768045],[80.450075496942,16.827274858404436],[80.45327871497203,16.823056471665222],[80.4601673055911,16.820086909935135],[80.46424754074815,16.820024393803244],[80.46614862292606,16.81639680712223],[80.46384045210915,16.805411662067932],[80.4644623180511,16.795495498552807],[80.48630296323083,16.791157868259642],[80.49405394820074,16.783737446835687],[80.50440015524674,16.778736086910655],[80.52619967465439,16.774633133944608],[80.55159040434476,16.77505844777831],[80.5702470832893,16.76805746919483],[80.57687857517577,16.777194588240395],[80.58496002967748,16.783599468361135],[80.58717053835163,16.782296234188333],[80.58879983164704,16.785363732049998],[80.59685811051274,16.790244411667967],[80.59711329403719,16.79225430827649],[80.60986953366675,16.794233532320423],[80.61054949365813,16.79299864446439],[80.6129722913019,16.7935897904827],[80.5944049039983,16.802855435110914],[80.5845536884368,16.81299682247392],[80.57741630490821,16.8233826958138],[80.56553782261747,16.826891244072986],[80.56285387663577,16.832888595626727],[80.57014718613813,16.84856963126985],[80.57119130428107,16.861167702586567],[80.56831215618476,16.8694356659488],[80.577564945545,16.879001971124296],[80.58508573273181,16.881879759314828],[80.59286880552368,16.88270407878935],[80.59591808016177,16.884669858994037],[80.59482586442189,16.89893803484541],[80.58768278467608,16.902341690030433],[80.58712571601218,16.904225350902728],[80.59234582522988,16.90749259963183],[80.60194711241137,16.918637321008365],[80.59822836291792,16.921108858446537],[80.59691904952668,16.923904059254326],[80.59171805196665,16.923038024257142],[80.59040925061512,16.927140146195853],[80.58406297293305,16.928852083682944],[80.58132658689833,16.932571053070216],[80.58098416887498,16.93620174564165],[80.57547865501002,16.93818881334139],[80.573492505968,16.94136865547702],[80.56702823098009,16.94321125253711],[80.54577604609186,16.95697295830877],[80.53470228451414,16.96146084722038],[80.52610975149784,16.94792777025976],[80.50546581678681,16.956584110027237],[80.50170705453398,16.957425234510946],[80.49923557359169,16.956380590287363],[80.4955991708637,16.95004076707757],[80.49626171431832,16.946459402976362],[80.49399267052196,16.937840470235287],[80.49345280549409,16.927474720976292],[80.4820362845332,16.93217249239307],[80.47302444938327,16.938529575525124],[80.46744177203206,16.945492848015203],[80.44967480610448,16.954809282342403],[80.41940604206334,16.962613785187735],[80.40765886202612,16.96401061153702],[80.3713633977619,16.97585232185577],[80.36341256189576,16.976109595257967],[80.3666230338217,16.981479169444288],[80.37577222048021,16.988742422665947],[80.38110962362286,16.9980380262152],[80.38692847345217,17.00462969562585],[80.38786102083682,17.009310354020702],[80.40704226021172,17.015840323226566],[80.40740549309855,17.025656953230985],[80.40004699016109,17.030757387011775],[80.40074559109294,17.032233551272334],[80.39576602735211,17.03577179097403],[80.39593987381745,17.046374333491766],[80.39825592645266,17.0491339074035],[80.39850233253847,17.052648551418777],[80.39382395414948,17.05481208538786],[80.39166734259578,17.061340471868697],[80.38574071020372,17.06797049857315],[80.39103069667243,17.07471096932594],[80.39688699996087,17.077978792697927],[80.40064147455487,17.082005192606868],[80.40382453169494,17.082006650656375],[80.40444160242991,17.086804272396915],[80.4078591216558,17.087895564532506],[80.40903758734103,17.09154066365687],[80.41897192491409,17.092345142075267],[80.41779648475472,17.08792480016059],[80.4185609869941,17.07847232154075],[80.41705375677948,17.07365587170614],[80.43172857058218,17.055568840232983],[80.43863546527348,17.03762781791293],[80.4533065852037,17.034805319209106],[80.46486602812632,17.03006870804559],[80.47138251409686,17.050414222949723],[80.48600222074842,17.05212970229126],[80.49093822967268,17.051013129168627],[80.49767923068384,17.062698129210276],[80.50540331919588,17.068508862538234],[80.51008675060835,17.086949265532986],[80.50404005029374,17.092686984740432],[80.50550245727062,17.09828493771612],[80.51288975300959,17.109290512968517],[80.51408582477609,17.122097767223668],[80.52759134289593,17.11895840236002],[80.54234912060667,17.12464917250451],[80.5488261822143,17.13083391316244],[80.55429636354249,17.133645102525257],[80.55732934813122,17.13217034530362],[80.56318931744433,17.133149857938136],[80.58002435043493,17.153117438131826],[80.60054421163551,17.14232888709886],[80.60640520772301,17.135226737704066],[80.61699406320196,17.13162647118281],[80.61825701454136,17.128467463953385],[80.62790764438473,17.12994507146989],[80.63630094005418,17.128574479341232],[80.64548601440832,17.123562990920338],[80.6420472042119,17.11595134411725],[80.64924347590065,17.11141060647868],[80.65581596554091,17.109886665608443],[80.66560185381832,17.105167783652316],[80.67055901716923,17.10123456642894],[80.66805701147359,17.09497387785196],[80.65889521875665,17.091607609421743],[80.65709758836353,17.08960576464367],[80.64991989473316,17.071415144607318],[80.65381527906263,17.06865858184801],[80.66640912754333,17.067527808472775],[80.67107030319463,17.07008358341996],[80.67346973026798,17.066685615446772],[80.67640692570131,17.070798218811927],[80.67967092194681,17.07207523167848],[80.69496669439302,17.074182782801888],[80.69729658288021,17.076835058625942],[80.69634220284088,17.080105093703988],[80.69898596717995,17.081649106183974],[80.699453656168,17.083841765196016],[80.70536032529945,17.080824665962485],[80.7105847670918,17.081932035946856],[80.73680450075389,17.077735678575547],[80.73888487049281,17.07963699263481],[80.74465017803622,17.07698530880595],[80.74647066426515,17.077819766487885],[80.75089747574704,17.072668885121494],[80.76498370618904,17.066660593844947],[80.79046377513104,17.063512165655148],[80.79873891718779,17.06128506928935],[80.80406877538039,17.057551660329555],[80.810416251415,17.055372084628953],[80.82882517769914,17.05281697654028],[80.84079223208026,17.0467571072275],[80.8453119176844,17.040016923406696],[80.85584338698636,17.046565291032916],[80.85911202392863,17.052659810568013],[80.86551137767096,17.0586087125774],[80.87149344150589,17.069884844820823],[80.87716294821584,17.07048428111484],[80.87611017839839,17.074927621673822],[80.86871154322561,17.078046903443187],[80.8675830795657,17.080499635366476],[80.87520957330864,17.095501952236418],[80.87389376958946,17.098589301463836],[80.87643217322379,17.105638775810156],[80.87348687768153,17.114150712308277],[80.86833512756199,17.120322974237606],[80.86774261766521,17.123179996262525],[80.86930112730951,17.12673590301178],[80.87364082287009,17.128821858079885],[80.87825224892264,17.13518932942067],[80.87770188977561,17.14986315554893],[80.87943982981308,17.160879326866702],[80.89240560956752,17.15942134650838],[80.90702681011737,17.153900078929283],[80.91659319056353,17.15374152016506],[80.92399588432478,17.157896082612453],[80.9230926983752,17.161340130369137],[80.92361061127248,17.165982792305943],[80.92519964297519,17.167797320468548],[80.92643603382658,17.183529862907395],[80.92267158433967,17.18863796642228],[80.91844654075881,17.189787925399227],[80.92104819926385,17.200325246467834],[80.91885737537253,17.203255147156053],[80.9167615061017,17.21100951031335],[80.91675817425029,17.216141633056363],[80.91887846332382,17.219786557153427],[80.94128245010305,17.219343652133244],[80.9602877400565,17.204115133351458],[80.97628834235272,17.200322564781423],[80.98246943063384,17.196243615567585],[80.99435933769831,17.191373724777787],[80.99844983341255,17.19051409389376],[81.00861932926574,17.191910021990324],[81.01211592898267,17.194189694325708],[81.01542840910072,17.194453005852626],[81.0312711297908,17.190380824562045],[81.03286089721374,17.192018258883007],[81.03686562627618,17.19253284324153],[81.04356826563148,17.20237787250791],[81.04949511631413,17.2071195796884],[81.05559471661917,17.219610901493972],[81.05460902220734,17.224925154611526],[81.07960565289773,17.215328435846175],[81.0903691516477,17.219648904532608],[81.10943154930041,17.223520233742345],[81.12760053736878,17.22436295227412],[81.1594709167131,17.23085061382367],[81.17397560038079,17.23038939985671],[81.17300740065913,17.232079029495548],[81.17501470861934,17.23702400101625],[81.18337813620394,17.247071773533712],[81.18608904601719,17.24854620033222],[81.1875928302944,17.2547044108641],[81.1839351509689,17.25840125141722],[81.1781743583581,17.26909519433781],[81.1795666311658,17.278423436199773],[81.17665711462301,17.287720100841902],[81.18136538445304,17.304502787030323],[81.18667039614321,17.31400374474107],[81.19040843516076,17.324865984265447],[81.21031145649343,17.326103032130984],[81.22204473420331,17.321542160615373],[81.23356425150314,17.3204132624784],[81.23913018874902,17.32089599246801],[81.23913072683987,17.323545645529514],[81.244627471351,17.323142204704236],[81.24566864481643,17.32584246060331],[81.26825162181433,17.320078893919085],[81.27402587388303,17.31724568432279],[81.27850835665802,17.323464619211006],[81.28851621594718,17.32812582894876],[81.29740344308905,17.338392859331798],[81.30110382742484,17.340716630681854],[81.30529645709531,17.345959374532974],[81.31198645086633,17.36074647811682],[81.31631034056946,17.364537153831154],[81.31646615694876,17.369055437466052],[81.32263379475512,17.374597553268426],[81.31858972397478,17.398476200698905],[81.3123786678958,17.408776550923868],[81.30050857317488,17.41275930293509],[81.26853915726541,17.418311087242575],[81.25973821240825,17.422271382656703],[81.24550427557733,17.433077295266298],[81.24268880994984,17.432115101109872],[81.23632480940553,17.435627400546558],[81.2214225529527,17.439489491044665],[81.21904498997505,17.442327759649682],[81.21175644783193,17.4417914240164],[81.20526110011835,17.449639022329738],[81.20229473638773,17.440715087695818],[81.20269462772464,17.43400434962465],[81.19329480481365,17.4356762081945],[81.18298195131585,17.44029831015224],[81.17232492448662,17.449093972168342],[81.17554504611533,17.463686986655976],[81.14825175831507,17.463703550716676],[81.15967867907203,17.48442034676948],[81.14214347130122,17.488637538212508],[81.14486906677274,17.495126008145217],[81.14050453459123,17.504714531257864],[81.13847379946668,17.516285324055147],[81.12727783287434,17.52647246080858],[81.1244950156175,17.527108994706193],[81.12236560505058,17.52577696974249],[81.10110426902455,17.505651602541665],[81.09756173126061,17.504305220028183],[81.09134664444096,17.505701390344797],[81.08006638892546,17.51509512921461],[81.04720423716812,17.51956243410287],[81.01989515069695,17.520082552115067],[81.01482580393676,17.522174346808637],[81.01367624154578,17.536666669575105],[81.00842531202898,17.54705019328753],[81.00280764709407,17.550657523518034],[80.9983993076694,17.564732226075833],[80.98880395655534,17.572466864056018],[80.98282933975409,17.58278327568164],[80.97672680285638,17.587236399062466],[80.96939492239069,17.598102459228816],[80.9637664552145,17.60003598232201],[80.9488603467857,17.601763001791237],[80.93404174324876,17.600550226437502],[80.92390465591608,17.60169170293703],[80.91775402142143,17.599967756780668],[80.8930641474343,17.60071056420756],[80.8815537004239,17.59631001299005],[80.8554022872324,17.60191539242292],[80.85101029445097,17.613219985489415],[80.84964985075041,17.62225456972568],[80.85420125676555,17.625972159555882],[80.85514997562194,17.62920291287512],[80.86149566850074,17.63425998526619],[80.86834824655841,17.63539660161689],[80.87487934362704,17.633531885167073],[80.88459156645787,17.633501108130982],[80.88852502767729,17.63183493856718],[80.89245366224868,17.637243634234636],[80.89747692094322,17.638224380825008],[80.89998513399746,17.640177605429038],[80.91105521877074,17.638063163805345],[80.91244522782395,17.657851924043037],[80.91010477245406,17.661558855256164],[80.90053858424739,17.66450620096326],[80.89791624562619,17.668909674697126],[80.89950895413335,17.67297974348297],[80.90495432219676,17.677366128017287],[80.89454672967413,17.681682002761004],[80.89154883058548,17.680001339641866],[80.88576513991809,17.681264020733646],[80.89116932292067,17.690706696920532],[80.89474983426831,17.702955242434218],[80.89099358550163,17.713729982722498],[80.89076456091827,17.7219260791137],[80.8855466175387,17.735722858532565],[80.90237064167547,17.746247212512117],[80.90603306769896,17.747085604627735],[80.91300310137834,17.745969300177244],[80.91458466538609,17.74657200613063],[80.91273229076118,17.749522907153896],[80.91443728418731,17.75050056056562],[80.91499899893782,17.74840196622572],[80.91756950476713,17.74815290331704],[80.91945961402385,17.75624526382022],[80.92338227030703,17.757331538855333],[80.92785024529016,17.76182043316746],[80.9463120625816,17.76023240804723],[80.95562134249847,17.772951180135273],[80.95532336862378,17.774665077202837],[80.96342618236801,17.777436761933554],[80.96586639565021,17.77982721756997],[80.9721655216613,17.7780008526694],[80.97342106549287,17.780167850525853],[80.9768750024204,17.776363066594502],[80.98422678146795,17.755702189704913],[80.9913170959706,17.749963267092088],[81.01591478125003,17.74507563867129],[81.02763122363316,17.74817512307824],[81.0405630317985,17.747655155474447],[81.04415908489888,17.740463352833615],[81.0505100913126,17.734052323012687],[81.05816345905558,17.733132868904267],[81.0698310492569,17.740759683571124],[81.0825778853221,17.753147738888604],[81.095647694478,17.76225169546998],[81.10426012248291,17.77205375684865],[81.1038729342224,17.773245402302074],[81.09599553203746,17.774540557659552],[81.0897789288616,17.79108682375049],[81.08558432199924,17.798071960732894],[81.07326037953214,17.78650392459428],[81.04661453001502,17.78235666295051],[81.0389792839863,17.784201076493265],[81.0317623205033,17.788521034272684],[81.01766557168766,17.79142748997606],[81.0082439412748,17.7982752842528],[81.00345702753485,17.819568322748154],[81.00323257268137,17.830663349321387],[80.99644108096132,17.849063018588808],[80.99655072393503,17.8718667462206],[80.99417026928047,17.880686457668777],[80.99929641471945,17.902723279374996],[80.99839734215554,17.916773519974935],[80.98802310407946,17.943518374464993],[80.97962469699605,18.00665096946562],[80.97325740771947,18.02701922587343],[80.96953615282469,18.035125385746014],[80.96425994471582,18.04152009646498],[80.96965624679838,18.047765329818294],[80.96244474866559,18.06636269165067],[80.95343547820582,18.082006052379768],[80.94925711827366,18.08624055010885],[80.95000082092099,18.091259172376887],[80.9517778969621,18.093499148271086],[80.95551320330459,18.132433777356525],[80.9787387110892,18.154178956796187],[80.97902736943439,18.178789895359547],[80.95765553973011,18.176925277874037],[80.95162090828137,18.16703447907572],[80.94235736518885,18.163762718044588],[80.94163764576301,18.15999543055568],[80.93990295133865,18.158803412420987],[80.91416962486018,18.14454851497843],[80.89108238935736,18.139356505005725],[80.86666862514919,18.140300852844714],[80.86545402832488,18.14483182605109],[80.86016140709745,18.151241699588432],[80.8604012968042,18.16477147154536],[80.85708249613985,18.177799492524937],[80.85854178147112,18.18982955138831],[80.85423977742325,18.198868488390584],[80.85291071816376,18.2053779653099],[80.85521246153479,18.20753305864634],[80.86390503992429,18.206029532039814],[80.87096679249248,18.2081712105793],[80.87260684221512,18.213953504688135],[80.86593615862947,18.23350472028107],[80.86051831404804,18.23536997025357],[80.84342825114491,18.235814981432217],[80.83672317915185,18.242296166171723],[80.82359043941706,18.239451551685658],[80.82259649936924,18.227484626044607],[80.82406680972402,18.19441290483127],[80.8174693918346,18.192482007776793],[80.8132565356972,18.183563285095527],[80.79911174587848,18.171546130274944],[80.77544102764912,18.170112107942796],[80.74842647809838,18.172959988680216],[80.7449377988273,18.17033473842199],[80.73682889540373,18.177221974572415],[80.73718580325264,18.22211449638174],[80.74735910526768,18.227028887073637],[80.74843016388597,18.23094728155848],[80.77677353464269,18.24622238980525],[80.79173518590545,18.25093316829667],[80.794148588968,18.255798870200724],[80.79413750824897,18.259335998959493],[80.7898041547943,18.264099966708102],[80.7803368693038,18.26635410933945],[80.77546934793678,18.278259499847444],[80.76928806921285,18.28745798098113],[80.76568852615759,18.28881570909308],[80.76192931834034,18.288248755706206],[80.75950702824471,18.289882587678466],[80.75683173932741,18.294877150167782],[80.75872520199506,18.29931444945879],[80.75765457816135,18.301997041663373],[80.74898114287058,18.3082932229765],[80.7476300739883,18.33000385015133],[80.74245774436392,18.34058667850197],[80.73152504254028,18.354791112772002],[80.72685959539983,18.369330448405144],[80.73021329022309,18.375928503102156],[80.72942489998366,18.378815516447524],[80.72271427011391,18.384623747402525],[80.71959019366045,18.39112579469797],[80.73195566703973,18.401016809123313],[80.73483554187314,18.412859651796282],[80.72288763238733,18.41515186801931],[80.7209262445078,18.41119117859881],[80.71828958763928,18.409733305533763],[80.69895378503486,18.421432511503355],[80.6961678084032,18.425160281587836],[80.69830757744366,18.437663525156427],[80.70540806087534,18.439684463843694],[80.70161903797383,18.44458276829275],[80.69488849245427,18.444747905769344],[80.68800256713662,18.447397362912902],[80.68614155431199,18.458244048941282],[80.67868684899412,18.460762398339316],[80.67355724324464,18.46644196165775],[80.6552816224571,18.475900263601158],[80.65138699720404,18.485775721624975],[80.64564965601204,18.491698524993048],[80.6370479871293,18.504770032167748],[80.6368444854798,18.50702865404725],[80.64090748286485,18.511337853761866],[80.63764109530408,18.522554481043922],[80.63132884041507,18.521868175573655],[80.6228099423026,18.52859891543475],[80.618420097393,18.527595921733614],[80.61066212442844,18.542452731106923],[80.59979645039977,18.553067057075353],[80.5908819432193,18.55798034899951],[80.57150351645302,18.564647677613888],[80.56748465868775,18.57129591389872],[80.55640684840301,18.579784513198234],[80.543135459094,18.58660917911728],[80.53450351518956,18.588371392789632],[80.53532662711132,18.590589750543746],[80.53026693724043,18.599730128238097],[80.52775417871084,18.603107671144958],[80.51960233222347,18.608248318821847],[80.5187883831176,18.61438686336231],[80.51472952696597,18.619375963648004],[80.5015846995007,18.6215585438139],[80.48697786301219,18.631945370565706],[80.47763086193822,18.629639101477856],[80.47598080677994,18.626749381865952],[80.46400572954502,18.624850594472427],[80.45459628567733,18.630266972086115],[80.42887291432886,18.617368398096403],[80.42610155328684,18.613787400749302],[80.42089203520635,18.616029292225136],[80.41849022041099,18.611309896712836],[80.40763491294065,18.61070696000138],[80.39435027168456,18.605844179757867],[80.38950619993975,18.598152940126287],[80.38694773782342,18.597570681756576],[80.37676926690226,18.609820215927158],[80.37365665474846,18.611568401977742],[80.36465390156604,18.607972686913957],[80.36144600241511,18.60414234927128],[80.36064020462211,18.60005927258172],[80.3549452917593,18.595998184520607],[80.3506056231482,18.59482325605899],[80.34583029677711,18.595472781560613],[80.33270046488886,18.614295302711085],[80.32951429239137,18.629118558329488],[80.3259874347207,18.636285770720207],[80.32162253063665,18.63847047796731],[80.31717146284547,18.643053595604407],[80.30492722160534,18.6822795099152],[80.30029248337286,18.69119442592992],[80.28498388567937,18.712336621629497],[80.28210242711611,18.718415467324572],[80.27844499213239,18.72164320735568],[80.27289101775115,18.72299154160009],[80.27090730494015,18.724412707240553],[80.26483079942273,18.721521232023107],[80.26349076005553,18.71839407904049],[80.2484819984443,18.706366404809945],[80.23864602459822,18.70576282643629],[80.23462543128784,18.702663401597725],[80.2304027862088,18.70183597910928],[80.22628272873517,18.705625262011928],[80.21933913696618,18.707947197620808],[80.21277656293003,18.70574750576946],[80.20043330668436,18.692589449189498],[80.1993764225829,18.683236922948833],[80.19657410020632,18.680825162658337],[80.19047430406854,18.680491145425076],[80.17870975241036,18.6832971219514],[80.17416531552519,18.688209664938288],[80.16862815670774,18.699738602831292],[80.15771341310499,18.701008842728825],[80.1558463339572,18.70063994391614],[80.15292508272182,18.695900966848782],[80.14846943621767,18.693115409497747],[80.14002240512454,18.69302907431366],[80.12856154152459,18.6874620519697],[80.12438291209781,18.68138780895446],[80.11812773436536,18.680545488881688],[80.11225500178868,18.682906599465117],[80.10416030701799,18.691596792205292],[80.09904901073067,18.694510051036584],[80.0885127237638,18.70730577367738],[80.08207970116464,18.707275205795433],[80.07459185699597,18.7105445092842],[80.06926225661984,18.719600139556302],[80.06462686531215,18.72329037364514],[80.05694623459864,18.723346866034422],[80.0528033464421,18.72508639291168],[80.04142048445654,18.743018399990632],[80.03868951975457,18.753000035441133],[80.03455932479297,18.755014768450657],[80.02499056650626,18.754966603133262],[80.02308830753536,18.757225462103424],[80.02323849507108,18.761729381324674],[80.01953926686707,18.765777527043007],[80.0185508972723,18.770409833029245],[80.00099979381255,18.776092816989216],[79.99958922322084,18.775086729287434],[79.99810148554955,18.775948258256673],[79.99583397427908,18.770847971411328],[79.99305770574068,18.769960570982143],[79.96416123956861,18.773851130155613],[79.95915862146434,18.77732997822239],[79.94949453395968,18.78917527744632],[79.92900250256658,18.8026579092035],[79.92053112802759,18.811108264105734],[79.91403806652639,18.82383186836146],[79.91578976785571,18.82993771011415],[79.92826057948186,18.84093803933287],[79.94138540955058,18.84606303087253],[79.94764934585707,18.85020761753179],[79.9585199004327,18.85944943417101],[79.96161194475977,18.866652142803474],[79.9586805425617,18.88863572558338],[79.95362063170525,18.904529738063033],[79.95742263885587,18.92281726583594],[79.95705322466158,18.94290035082744],[79.9416297584944,18.99211374288162],[79.94096538337486,19.00024994006041],[79.9424032789209,19.000681586364298],[79.94256560089948,19.007004878657884],[79.94026982952846,19.032588139517326],[79.93707317997982,19.04271861381425],[79.93191897027306,19.04810626685288],[79.9279261205319,19.049342095781657],[79.92063496518959,19.049738008449072],[79.89922634857612,19.040267427704936],[79.87704391509206,19.03882207967382],[79.87111009977102,19.04104028515431],[79.86860175196946,19.044261992609734],[79.86600478895842,19.054226025347536],[79.86338776477045,19.068717910719926],[79.86340561249848,19.07784641873318],[79.85897227385777,19.09278560314076],[79.85843685099898,19.102439061927505],[79.86146864352332,19.112283713148603],[79.87375867997832,19.12407470834413],[79.9253301088367,19.151616167205916],[79.94174867567506,19.16430343589565],[79.9459013671463,19.169516223475846],[79.94650560185418,19.174272710601205],[79.9448303902747,19.180102452781245],[79.92545976807156,19.210662031928376],[79.92451201220916,19.225740892326677],[79.9308511590645,19.25082610892065],[79.93636130374475,19.26414990161058],[79.95057218531385,19.28906722589492],[79.95482413792905,19.293787242186994],[79.96227506223791,19.297377505002803],[79.96587816351999,19.303061868122004],[79.96557470632882,19.31308881147414],[79.9590908354913,19.330883844759267],[79.95908619838781,19.335963086335962],[79.9679711617752,19.35665403583048],[79.96758052847558,19.360341540417135],[79.9702388428273,19.371052516775535],[79.96953430492972,19.374712106320494],[79.97142189261544,19.376834197252062],[79.971832387666,19.381580068802577],[79.97404329159885,19.38552673279472],[79.97967709566615,19.388682610852964],[79.97698652730415,19.394969448809924],[79.97794248837837,19.40038016904249],[79.97470590781703,19.40438115950138],[79.97469750317924,19.41101745543089],[79.97239939618846,19.416235011397937],[79.9524834445056,19.440969247063975],[79.94761421723787,19.44970098730928],[79.94822089177008,19.46062250111494],[79.9448249779251,19.469836369147387],[79.93241646087066,19.47656616347931],[79.91450911072204,19.496059708151424],[79.90197022835693,19.500922906547803],[79.88085968533116,19.50358964583449],[79.87095961399461,19.509077008142587],[79.86459008970965,19.510534366045746],[79.85532471495225,19.521046901408173],[79.84817936785869,19.52655492720472],[79.84564456826527,19.53281702263214],[79.83287478832942,19.538573581180376],[79.82842531235292,19.543425725269515],[79.81633329423099,19.574049536898567],[79.79858992345264,19.581986106274474],[79.77861325643637,19.599685641478874],[79.75345519399787,19.60755268557709],[79.74308701865162,19.60864488485602],[79.73525220918754,19.604979268902497],[79.71798300335215,19.589471825495878],[79.70900709452542,19.584496600854127],[79.69642099491233,19.583213235422402],[79.68896044066368,19.58388489118826],[79.67758993949644,19.580099918341386],[79.65829517912076,19.57973190642784],[79.6294384220775,19.57398864425954],[79.6231200909839,19.56958467334812],[79.61414617282384,19.559694446991887],[79.61166860938876,19.547533085605707],[79.6060511995754,19.532844312494095],[79.6029743637261,19.514568054585382],[79.600469926291,19.50952445973009],[79.59616261589471,19.507294542598792],[79.58405284257118,19.509148210640042],[79.56900892898454,19.518283253010885],[79.55294137255528,19.52418516388396],[79.5483962700185,19.53164020242358],[79.54538875087142,19.55071150121859],[79.54249051986353,19.55424650832182],[79.53993624748975,19.554677500674686],[79.52922657938485,19.55106357504679],[79.51862008279035,19.5431252649894],[79.52081837707158,19.53490194244257],[79.51859792584388,19.52019895773472],[79.51483599792799,19.519459543962334],[79.50226499540156,19.51165115198513],[79.50077303025859,19.507405581262947],[79.49839678690606,19.505710802116734],[79.4826416986686,19.506295954118556],[79.47143471244263,19.50020733401787],[79.46897137562674,19.509589334349677],[79.45677134407498,19.519140972446632],[79.4532811897702,19.520117080880194],[79.44605549376435,19.52693855495673],[79.44221720096442,19.527994039008014],[79.43334421391644,19.537271513829502],[79.42257008091012,19.53805750842512],[79.42300903369055,19.530173913224566],[79.42048320377526,19.529773018450296],[79.40532903456393,19.535682026589303],[79.40172340991421,19.538462263392656],[79.39622185402642,19.548071261634053],[79.39175671053304,19.552887216227944],[79.38733221131473,19.554728559170734],[79.38568778859329,19.55834470258652],[79.37681357983648,19.55889890282463],[79.3727634418347,19.56100375949338],[79.36948092592132,19.57271333248023],[79.367089012357,19.572958066942427],[79.36574060518294,19.57634521653074],[79.35739949354665,19.577592109361973],[79.35156600207654,19.575958729482696],[79.33986906930475,19.576171430780256],[79.33482458791161,19.574808137249136],[79.32619404627732,19.577442440107895],[79.31845512478333,19.576736568529974],[79.31854815611077,19.567714116079443],[79.31394163306308,19.566433987494122],[79.30986282083742,19.571525625511434],[79.31027563713464,19.577973477815064],[79.30685155122404,19.59656895313506],[79.28437373011501,19.595536044071657],[79.27296058681955,19.598852075514706],[79.25110922653518,19.61588258822055],[79.24356864676771,19.616700934593812],[79.23865490168944,19.60618267297455],[79.24442447443384,19.594878209459374],[79.25313582222287,19.593299394912343],[79.2510372598028,19.577511903607043],[79.24623004862904,19.56753116851716],[79.23713564123653,19.55715050468535],[79.24003494662952,19.535252557345654],[79.23374019810879,19.520021552045137],[79.22117481544281,19.52100366150327],[79.21404140875595,19.511206303205096],[79.20747706324205,19.5061429130054],[79.20739563724975,19.497646871890073],[79.20386345616268,19.494095547816414],[79.20686501947938,19.48583015614283],[79.21076195070778,19.481750107463977],[79.2157792832164,19.480953986436756],[79.22319933242895,19.47235788862758],[79.22360154501256,19.469087369831705],[79.21569685919583,19.464647967512775],[79.20821761370102,19.46498242623568],[79.19032447939178,19.458996807751564],[79.18008668552585,19.461895611132054],[79.17413181459287,19.468296458877113],[79.16784511677372,19.47237017679003],[79.16136710474849,19.488274244727503],[79.15756154296429,19.48929780611146],[79.14299816696926,19.500546179337945],[79.13861909375818,19.500495921710517],[79.13567542326828,19.50616509041921],[79.13312157759425,19.507837177881278],[79.12094318555938,19.512011831574668],[79.1143562725689,19.51976984442397],[79.10540148852438,19.522388848264338],[79.10111696030205,19.529619628738324],[79.09804768467416,19.532037229429893],[79.0769153188752,19.532408795073785],[79.06770713266543,19.535665550860152],[79.06534956708434,19.539635672109345],[79.04602505540474,19.54833538785106],[79.0394643750172,19.54761389208005],[79.02403875558826,19.541785197948222],[79.00688180951897,19.542032650270777],[78.99804545217498,19.540093407982642],[78.99776171390259,19.54907413780072],[78.98126609047749,19.560848118223177],[78.97986727254464,19.55766498170248],[78.97681593447635,19.55694379345279],[78.97423736447071,19.549391927336238],[78.96927839011622,19.55027307593207],[78.95210998513716,19.548873020268964],[78.94045815048759,19.55187652924345],[78.9376872718409,19.561881817700304],[78.94650363448328,19.561615963171285],[78.95255759228706,19.564986228306616],[78.96629859297884,19.574247478655316],[78.97284907299635,19.582396174454786],[78.97179842949119,19.590021478907946],[78.9591582333317,19.59547430057381],[78.95563447574708,19.60017939138664],[78.95538351969434,19.61912572205147],[78.96120448775112,19.631696789998692],[78.96186387901741,19.637451685722954],[78.95740390263357,19.64717791792085],[78.95557251984023,19.655798922139414],[78.95281761593424,19.65834723985535],[78.94752046001125,19.659460069979698],[78.94424813817972,19.661747322760398],[78.9197384976796,19.662011443422767],[78.9198789636473,19.666981655475215],[78.9158393925282,19.66690242820731],[78.91166669737224,19.669114794699226],[78.90769757123941,19.667993342430425],[78.9035502175576,19.670016222638687],[78.8960205514225,19.664463133947443],[78.88646086791681,19.662460179050424],[78.8904929821207,19.65941665659244],[78.88674151778123,19.65507835902282],[78.86810903495886,19.65903186148416],[78.86160526104794,19.657411917130666],[78.85193531113772,19.658367321188422],[78.8558528587019,19.677312517139406],[78.8557067998232,19.686667324192868],[78.8571683201629,19.68962557992831],[78.85993791871033,19.68949774092412],[78.84944038147158,19.721975328700573],[78.85238284821902,19.727909901224248],[78.85116435809628,19.73613231616878],[78.84796684796159,19.735503060258075],[78.84533884636083,19.746887169463147],[78.84041047581142,19.756342132218094],[78.84097822095245,19.761895941179823],[78.83352813746671,19.76012884746382],[78.82589319057696,19.755149787958935],[78.81693398951622,19.761838181929416],[78.80692861766208,19.756893460763074],[78.8021760725666,19.756539148173427],[78.79694878491146,19.760014436852845],[78.79564512461832,19.767271591401514],[78.78631510529645,19.776531889064994],[78.78238122186885,19.778414677767504],[78.77735788861415,19.779864435013433],[78.77113801557066,19.77938816469173],[78.75899482042696,19.772720844435877],[78.75638650271071,19.772510033707118],[78.75172604930489,19.774663152216775],[78.74612581887304,19.781174126044252],[78.74007261745075,19.7831375308366],[78.73004011827166,19.780230432931386],[78.72416207126176,19.767758520961824],[78.71917651845295,19.766652415214693],[78.70611040766107,19.772307081960964],[78.70138112623653,19.786740147999478],[78.69257854195395,19.79103036196536],[78.67515022921039,19.794863137378023],[78.66636993662159,19.799758063112765],[78.65506629795925,19.800194342424223],[78.64275918003916,19.807809952054505],[78.62553399255101,19.808162016586618],[78.61900327007987,19.809982465387254],[78.61116491316875,19.816321874562448],[78.6073282157768,19.817610459761166],[78.60083930898382,19.81853272408687],[78.592595425604,19.81752156810964],[78.58613583353369,19.81879105175763],[78.57230436710289,19.815847652879167],[78.56324498322671,19.82107795514389],[78.55202364551575,19.82408619564798],[78.54230357769754,19.82383134648469],[78.53795490167907,19.82005543607055],[78.53079498301325,19.818456029571987],[78.51503580923787,19.818934502814674],[78.51217037841595,19.814260145764923],[78.50896989306102,19.812051122350056],[78.50724051037496,19.797549482383346],[78.49522907382894,19.792632198731376],[78.49025594561881,19.792685352906368],[78.48505284510271,19.796052938760944],[78.48316515321244,19.803810676426544],[78.47247690723214,19.817338805237387],[78.4692449413164,19.817719101665034],[78.45390345540203,19.81294886087939],[78.43738893860986,19.813635658893183],[78.42297024347785,19.817626549040824],[78.40300888465231,19.831864839424718],[78.38600142633115,19.846089430354407],[78.38180892332316,19.85704069376499],[78.38290617591682,19.862600020478308],[78.38161298099678,19.86795758148239],[78.383054831825,19.873904520490193],[78.38068973476857,19.880435170206926],[78.37677501510092,19.881177357151973],[78.36965490437858,19.879771711055003],[78.36045217723081,19.88339437410513],[78.33689825615811,19.88300183047544],[78.33210704038628,19.88489865218545],[78.32741525104842,19.888569619969495],[78.3243824434278,19.8948326041439],[78.32513704084289,19.898147641775438],[78.33411096618948,19.905294800951314],[78.3328584667484,19.911519103082103],[78.32748513818088,19.916338181781175],[78.31723344108931,19.916293665232153],[78.3070468925171,19.9142953535282],[78.29876860545856,19.87496851499933],[78.29190352644538,19.861722329357928],[78.2853326645524,19.85661473642159],[78.28609454371116,19.84793494536905],[78.30148360709794,19.840416390872097],[78.31577545921354,19.842555897171845],[78.33643347142335,19.837921793075125],[78.33404366800164,19.81459034602824],[78.34481839659098,19.813371435625587],[78.35239435470929,19.807399956385208],[78.35746064899415,19.80543312441565],[78.36469360518414,19.781230751493847],[78.3636728315605,19.775774218601175],[78.35894995781884,19.76793258940796],[78.35556433148051,19.752005737036278],[78.34930798054828,19.73797485143048],[78.34465470827486,19.738104494105837],[78.34125392466274,19.735755256212702],[78.34083766871628,19.733332147695737],[78.34287417821147,19.729782587474045],[78.33983630319433,19.72695415361518],[78.33930513745166,19.724155161172153],[78.34351486026536,19.71546879838917],[78.34315353809514,19.7132492448683],[78.33373133276052,19.709449516611013],[78.32206716873365,19.707576538022533],[78.31867341264199,19.705524821704515],[78.31575179848724,19.702593266696475],[78.31184105027151,19.691049357345175],[78.30342887740464,19.691203118387975],[78.30020599884637,19.68798385164322],[78.2878687631097,19.68803380717215],[78.27620594386082,19.692413735000816],[78.27110289590442,19.678703700083272],[78.26581191949225,19.673088472962814],[78.26266933864225,19.66506257222558],[78.26893179183021,19.66407132129442],[78.27163902843229,19.66191021591551],[78.27106791011737,19.658537290817453],[78.27902990216101,19.657639906327898],[78.28090295061385,19.650925038101395],[78.28410605635442,19.650371193732717],[78.28672315959417,19.647310798245357],[78.29048260726158,19.645999822510376],[78.29210250687409,19.642225011433947],[78.29221879558425,19.62741254048566],[78.29391959297966,19.619440771435727],[78.29756581519202,19.614205972436974],[78.30558703226406,19.607065746735564],[78.30383886400877,19.58478140030203],[78.30092226065668,19.579068710632523],[78.30426625996304,19.572688528491177],[78.30370918860423,19.569319928489527],[78.29730594425843,19.567895989310212],[78.29816886771701,19.564036270631856],[78.29358334458566,19.55898343319743],[78.27527207954596,19.562460678454663],[78.27433136288211,19.553973618589428],[78.2839555445269,19.541410818709885],[78.29325012980237,19.542232944150534],[78.2941298427736,19.534793651283483],[78.2924591101941,19.529309939836985],[78.29041679937882,19.527623317473118],[78.29601803412716,19.51737027350128],[78.29703318519545,19.513083090994456],[78.29497549791743,19.513170442918597],[78.29868409375325,19.49681249159134],[78.30924406570085,19.481083780576277],[78.3043616475715,19.456136985714377],[78.29867417275925,19.451948188468986],[78.2869909896012,19.44852837147173],[78.27046043428794,19.45615460624079],[78.26870217525705,19.44846621601591],[78.2637615157546,19.44892968178607],[78.26266798667776,19.44305842318489],[78.25832799377484,19.441794324108603],[78.25340350754071,19.436768008006354],[78.24650227582896,19.435197100835303],[78.24674201731366,19.4321703025362],[78.24453021147224,19.428801768576996],[78.23745003984745,19.428732070066257],[78.23563154877678,19.426753604459975],[78.21998287676448,19.433017428737916],[78.21160851847954,19.428477230104807],[78.20255178104017,19.419703612191558],[78.1992070307422,19.414841697832546],[78.19883432871397,19.41015592128768],[78.19508711789734,19.406752369775784],[78.19246608452826,19.406692721523243],[78.18384040008472,19.412198436710998],[78.1762120441342,19.412260825484054],[78.18769497484914,19.394591561255258],[78.17681074791487,19.367398613850014],[78.1792485357458,19.36284218312052],[78.17208374551619,19.359717239915362],[78.17217052906086,19.349297488460174],[78.17624787433763,19.334924917125893],[78.18326068848576,19.329979648920034],[78.18953207541925,19.32896782912476],[78.19229950902682,19.325827884890582],[78.19022872970186,19.32077584016454],[78.19376108775703,19.31488523084009],[78.18313385804578,19.28518251050086],[78.17668907649954,19.278547682469785],[78.1781878050583,19.27250417272301],[78.17672823945266,19.262942778004717],[78.17966307680837,19.258856393303233],[78.17800571385527,19.253912069034698],[78.18179402259611,19.247617676623598],[78.1770432489784,19.242156801743754],[78.17534369574963,19.237577799498688],[78.16496867793589,19.234552869317024],[78.15842197982573,19.23577778677397],[78.15101504062643,19.229497131825436],[78.1445699285002,19.22939959015953],[78.1371122317924,19.234393406604582],[78.13430497407167,19.238891659944745],[78.11706123996615,19.248635640859778],[78.11524268960667,19.24882778467591],[78.11319543626068,19.244420453934406],[78.09533268117771,19.243738506776804],[78.08917311653082,19.239366211076007],[78.08237437540646,19.243214001028335],[78.08325259268273,19.248674128329284],[78.07912039896966,19.2548321275882],[78.07231994565635,19.249246539004396],[78.06444616008874,19.24777128052917],[78.05569905755478,19.237119271653892],[78.0416374912572,19.243425469752474],[78.03596468323859,19.25063065651568],[78.0418681337064,19.261652771016266],[78.04253007349318,19.270600964672862],[78.01484374939993,19.27903415111817],[78.01426543557957,19.285958571332788],[78.01598520449546,19.28756784113259],[78.01352087683779,19.29471431925956],[77.9987039522521,19.299794052293148],[77.99468942436651,19.305382535681503],[77.98487248582133,19.30987368202825],[77.97765772410908,19.322702911109676],[77.9741345100052,19.322616429938737],[77.96590027902313,19.32745484363638],[77.96188404164354,19.335607149090155],[77.945146306978,19.342448412850008],[77.94231843651475,19.342270333152022],[77.93826870005991,19.33410850214152],[77.93200184872032,19.33466600147763],[77.92803892545452,19.332203049778684],[77.92332980671652,19.325771312980883],[77.91762682518583,19.323278310626904],[77.91157070783211,19.316252122774586],[77.8943448169631,19.320464790764003],[77.89005599838694,19.31329226428763],[77.87820593160531,19.30927870580193],[77.87285220337897,19.305303177069543],[77.86348409548907,19.304190823942523],[77.8664210492756,19.291719193737737],[77.86497183944856,19.288125167649543],[77.86560089460775,19.28381616024779],[77.88438816613672,19.278924687191665],[77.89421477414761,19.27980692735417],[77.90348355621485,19.277954746133574],[77.90758862619626,19.26822367103455],[77.90287215384936,19.256458052756813],[77.89094779998695,19.25927605233245],[77.89003238167815,19.260886062500752],[77.87504066739606,19.258838985507065],[77.87463003580159,19.253631869218832],[77.8714304918811,19.25501521276371],[77.86949298391674,19.24816402974945],[77.87004142785557,19.244178896056862],[77.8669278428263,19.239932294001388],[77.86816448879925,19.236732286380885],[77.86614759132335,19.23260735987151],[77.8660320922323,19.226396819005984],[77.85821169983029,19.214171738655992],[77.85483977459664,19.202764079963078],[77.85125414285187,19.199743985922158],[77.8515177417939,19.196093982199137],[77.84774694570952,19.18958980241927],[77.85404003055034,19.187486092043684],[77.86052005480178,19.180349334656103],[77.85595400534918,19.17710499239296],[77.85673905116082,19.170747132893695],[77.85455101204687,19.170191868633726],[77.85267219012172,19.166813442898036],[77.85255712132373,19.154672994519874],[77.84325084627143,19.14157454185256],[77.83797304365295,19.137648013084437],[77.83568161922958,19.138075775512714],[77.83408920536982,19.134303196706465],[77.83690627538842,19.13400388528234],[77.84158542902351,19.11810156355736],[77.84769091419196,19.11600013530571],[77.84839332847218,19.11012864764442],[77.8462331676748,19.10130890573629],[77.85110569625117,19.092024758635404],[77.85042133631153,19.088552322020508],[77.84911116323259,19.088486470374843],[77.84860614115965,19.08649755004431],[77.84232443348188,19.088009820864496],[77.83129651383139,19.08607574440845],[77.82955859804844,19.087061274273164],[77.82643431318581,19.096633214612293],[77.82361156042475,19.097727177907],[77.81816704935412,19.104975742736293],[77.80996087814825,19.104728733670992],[77.80455524885808,19.100551282789016],[77.80314795442216,19.09616629042935],[77.80460521854405,19.091799287309577],[77.80283399951857,19.07974998267823],[77.80169602359813,19.076176791900792],[77.79789096037891,19.075158025560462],[77.79682469696758,19.072583821258423],[77.80012503455788,19.06683974788918],[77.79862763370909,19.06144627588008],[77.80037636341144,19.051116483833326],[77.79333629168262,19.052568127055082],[77.78912287948809,19.055667579653164],[77.77525835505482,19.056016189005028],[77.76483920570611,19.062649625926344],[77.76497645390849,19.047137182334634],[77.76202366641672,19.03184711277518],[77.76558239721201,19.02430002017448],[77.76994956055901,19.022399781743097],[77.77036634651151,19.00995262454153],[77.77226428997582,19.003621721961263],[77.77537850921566,19.000621412713905],[77.77152465579842,18.979153957978948],[77.78765363453526,18.97264164121143],[77.78970142507377,18.974573569465065],[77.79116776577328,18.982812693319026],[77.80524448215813,18.981851356685446],[77.82178480665007,18.97850338404316],[77.81623907341323,18.957512148310588],[77.81987046174532,18.954436320528846],[77.81625209628992,18.94727244276313],[77.81927650645925,18.945855703640717],[77.83248054457982,18.941624601403365],[77.83564421427947,18.94724270357114],[77.84196943006138,18.949868659235506],[77.8586184498044,18.949107285092044],[77.85148859954776,18.926403095361255],[77.84794103121821,18.926892301803132],[77.84328134946524,18.90868968951171],[77.85796643011331,18.902348113000837],[77.86820528668619,18.90432124434588],[77.87319862429526,18.903930671575203],[77.87396449466885,18.907671147813655],[77.88541118644686,18.904197100855757],[77.8848323534003,18.900300855544412],[77.89161089770214,18.881411197604418],[77.90393293124922,18.881243239456303],[77.90325876089986,18.866622929908644],[77.91245174851332,18.865066941054113],[77.91245322085206,18.863169715836904],[77.91429043910149,18.863458426497097],[77.91417585898698,18.861365532424827],[77.92516931117832,18.86068905948248],[77.93008726576203,18.858724172659123],[77.92937691486627,18.85358402078497],[77.93747870992095,18.851589392314672],[77.93480215168415,18.84514277051353],[77.94892731331393,18.84328735922802],[77.94856250478209,18.82983473774414],[77.94312060691065,18.82480545501933],[77.93452456507482,18.82226348883696],[77.91228502029827,18.82688898958847],[77.90669906229962,18.826695093407046],[77.89350056768266,18.820694232489625],[77.88796752494585,18.820107461772054],[77.88201700904536,18.8174013215322],[77.87144206397858,18.818162028476458],[77.85990979778825,18.809044293407833],[77.85370473886212,18.80906722462731],[77.83998238000912,18.80481836672694],[77.83853561090467,18.79682706181946],[77.8322210590235,18.78824202803609],[77.82681964013706,18.769837775758347],[77.81674014289892,18.750639379311437],[77.81236910601642,18.738508661173842],[77.80427858122529,18.727239119053586],[77.80421228735395,18.713174286928297],[77.80108872833009,18.70761853386084],[77.79624658257322,18.703956898597088],[77.79503403211115,18.69703362669468],[77.78979306041926,18.695146780455715],[77.79038291040449,18.687830500405244],[77.7873168426605,18.68263678177876],[77.77703409530113,18.685356290922517],[77.77193382134233,18.689051556322227],[77.77326875378716,18.70135274168904],[77.77035623956625,18.701839906790898],[77.7681807014078,18.705855752725963],[77.76001203037346,18.706840410557987],[77.75353260260336,18.700988194218812],[77.75062187872479,18.695244717669702],[77.75246876643992,18.689340784957327],[77.7492775364274,18.682662886461046],[77.74371812723868,18.681620969866742],[77.74316276717047,18.678268858494434],[77.73825340946404,18.6764945725167],[77.7300034534729,18.66693297957918],[77.73160085208417,18.664334480832768],[77.73468455555381,18.663429129526964],[77.73573801168413,18.66098320729011],[77.73365339471054,18.657803710058857],[77.73023324791247,18.656078102211513],[77.73053359693279,18.645141623488048],[77.7347405601219,18.64100848031088],[77.74568587069886,18.621284945066837],[77.74560266334734,18.605938203699445],[77.74762474410244,18.603196891415973],[77.75037232673888,18.58920890457779],[77.74609648792028,18.584594175212633],[77.74349723690018,18.577615061571187],[77.74041016744317,18.57521444454803],[77.7396358573975,18.56835878744656],[77.73707382268132,18.56384098971054],[77.73852919854446,18.55678555697549],[77.72328112753817,18.55332568220988],[77.71100138847129,18.55629978220389],[77.70159138764811,18.55516745573597],[77.68835779136143,18.54494850965403],[77.68071551601558,18.54524928422931],[77.66462868802853,18.535796144604614],[77.66169410759095,18.531852889393072],[77.65589090282064,18.53089476144628],[77.65138204371229,18.532259167375003],[77.64592747061216,18.538832462537716],[77.64925378029399,18.541188218530028],[77.65210495844562,18.551789581144327],[77.64774124822257,18.552985956401074],[77.6479436233847,18.55492690476891],[77.63964999759268,18.5549364565384],[77.63403076689426,18.543913180987893],[77.62765971726988,18.548120290857653],[77.62928293885233,18.553670623553508],[77.62650501112559,18.551889552067774],[77.61521598895126,18.550840760171287],[77.6160659218725,18.548961266393647],[77.61322019110474,18.54909547186288],[77.61252717949061,18.544474400623326],[77.61059529228498,18.54453534541784],[77.61009927402615,18.549877131481193],[77.59640042138915,18.548936219372774],[77.59533459905063,18.535536602029662],[77.59208889250434,18.532316792214026],[77.59072229444575,18.526660579234072],[77.59254048098754,18.52661400920006],[77.59659808398932,18.53019490499991],[77.60046766690719,18.52729082237314],[77.59885679177005,18.524201534623014],[77.60031255031551,18.52229160322617],[77.59709885164109,18.51587833289612],[77.58778402642396,18.51285150216561],[77.58593819602592,18.503991088225444],[77.59431833047813,18.497901349164604],[77.5944284549488,18.496191441367223],[77.60473800084974,18.496362084483252],[77.60370659746133,18.492934517944875],[77.6062567582461,18.489192275984394],[77.60364141750092,18.483673627220995],[77.60315730281792,18.476842895464664],[77.59431430782229,18.476905296575474],[77.59228168803229,18.4847104808498],[77.57640076468813,18.486779568708805],[77.57289259107705,18.469809899406506],[77.561099464908,18.470249973452702],[77.5602766664982,18.46861656203294],[77.54859521798697,18.46857593885767],[77.5507937000161,18.460404250626276],[77.56406954047735,18.461016643506227],[77.56414547237337,18.46003044837951],[77.58363583820724,18.4562010254609],[77.58303203738565,18.449936099565022],[77.58612826786195,18.44939776800451],[77.58532889302322,18.446787600640008],[77.57433572739447,18.44179388819268],[77.56910059205698,18.442861248900478],[77.56832620385791,18.439463994497604],[77.56421272654377,18.437297644086353],[77.5602326490493,18.43727856065736],[77.5480125599139,18.44322299955937],[77.54058996487585,18.4447013893146],[77.52852043787368,18.443367857432484],[77.52754815620739,18.442105722887067],[77.5281988077643,18.428907622831588],[77.53734485121764,18.42627388266902],[77.53693281914964,18.424240650007935],[77.55669838297247,18.419237080318037],[77.55271242241125,18.40168576708017],[77.55163410989701,18.38889286416963],[77.54594915216418,18.388681694715395],[77.54321830064991,18.38608404171202],[77.53863231219125,18.385877226590548],[77.53564366305508,18.380743520258036],[77.52550434430725,18.372699991081703],[77.52407818435205,18.364195298954048],[77.52023892316828,18.357170060555863],[77.52237379100059,18.346462106981654],[77.52574953227753,18.34211605576198],[77.53161985736921,18.33865950692639],[77.55805597182706,18.331412024689467],[77.56389833595726,18.3222929582306],[77.5705117663166,18.318108419181335],[77.57142843597862,18.308825091465824],[77.56485321366323,18.306054424236162],[77.55329238374179,18.298086403265017],[77.55143503514522,18.29191082540236]]]}}]}