{"type":"FeatureCollection","features":[{"type":"Feature","properties":{"shapeName":"Tripura","shapeISO":"IN-TR","shapeID":"1811400B57209440839078","shapeGroup":"IND","shapeType":"ADM1","displayName":"Tripura","coverage":"context"},"geometry":{"type":"Polygon","coordinates":[[[91.81543176909312,23.504286527558467],[91.82239104454865,23.498729498030603],[91.82135018459525,23.49914587344453],[91.82107621280664,23.49767654692346],[91.82187027950035,23.494445348379685],[91.82226461745219,23.498114420800142],[91.826288044049,23.494626046860432],[91.82880842478376,23.48236784475864],[91.82769029174962,23.479636327982796],[91.82855471808965,23.47647973407082],[91.83070422217284,23.478436589647195],[91.83263609500544,23.477159709469237],[91.83206700149317,23.47992389875431],[91.83334413723091,23.48059762418949],[91.83692228870432,23.467600680126775],[91.84062139473747,23.46236806462545],[91.84149488148545,23.46445891099933],[91.84266208678861,23.46268469003385],[91.84239171993924,23.46454376557655],[91.84364432807646,23.46158498960775],[91.84351621214728,23.46466331752833],[91.84601049233146,23.458340373580413],[91.8552287387741,23.454304725824752],[91.85518147391542,23.448095588217218],[91.86179396373866,23.447785637935173],[91.86553941475563,23.446154714631668],[91.86470752359855,23.443362545795324],[91.86140936532114,23.44162999677862],[91.85898816128865,23.437752658184454],[91.85648741233612,23.432334340328342],[91.86364090894597,23.408295588329445],[91.86671285526519,23.40961689932825],[91.86705920072298,23.412423605286584],[91.86870531497209,23.41166705898819],[91.86764927618536,23.418640307541953],[91.87035996321642,23.41289512844749],[91.87304588639007,23.412748100117035],[91.8749387301185,23.41436126868378],[91.88455068838724,23.415547829251004],[91.8871362904049,23.41780268022213],[91.89434732770194,23.420112133657867],[91.8980561139806,23.4259674591285],[91.90059061802826,23.42385208692462],[91.90130173339031,23.427502505368892],[91.90547086492957,23.432744189650297],[91.90663807472433,23.440393290524884],[91.90964155504585,23.439665875186467],[91.91058527387936,23.436129182215687],[91.91452007269024,23.432872817114575],[91.9195742298373,23.43367395294091],[91.9245887991281,23.4365305865025],[91.92729009696782,23.434806319479733],[91.92979423975552,23.427888819760476],[91.93933504336891,23.430996522523124],[91.93995873738247,23.427901912293805],[91.94193256153882,23.42711501362385],[91.9447423596952,23.430250593217938],[91.94741522585618,23.43084911208378],[91.94791999370592,23.43543139197305],[91.94314568063447,23.4597864490818],[91.94357101136195,23.46396464055219],[91.94082114341143,23.465597066114046],[91.94017148988277,23.467918269434485],[91.94667684572693,23.46817690269745],[91.94907740018596,23.469843404492913],[91.95159041473542,23.46887378247193],[91.95169343263386,23.471765730515596],[91.95930134831842,23.478206967012277],[91.96285774978213,23.47619533050026],[91.96178031132867,23.481735312175033],[91.97363359857064,23.481309607659092],[91.97221685026469,23.49004924783165],[91.9759635679062,23.49710287693038],[91.9716429256128,23.498195581135725],[91.97091355468754,23.500532855756866],[91.97351876153795,23.504010276823806],[91.96961169461825,23.511201566638057],[91.96606454041202,23.513585309916266],[91.96738586248198,23.515729485896284],[91.96432425307674,23.516672822383704],[91.96483348824836,23.519884386032036],[91.96097641167587,23.51891607518988],[91.95633445548009,23.526426564195873],[91.95696157027825,23.530803292452596],[91.96520550935361,23.536333393749846],[91.95916792783744,23.553794532419445],[91.95892559561148,23.562659795766045],[91.9608599864218,23.56588708330531],[91.95946428115136,23.569448482318144],[91.96007879258607,23.57381257599983],[91.95762913621363,23.578197702891316],[91.95907201830785,23.582708695492798],[91.95644477668182,23.589952160153494],[91.95792080660999,23.59418813793085],[91.95481296990023,23.602782779305883],[91.95586998246074,23.61285334021455],[91.94819463743436,23.624800201012153],[91.94826084866068,23.629604915947514],[91.9461895330415,23.62997371259843],[91.94303230695743,23.634978911636278],[91.94674353306038,23.63837763695175],[91.94764623841128,23.6476659904019],[91.941333301701,23.66102859316057],[91.94327586628206,23.665646892048226],[91.94336241536645,23.672145354229542],[91.94095147728108,23.67553378363394],[91.94127728545482,23.67818869976876],[91.93703750950328,23.68929852745872],[91.93942192752489,23.69256651845915],[91.94151503357791,23.692210809048532],[91.94373589353907,23.697253423840326],[91.9461903846444,23.69829823290529],[91.94850114530423,23.69741806132427],[91.95099347704257,23.699029114722585],[91.95769721054589,23.697656799702113],[91.95926264081112,23.6990090154718],[91.95867197874888,23.70204383650359],[91.95320796345682,23.704427065906525],[91.95506580163527,23.709252651653486],[91.95325362931428,23.713274376587197],[91.95355795607466,23.720667186455785],[91.95933489320772,23.725756799930416],[91.95844872224794,23.738564551646988],[91.96636596291911,23.737825140296223],[91.96853347732541,23.733564346645306],[91.97127219359001,23.731771594128002],[91.97764420171674,23.733665580200537],[91.98348028302985,23.728215432319313],[91.98287132138692,23.725811446998513],[91.9850814967861,23.719174555917668],[91.98944370143273,23.713817581542088],[91.99155365898218,23.704933567264042],[91.9966175637484,23.696436549045917],[92.00152595935914,23.67718358950882],[91.99885265302366,23.675792171221246],[91.99912398556197,23.67337916733069],[92.0046225563481,23.672244248703482],[92.00655368268066,23.665407348089047],[92.01104813011688,23.664346662900506],[92.01286756711357,23.661364787621395],[92.0166617571246,23.66367294073044],[92.02145338342649,23.663447074405852],[92.02055568977657,23.658846326585813],[92.02855615756215,23.65779968636411],[92.03166932487483,23.653680718297334],[92.03624753661803,23.651266995256623],[92.03779265956798,23.64825503682459],[92.03974673605943,23.64856550887725],[92.04320890874145,23.646345302336307],[92.04647284120658,23.648921937784994],[92.05143532168563,23.648152816229246],[92.05746536813315,23.645814980623765],[92.05947449518186,23.64315247986055],[92.06474518943152,23.646129506275887],[92.06901580005518,23.644723390474844],[92.07437692500955,23.646429624821145],[92.077797101452,23.66148493485155],[92.07641265027547,23.663756979704843],[92.07758044667011,23.667960209691913],[92.08097256153974,23.66882135293685],[92.0868825319799,23.677393171509923],[92.08808365317662,23.677501444854176],[92.08899190921765,23.674309485012078],[92.09356714124908,23.67433715540025],[92.0967939858694,23.679420636857653],[92.09795981585185,23.68642509422986],[92.10098845978112,23.68804656778099],[92.10274520155748,23.692377622092412],[92.10431655890696,23.68935989004479],[92.10641025784811,23.690915341437385],[92.10805852176571,23.69385721839449],[92.10815155938137,23.705130402533463],[92.11077344435336,23.707055557992312],[92.11673818058479,23.722364609615475],[92.11759362826356,23.730390350604388],[92.11939066397198,23.73222248311261],[92.12133785936837,23.73264344530233],[92.12208472767873,23.731073189757673],[92.12465157916147,23.73171316919863],[92.12826349381481,23.73561457395559],[92.13504238396803,23.73541127430706],[92.15159350351476,23.72755640583335],[92.15470583719085,23.719563958360247],[92.17037051179159,23.705802702624418],[92.1756377565106,23.707303564030457],[92.17445012261953,23.708691238127624],[92.18031233772085,23.70634249317984],[92.18663059066101,23.708649961835246],[92.205366066229,23.70559909081756],[92.21403073935254,23.691332667754377],[92.21452907436651,23.68704070415108],[92.21669356414527,23.68413212108783],[92.21567139184472,23.679626805253406],[92.20953750554023,23.669871423807525],[92.21060963584867,23.661507890864584],[92.21624175287985,23.656487163487565],[92.21670890826863,23.652830162524904],[92.21974687671054,23.651766697746616],[92.22612378694382,23.65228648172962],[92.23029583531282,23.654881987979138],[92.23582587587991,23.668502998460788],[92.23608642773652,23.684959443987857],[92.2451541569617,23.696053869604874],[92.23904933025834,23.713031154701863],[92.24115012319528,23.71873058536524],[92.24704133411731,23.723742792486178],[92.25398934290257,23.72646305121896],[92.26538822723951,23.725112310834334],[92.26659364507823,23.732488770625515],[92.26542313487313,23.74333010650862],[92.26707582838341,23.751748067399873],[92.26540559077563,23.761470112435543],[92.26720511571571,23.768701167637865],[92.26476861517062,23.773266201577663],[92.25991238023683,23.793575913556953],[92.25699652338477,23.81287372913213],[92.2670277200067,23.816085314971993],[92.28223491766752,23.81473638584822],[92.28076171114431,23.82128539557711],[92.26857621253725,23.842278702414426],[92.26947979374556,23.847782067095775],[92.27916799382908,23.85644579204307],[92.28501015853325,23.867252624245346],[92.28955946518558,23.868276903527793],[92.29923783410663,23.859790921329836],[92.30756608995287,23.85701462084728],[92.31159818888541,23.860318950091557],[92.31493241631814,23.860602139604424],[92.31648472040047,23.865370713978322],[92.31087097481515,23.86985465110608],[92.31052699012993,23.873447138062847],[92.31307751652899,23.87757308345161],[92.31108024814037,23.880217977836445],[92.31275954615609,23.88491075444032],[92.31654556419298,23.88917097045871],[92.31677436060426,23.899701919698597],[92.31800663627334,23.898512709023645],[92.3238731722712,23.904973503157233],[92.32187601437536,23.910178010916635],[92.32508718519054,23.91419297824843],[92.31917273215714,23.915795956072195],[92.31619873633989,23.928168010829275],[92.30888616156794,23.93132642076722],[92.31057640825031,23.934933424230096],[92.30917381380002,23.944239822916813],[92.31082251519716,23.948311432266998],[92.31043297065565,23.952444116950147],[92.30819104160781,23.954330938936593],[92.30909889610194,23.957490587644216],[92.30786440428905,23.960662270526882],[92.30989680848337,23.963118447372405],[92.30849864272743,23.968185020007212],[92.31020831098625,23.969620885361817],[92.31028786578783,23.9723695202795],[92.31435192318493,23.972941947184843],[92.31558059211814,23.975161291709277],[92.31724585844913,23.975215706487038],[92.31721363587987,23.978884793156777],[92.32004348533171,23.979123552325053],[92.32184157476398,23.983300484516455],[92.32131330429146,23.98766482158147],[92.32348029408166,23.988648150621],[92.32205889699414,23.994020536221637],[92.32609686372213,23.997879507074476],[92.32273860905049,24.002829883664358],[92.32426108816708,24.00475417429324],[92.31879503459761,24.008314555645963],[92.32008450959412,24.01236140962718],[92.31909253056857,24.01527717769265],[92.31698647709734,24.01624436152075],[92.31631403330995,24.019412521542495],[92.31385001377444,24.021327439951474],[92.31531989473447,24.023476324933327],[92.31708330380688,24.02168033017778],[92.31866903330261,24.021984745260845],[92.31972281372474,24.024542151061134],[92.31468402675219,24.026053264719256],[92.31684564012544,24.03016147886114],[92.31201033324284,24.03251690675948],[92.3156362014275,24.0349691070256],[92.3156113055177,24.037786464370658],[92.3119099743576,24.038611233729164],[92.31632718554405,24.04571598047105],[92.31205419348659,24.05221998135674],[92.31263115624073,24.054987710230943],[92.31520895998341,24.0532555324853],[92.31750836503979,24.055072902543316],[92.31619912800534,24.059600482307136],[92.3197582765172,24.063842411737046],[92.3166954238436,24.06663487569908],[92.3164636459239,24.070140654880966],[92.31929223324275,24.070220696918316],[92.32119032133583,24.07279018480284],[92.31915089141764,24.078288393067453],[92.32405865551276,24.079366693817306],[92.32208718224749,24.081643634600198],[92.32472240989641,24.0882764141569],[92.32481936057344,24.097689363258603],[92.32756864461903,24.101590437962283],[92.32679812366723,24.104542183285044],[92.32252155361999,24.10448964281157],[92.32781489799123,24.112047326813993],[92.3249215672932,24.112802062325944],[92.32419925353281,24.115169734429585],[92.3270058312289,24.11710738565257],[92.32464326472659,24.119780472999825],[92.32575681455617,24.132595986540323],[92.32445691101755,24.139536039028304],[92.33060284911988,24.139796675584986],[92.32863895314406,24.143221515979988],[92.33163181178566,24.15188764118666],[92.32862712861996,24.15517465981571],[92.32853499291286,24.166354355147536],[92.32432361809737,24.16828427006102],[92.32376678569042,24.171336731392493],[92.32580964178307,24.173657048293013],[92.32642780576776,24.177819635596105],[92.33124692950048,24.178466099329803],[92.33195844371456,24.17966365892565],[92.32643585377438,24.181396421231717],[92.32534713607421,24.185625794804025],[92.32253902585227,24.18811360691463],[92.32260495321096,24.189776641655307],[92.32626318140711,24.191465928800042],[92.32215078207129,24.193036065260902],[92.32181491815624,24.1946887465424],[92.32606200190257,24.196978681863143],[92.3190199916094,24.197960828641815],[92.32143888247998,24.203834375259223],[92.31460493548131,24.20648747204879],[92.31408668302086,24.209709965788242],[92.31616779027664,24.211906679026836],[92.31076010384449,24.217945303002423],[92.31031120761214,24.221375299276925],[92.30418381882212,24.223611491097056],[92.29725356434014,24.23159212605574],[92.29228206747058,24.250492575781326],[92.28609855463654,24.252203297915255],[92.26559434837638,24.250913843515658],[92.23686487901563,24.24027525195713],[92.22481717119338,24.241075274055948],[92.21992383134679,24.23433268872984],[92.2172892379085,24.23433681806813],[92.21250351263969,24.2377127116797],[92.20595788981292,24.238461239282252],[92.20056527531457,24.242204787619514],[92.19229319202137,24.24326784552022],[92.20972433625472,24.248310571855974],[92.20942308802081,24.25740081203322],[92.2188372561286,24.285726366776107],[92.23741252255557,24.309279875240076],[92.23895195916975,24.312185863906503],[92.23849816262756,24.321525066409535],[92.24005271698967,24.326432621822246],[92.25443261118961,24.352024243157427],[92.25983908220122,24.358549943473466],[92.25665610501119,24.39933208993853],[92.25481406460534,24.402088961760494],[92.25379606228434,24.416463302916718],[92.25022834025141,24.42155011848984],[92.25074676698502,24.424794694961253],[92.24662051652585,24.44195532354863],[92.24294767992656,24.445333691799927],[92.23670340325008,24.444614728066057],[92.23417424328001,24.44874031160698],[92.22997949807706,24.451691476701853],[92.2316629058852,24.457043196066927],[92.22861724696617,24.461533982567637],[92.23026364598121,24.46669053558011],[92.22874130430688,24.475689402731675],[92.23123056290864,24.480137065830025],[92.22975989143113,24.481721177181743],[92.23648263508247,24.48881510607418],[92.23111003145539,24.49531401895268],[92.22976598739866,24.50244222794547],[92.21169868233224,24.504481310162475],[92.20324605742987,24.507163820736594],[92.19346605401587,24.51361819052989],[92.19021663113925,24.514273249629245],[92.18537982676504,24.52049047235026],[92.17575266900174,24.522121395491876],[92.16892352349826,24.52717881378588],[92.16633121735363,24.527597220023154],[92.16123348203382,24.52528119962196],[92.15571288096368,24.525641578185304],[92.15944976025621,24.52349089584191],[92.1583765384947,24.52117093799295],[92.15470841894896,24.521003682666507],[92.15670276871126,24.51883487879339],[92.15449714148235,24.51619614329194],[92.15632274990503,24.513455209667914],[92.15227315089241,24.50864262103938],[92.15846699435222,24.50759756725627],[92.15757568862229,24.505664410396086],[92.15254953914915,24.50297066436242],[92.14971813381524,24.491003249883434],[92.15363501303281,24.48840168911786],[92.15313794823665,24.483110849921434],[92.15617578282959,24.478910467041143],[92.15624748905053,24.464062256197252],[92.16190733797286,24.455240022881178],[92.16179112472116,24.45066737498061],[92.16597541443252,24.445870820631704],[92.1644422525506,24.440297403439363],[92.16872961405934,24.43425777452521],[92.16821448863439,24.42493080174702],[92.16325749865837,24.418687609245623],[92.15372021464424,24.42578327955554],[92.1472257787207,24.42168490125823],[92.13896371433785,24.4250750237742],[92.13477146465476,24.418378207327912],[92.13270236248445,24.411796258045015],[92.1333080012591,24.408499878025186],[92.12784051397847,24.404475944881316],[92.12211965866857,24.39734483202882],[92.11774906375716,24.394491652718234],[92.11405272543341,24.394098679555803],[92.11254857015201,24.39182879788901],[92.11514180425631,24.390273589278994],[92.11522340182682,24.388441642689358],[92.11052909630787,24.38336753431781],[92.10626003078652,24.382620955339355],[92.10388168447793,24.380417202098606],[92.10147787362601,24.38116357808654],[92.0979547933711,24.37815069533902],[92.09705014316759,24.38183270846352],[92.0937715762482,24.382308872196642],[92.0908423587529,24.378189432441268],[92.08895646528981,24.379262708839043],[92.08836702224139,24.377270715243892],[92.0821244209229,24.37488996623603],[92.07583169720482,24.37693498594812],[92.06712291949579,24.37634958085325],[92.04397051481237,24.378661454979603],[92.0403485956217,24.377086582671676],[92.039395810092,24.378981971490226],[92.03468761122885,24.38010364319239],[92.0341238204717,24.382453984011473],[92.03181494447732,24.38151798795035],[92.03080819894515,24.382951889661804],[92.02644308196034,24.383530979686512],[92.02412295007547,24.385611660482542],[92.02460911471395,24.386916239084513],[92.02153454531413,24.386184826221807],[92.02251017859473,24.388269685020422],[92.02018336144751,24.38904668961698],[92.0115277756814,24.384188588964523],[92.00794401333073,24.38416135736253],[92.00647519417933,24.385460444615077],[92.0076969658478,24.387779835469598],[92.00674137308286,24.38995563274391],[92.00452844434734,24.390501427461174],[92.00078419078464,24.395453453258398],[91.99896810989388,24.390458223799566],[91.99602515086968,24.392036988268114],[91.99326660968511,24.391166227086096],[91.99147748004947,24.382809376997503],[91.98830532845695,24.38020449733699],[91.98654502306383,24.380732956291528],[91.98577227878171,24.383656566524724],[91.9797666718998,24.384714512905827],[91.97662496061899,24.387061115705592],[91.9717535684114,24.383056249117907],[91.97388773106618,24.38194809897039],[91.97428485110048,24.377832878498616],[91.97694925692811,24.374176517165832],[91.97983334935175,24.374727192112168],[91.98125463055662,24.373450359058033],[91.98034292228994,24.370246609538754],[91.98198714378877,24.367593840830896],[91.98534344372632,24.36596249638806],[91.98528766194046,24.3643348075838],[91.98119720754873,24.363616902978848],[91.98094584635581,24.36037592946981],[91.98782008279498,24.352891033816196],[91.98906105415601,24.34948009376376],[91.9921720780884,24.347724759416863],[91.99510399502113,24.338590991856876],[91.99121086815798,24.337313198338574],[91.99434838789966,24.332251861077328],[91.99384329575814,24.328914460296687],[91.98464035481133,24.327075675189203],[91.98011967926372,24.32904031579872],[91.97919785506863,24.333287464622305],[91.97673845107703,24.331878373455204],[91.97304625937663,24.337320324082505],[91.97240440322466,24.345827786783556],[91.96805122125673,24.350160874761485],[91.96710655290394,24.355663518909314],[91.96008296166734,24.358715744207334],[91.94463196842489,24.3508548275055],[91.94196732723861,24.345866645089274],[91.92973157417963,24.341921099825818],[91.92762416694728,24.342388725074425],[91.92243594882046,24.33841130627289],[91.9377439491343,24.286711054891413],[91.9403716120702,24.28310743383734],[91.94233316254484,24.26308524677348],[91.92611919240234,24.213218692762236],[91.91708267244674,24.17224871808568],[91.91663819143405,24.168886216267534],[91.91907910540218,24.166188909821052],[91.91678587895835,24.164302357004615],[91.91950575126319,24.1583569801317],[91.9185969167071,24.155532084041006],[91.92014249869614,24.154554914748267],[91.91777035974619,24.154227822787977],[91.91677165683076,24.148702165363048],[91.91378380899181,24.147427046365607],[91.91361024549578,24.142305540562525],[91.91011620687566,24.14147162759653],[91.91781720688824,24.131008944208805],[91.9191885228987,24.123026413805068],[91.91827209129025,24.115530590320144],[91.91101219821816,24.13077399014703],[91.90333511585001,24.137572530049912],[91.89933873483146,24.139620229949674],[91.8852554814063,24.140760502321427],[91.88191970797298,24.14334723718199],[91.8756709127706,24.149735489134304],[91.87349976018739,24.15579082326171],[91.86701843876867,24.161431102794772],[91.86513891795421,24.172981590108083],[91.85983408592709,24.18256727340752],[91.85086392991143,24.186055322586686],[91.83692294716941,24.19712337309637],[91.83557730231483,24.201181027418578],[91.83959171611438,24.204415033540066],[91.84095153368922,24.210265666656984],[91.84706334120065,24.217214460592505],[91.84617654770838,24.218622048497828],[91.8428608965374,24.218903464427758],[91.84613936733706,24.22161057569279],[91.84023750419234,24.219674817827617],[91.83812866774038,24.220836709945342],[91.8416659530549,24.224997404902457],[91.84117807532914,24.227318985916114],[91.83262241456198,24.22687422655324],[91.82712623688778,24.214999783685254],[91.82172277253744,24.21073238233294],[91.816036003801,24.210080632121738],[91.81037987480227,24.211655513277048],[91.80317059820315,24.220433944314408],[91.79932777340264,24.22144818486705],[91.79147854148674,24.22063321529152],[91.78649371810994,24.222392100611287],[91.76099323585143,24.235684048289052],[91.74658315466465,24.245272175182205],[91.74595496009151,24.214452671478377],[91.7570772199148,24.14509951315692],[91.75624916995392,24.14184639988074],[91.75492696573836,24.143698330083527],[91.75134301294484,24.142768380716202],[91.74972063038892,24.14381546904105],[91.74180955485554,24.141117907020572],[91.73919205096722,24.142729343106257],[91.73741867059516,24.14114084360796],[91.73428897697622,24.14414721502955],[91.73256145380277,24.141962360923642],[91.73102521968258,24.14315163265103],[91.72644887733347,24.141160196247874],[91.72143277551676,24.14644797400922],[91.72054466419598,24.149796705520085],[91.70907696711163,24.150492315444065],[91.70393382554747,24.153288300048235],[91.69925326964224,24.161779290463517],[91.69622795217445,24.162157780792604],[91.6898258379093,24.158431279553533],[91.68255209730708,24.162412649494552],[91.67424008210287,24.19753508473385],[91.6692768434457,24.20190468342074],[91.66323341659202,24.212926982206035],[91.6650539180923,24.228197428627197],[91.66226854962007,24.231931142490385],[91.65412808299071,24.22643498459715],[91.64683529540955,24.217378545310282],[91.64637977320368,24.212616107782377],[91.64930400684578,24.20705563007534],[91.64737231816783,24.203197637151376],[91.64786496145618,24.200033558079003],[91.64966488434992,24.19493916319493],[91.65404577934437,24.19396103119583],[91.65640569581657,24.18550312429226],[91.65165398705263,24.175311539369204],[91.64172041664082,24.17844813567411],[91.63898842516446,24.170024282639154],[91.64017115605071,24.15528970222296],[91.63724667986345,24.14831075189172],[91.62936493881571,24.139118124907785],[91.6339249390132,24.127858680607943],[91.63550079153235,24.119500219188925],[91.63497100650028,24.112197826751984],[91.63299577827718,24.106965602008632],[91.63085816160012,24.105363681431587],[91.63130321663628,24.103556066136647],[91.62727881985897,24.100567733878137],[91.62548797983105,24.101315548978505],[91.62038066218209,24.099084621286174],[91.62149263546836,24.09742363629167],[91.6190138799689,24.097521390317464],[91.61732673876242,24.095744454392047],[91.61542592068922,24.0967861914224],[91.61394320639701,24.095334082690044],[91.61266515976759,24.096247718594814],[91.61258259740646,24.094864104660605],[91.61080530936287,24.095580312593327],[91.60706442538083,24.093224386408973],[91.60705756764195,24.091420754265673],[91.60441700400027,24.091541472290604],[91.60325664475788,24.093160461367056],[91.60115553561397,24.09246283151454],[91.59776875404216,24.096163074356607],[91.5908588742492,24.09648129523628],[91.5874591326828,24.09049193635883],[91.59342114612059,24.086034564457385],[91.59053526604954,24.08278090351848],[91.5903312990727,24.08011952314668],[91.58695565840706,24.077242190818996],[91.58274550170711,24.076766108415466],[91.58096965995117,24.07441057126921],[91.57050241480214,24.079413642185372],[91.5675778451901,24.074149431683516],[91.5576018742969,24.076321918801902],[91.53969370757969,24.073225712381827],[91.52505447155383,24.080081732724704],[91.51082275805328,24.0840078657639],[91.49528586610671,24.084981104310213],[91.4923036327383,24.08767662586344],[91.49056480696194,24.091718500859454],[91.49122337626979,24.09523245885046],[91.48880248754598,24.09722981153916],[91.48484385193906,24.096567724480146],[91.48079725599446,24.093248009767656],[91.4760823395296,24.09602379091907],[91.47737026672884,24.097107321865774],[91.4764792843924,24.0983369022239],[91.47318749157706,24.09858741671037],[91.47139702165504,24.096792066962053],[91.46574043721046,24.0967807250792],[91.46307088223962,24.094107746332636],[91.46026822029984,24.095908789509703],[91.45588109818384,24.094715003031876],[91.45054867889438,24.099355774140324],[91.44389039834783,24.095408757402268],[91.44171138460754,24.100522993345155],[91.43769949507397,24.10116152908615],[91.43799017462852,24.093776447917463],[91.43414216115893,24.098667299122415],[91.43110715356421,24.099505000750245],[91.42937865661699,24.103953094080154],[91.42991112671346,24.10703229821224],[91.42582890627963,24.105517263322138],[91.41474478083846,24.108199947628663],[91.4043497925776,24.10763969452814],[91.40262734758048,24.10986257953265],[91.39456250921657,24.106309541236644],[91.39212148295904,24.10733275458506],[91.38846081583692,24.10556682603664],[91.37614158054193,24.10582989988764],[91.37826788203967,24.079137057130524],[91.3969655097881,24.047242165142787],[91.39651272834219,24.04108332861482],[91.38992831805811,24.02388138401298],[91.37329060181628,24.00229235098987],[91.37573878046011,23.998837769018063],[91.37415099022911,23.997565323981693],[91.37541791481702,23.996650200285792],[91.37457080080917,23.99486684043062],[91.37893162654183,23.99128494804386],[91.37624265987601,23.987540989705554],[91.37932879598347,23.974547943134688],[91.37273330947193,23.974795387970637],[91.36880884398175,23.978901761273807],[91.36257837081791,23.98225159873426],[91.36053332103931,23.985486935715304],[91.35723890334674,23.98467622239189],[91.35553442465529,23.985757682583955],[91.35256333848123,23.981025971628046],[91.34721540798174,23.98321491386857],[91.34412990518656,23.982162966754743],[91.34162536444518,23.983067176369847],[91.33960556091935,23.981722032686942],[91.3352761753233,23.983877952350763],[91.33389660828695,23.98768389781885],[91.32918913436423,23.99189108418116],[91.32501693238333,23.99170869910206],[91.32131122912274,23.9947050579573],[91.3131483989344,23.990709891847214],[91.3007975079071,23.997428352062318],[91.29848169691871,23.994914136474154],[91.30008826463411,23.98845499138892],[91.29352982105159,23.977024472993822],[91.29374083890511,23.97242508457411],[91.29055701370544,23.969433065112515],[91.28385102992239,23.96783736462859],[91.28345287323226,23.9734323214671],[91.28047548807143,23.977405937616936],[91.28193324985999,23.98091554809121],[91.28016383105833,23.982256198301197],[91.26537282825848,23.96151975617083],[91.25737951106255,23.94298088621616],[91.26634222273947,23.93590853688954],[91.26857694729871,23.923435984672587],[91.25584981398266,23.91903627621538],[91.24229699417322,23.920632874319512],[91.23296484404753,23.920164880388565],[91.23903085185252,23.91662765253462],[91.24146273056552,23.91308776731399],[91.24365748368787,23.90903942203129],[91.24311439550478,23.903483886019963],[91.23926370685228,23.900144813639624],[91.22161575512342,23.893133272638927],[91.22034365983272,23.891217933790085],[91.21946155913948,23.87918330677697],[91.22222246828318,23.870319346536157],[91.22615726439908,23.868260972377428],[91.2301954395362,23.855664757683893],[91.24777553971502,23.82978685991727],[91.23765098208392,23.813176378221698],[91.23501824187007,23.812494242775017],[91.23179659580029,23.79779322576125],[91.22794675515742,23.792560196887777],[91.23143259844717,23.784772802167275],[91.23199632722059,23.77551434703155],[91.23107548847733,23.765357279992024],[91.22711199478135,23.759499051907213],[91.22748133621211,23.753370937370686],[91.22077023472684,23.742371395569247],[91.21722668276495,23.742929877353316],[91.2092580216286,23.75196728286767],[91.1927747293774,23.752524005057456],[91.18407866821956,23.751837135136586],[91.17999112347103,23.750127063414045],[91.16730638075495,23.750286782126103],[91.1568211046215,23.742089644566786],[91.15805929479845,23.739166885283385],[91.15483511547959,23.73250903658845],[91.14968521948279,23.713263691878645],[91.15193598076652,23.706726134403734],[91.15354138336697,23.691102398918915],[91.19270700089659,23.693412231336712],[91.1955650843978,23.695696158485354],[91.20157265140364,23.690449695101684],[91.2068287336569,23.689469705754576],[91.20706764060671,23.687710621289174],[91.20405064153847,23.687410850870513],[91.20149702762978,23.684741137583767],[91.20301620992926,23.68388103049337],[91.20029981320624,23.664579118113135],[91.20205136900846,23.661400397447615],[91.20455595286896,23.661471785744233],[91.20532075963722,23.65984090687436],[91.21365513840044,23.659965101240825],[91.2144618021694,23.65663693696492],[91.21393983697189,23.652948391303802],[91.21311616539965,23.65656217243752],[91.2091042031025,23.654661030340737],[91.20546541894069,23.65662603944713],[91.2049361845759,23.655143391760813],[91.20145195196547,23.654773449871122],[91.20265758629817,23.651499699181464],[91.19821129844262,23.650655842156148],[91.19784955945413,23.64759361204722],[91.1909298449054,23.64714785687589],[91.18950682725706,23.648242789086126],[91.19127722522236,23.655080104126988],[91.1825576470687,23.657688051936685],[91.18226528676621,23.656043038201037],[91.17730401182627,23.657521662790483],[91.17063569799632,23.656657015581477],[91.16594494800924,23.662960692209435],[91.16110322715552,23.66431300797549],[91.16075622952081,23.666651328331145],[91.15697016387324,23.67043245465853],[91.1603320818746,23.65268749906364],[91.15855382454887,23.63960276490557],[91.16024847207782,23.631462331454454],[91.15701287337511,23.62333133008343],[91.15919142178807,23.61455039999631],[91.15828374875365,23.609980242574345],[91.16173312403609,23.601117726188836],[91.16028285599366,23.597867721031957],[91.16083594871411,23.594537932324844],[91.16592119475649,23.591898127327713],[91.1739681252052,23.592362952123874],[91.17631457952459,23.591277425917497],[91.1738867522135,23.584417239077784],[91.18557918352745,23.576352309145552],[91.1860455277375,23.571610479929227],[91.19403599188408,23.560730408872004],[91.19313214836772,23.544759851847388],[91.19771618478724,23.54466560962546],[91.20093180405975,23.54738260661212],[91.20424102958147,23.543306580308275],[91.20804470939517,23.542939910163422],[91.20967101579228,23.543828023011816],[91.20915488515251,23.545484282783477],[91.21309434352476,23.54744781890953],[91.21316906269517,23.542759901403603],[91.20780520686233,23.53974322184473],[91.20253628319209,23.525089346193027],[91.20041015506922,23.517709931023735],[91.2019744660336,23.514010043630865],[91.20863139102238,23.50778771800913],[91.21416815637777,23.509711364044193],[91.22477715028873,23.51041706984126],[91.22062515052026,23.496135307289048],[91.22208834262472,23.494334161549176],[91.22594040929286,23.493025563746528],[91.23860350620389,23.498436560728532],[91.2382245599861,23.492852747352384],[91.24140425563039,23.491503244097014],[91.24131321407128,23.485411370736152],[91.25183000759647,23.487852726089727],[91.25484696354557,23.486773589678783],[91.25817667963892,23.47826444047794],[91.25791283725346,23.46138688476903],[91.26178551037593,23.457402411262116],[91.2606314968327,23.45273530352152],[91.26517605588877,23.44757376662248],[91.26647989225171,23.442913034296033],[91.27886250458828,23.43319756097103],[91.27251900988698,23.427268296979946],[91.28355278206152,23.418683476186416],[91.28354614979979,23.38336626953399],[91.29259790338595,23.38103753441681],[91.29552385370857,23.382718893802547],[91.29740416863376,23.38223278913811],[91.29762731464189,23.375943083156745],[91.28749594149274,23.37657504267918],[91.28801017129734,23.3682910009262],[91.29661423059706,23.36530776079723],[91.29262104578432,23.355010725191974],[91.30271318591176,23.355353422644136],[91.3169955616994,23.363414345219322],[91.32348727393102,23.36299756519663],[91.32172015391816,23.35391692377329],[91.31378788802557,23.354351752391928],[91.3125224519461,23.346519867790146],[91.31336039145995,23.340818739193846],[91.30447956301785,23.341496098747914],[91.29595714979764,23.338826220127793],[91.29161777852893,23.32141676293436],[91.28836283460654,23.31450806259328],[91.29502519350447,23.30909879448477],[91.30972376864472,23.30934299531401],[91.3139006777977,23.300630755496478],[91.31575831834678,23.28994468636806],[91.3067972712481,23.293253905570722],[91.29904218367227,23.285252431120174],[91.3020110995166,23.27824282402598],[91.31005897229805,23.275771376496277],[91.31795561909132,23.253096291361434],[91.32647417225071,23.25240364103637],[91.32549356859161,23.247289519357427],[91.31864112438295,23.24561329380408],[91.31859665687806,23.244506388258284],[91.31889608422688,23.24000473671045],[91.32364866525495,23.237681822352076],[91.32471925135944,23.168777275697217],[91.32323288361897,23.158251125722774],[91.33298812497215,23.15304946019328],[91.33703336446067,23.13118972979437],[91.34165648298493,23.128953125890444],[91.34154594079764,23.118307659532196],[91.34740818374675,23.118828003832856],[91.3468549598723,23.10236658771646],[91.36931185203183,23.071058175589314],[91.37291290874835,23.068584026105587],[91.39569789080247,23.056112539593695],[91.39820088823821,23.056626866043853],[91.39905512229299,23.058482363809723],[91.40620797391247,23.059077092118653],[91.41125872374965,23.06231317453906],[91.41579663078106,23.06283132886957],[91.41717820555205,23.065106448848223],[91.41165485833208,23.065536746081005],[91.4109574943804,23.066787502424788],[91.41293458121785,23.069766968264386],[91.41324859720687,23.0758439331041],[91.4159278297283,23.076565651406792],[91.41733041968703,23.083008063349105],[91.40803904858365,23.083452689962066],[91.40504847795108,23.08704718280003],[91.40596345339048,23.097015915748464],[91.4000579664419,23.096556464542335],[91.40319018971667,23.113685425848885],[91.39675273213498,23.117795001647305],[91.39727728717546,23.130359907926614],[91.39179157307768,23.1398507832879],[91.38920563778507,23.15287648359929],[91.38469932270559,23.156303611779574],[91.38510630175014,23.175320164257545],[91.38178075743294,23.175099173948855],[91.38285579738458,23.184679638675785],[91.37978880976573,23.184675176225866],[91.38081965799532,23.19169573713266],[91.38539587907185,23.19183100644342],[91.38762961638263,23.207953278523735],[91.38078649578827,23.20872571459885],[91.38809436787969,23.21472550730108],[91.3919344887512,23.220120416337263],[91.38628340828436,23.227579394085787],[91.40091001040406,23.229270706703545],[91.40026145012513,23.235103993292334],[91.39832697666981,23.23598016280501],[91.39699419928334,23.241280735255636],[91.39244848679046,23.245977346186773],[91.40863850155925,23.247685237767694],[91.4005454812483,23.25624741729535],[91.39719038864644,23.25638042833992],[91.39747240754336,23.265223782895347],[91.40029246895187,23.26581626349824],[91.40542929086801,23.256771981607233],[91.41116766781754,23.255861966612702],[91.40867103584391,23.28530256697274],[91.41330416519374,23.281572876685953],[91.41548372061814,23.282841914019077],[91.41538066139717,23.27955483800458],[91.41761888579276,23.277323971755052],[91.41645310611595,23.275694373331586],[91.41770372448485,23.276283729370626],[91.41955315083896,23.273340889103988],[91.41804298942155,23.269668653083624],[91.41581501121007,23.269588133332224],[91.41732235101917,23.264573481802145],[91.41525545331454,23.26341004510132],[91.41861980664862,23.25834658238207],[91.41818329369251,23.255577593803206],[91.42107717415948,23.261879155420136],[91.42464991238498,23.259758158082537],[91.42479087332443,23.25814386318931],[91.43124643375576,23.26249684194977],[91.44852116512845,23.259950728550702],[91.45409626339362,23.26049556001991],[91.45464408030837,23.255300626085823],[91.45175373740699,23.254825120468546],[91.44963647655428,23.25074255082661],[91.4435743548612,23.24879217140775],[91.44391832158014,23.24670119641528],[91.44560365986781,23.24375904423698],[91.45776817023658,23.24607949547496],[91.47022232530072,23.227811496402744],[91.45377515790034,23.223689439044367],[91.45042169484246,23.219344324548462],[91.45819947925226,23.215835235619192],[91.4585052549952,23.213507530847863],[91.47527355932985,23.220542029324864],[91.48442521635542,23.209404026931526],[91.4823220267133,23.198570830809],[91.47068107245843,23.196524694691742],[91.48494374459864,23.18846088058318],[91.48847213030363,23.19233351291132],[91.49218411458467,23.189011354641213],[91.50310887350457,23.192193899987974],[91.504157910822,23.189395087576987],[91.50099477921323,23.18535769151127],[91.50743554618846,23.18377672529635],[91.50661457495197,23.179981257116356],[91.49727593360002,23.17984867287818],[91.49165100219281,23.177613291580794],[91.49229491369013,23.17200260713584],[91.49814728954415,23.171715365975178],[91.49474261263362,23.162044433342103],[91.49097266545715,23.157789950682623],[91.49432503436705,23.15243997077307],[91.50711451884864,23.15438960907323],[91.49464546971709,23.147173393993413],[91.49648348477214,23.146671230936846],[91.49865864473985,23.142631699748144],[91.50158569909198,23.143218843581685],[91.50448602317448,23.140483002295202],[91.50804248482531,23.13984397255183],[91.50991457477573,23.14057216259696],[91.50967014318695,23.143352526352228],[91.51520987477936,23.145139414045424],[91.51472523817516,23.13870892489314],[91.50305838369401,23.13058414261614],[91.50370966496996,23.1273338929571],[91.51752436883753,23.125547770909993],[91.51414682194685,23.122667918195663],[91.51530518423436,23.117748344764305],[91.51911988996987,23.117854417209973],[91.52028798101192,23.114563325812167],[91.5122002670493,23.11332304088538],[91.51124831605448,23.104298350594043],[91.5222408205232,23.104112761820897],[91.51884431738341,23.094256503518938],[91.52971269174786,23.09179707080278],[91.52985098828415,23.085883864556077],[91.52502687441,23.082924598335843],[91.53395146697615,23.065807942456367],[91.53164827102931,23.06302699615948],[91.52463986671087,23.06149910722697],[91.52365410133214,23.056859419103574],[91.53517895911634,23.05608231313845],[91.53042371188847,23.038392152950884],[91.55025753419821,23.038527545427172],[91.53831078713242,23.019294418943744],[91.54809089834421,23.01932759204756],[91.54228511540903,22.999634694289334],[91.5473676027252,22.99435355037375],[91.55695567568884,22.99674054665442],[91.5572960239938,22.978572468374104],[91.57498556322872,22.96875450004288],[91.5763031375273,22.96572529317993],[91.58970079762591,22.976817420511786],[91.59126705523954,22.976510386953343],[91.59292180679014,22.97294813433458],[91.59810492967266,22.976146248240063],[91.6010111404152,22.97180181816608],[91.60603529473008,22.97212219734071],[91.60509419987551,22.966153714910973],[91.61151590100715,22.96276453555799],[91.61334741764944,22.958971744435424],[91.61137000472353,22.958639622386954],[91.6074747749043,22.96209008835936],[91.60471423945978,22.96256926372815],[91.6006462267805,22.95819959496369],[91.59978341022145,22.954630336723678],[91.6022339128069,22.953965304517997],[91.60878765370889,22.957209479017695],[91.60684213007725,22.95089976894851],[91.61499743867172,22.952109810883883],[91.6157274554857,22.95017960978778],[91.61296975781916,22.949938364975807],[91.61262486853043,22.947983518917788],[91.61399897380986,22.944743280084325],[91.61774111902658,22.943882869045222],[91.61894604009696,22.939183734373383],[91.62544328145916,22.943393279417762],[91.62406322933255,22.95006709201755],[91.62726009986676,22.95550812373837],[91.62521592504727,22.961876933683197],[91.63172696632884,22.959188931100453],[91.63720615236943,22.962352608548983],[91.64130663016309,22.974724854235358],[91.64581878339358,22.976622560173944],[91.64560780596427,22.984716690168145],[91.64982583460106,22.983168231627637],[91.65150626359573,22.9762310704243],[91.65689127205856,22.977460357561014],[91.65847190361504,22.981755787018486],[91.66267202882825,22.97933631058338],[91.66615010258907,22.980884543436],[91.66899239101267,22.978098003472255],[91.67338570880918,22.9779000518556],[91.67719156074922,22.980303082996965],[91.68424193166275,22.977337566639605],[91.68663278790999,22.981037385033304],[91.69121004923564,22.983585367352028],[91.69395108045872,22.988194381064208],[91.70365306788518,22.98830988142862],[91.70542563168866,22.98451543281231],[91.71009550213361,22.98273794599509],[91.71245488590483,22.98401951403619],[91.7129723523394,22.989448112860583],[91.7172721114974,22.987072600985673],[91.71970164740411,22.987447040890306],[91.72160078652603,22.988758832274172],[91.72338434840353,22.995208804328097],[91.72650969507482,22.998993051888135],[91.74397896021557,23.006920747630243],[91.75411864098444,23.022544629178167],[91.76106216537977,23.025579328385636],[91.76159518255025,23.029837254330864],[91.76833834850126,23.033986663589634],[91.77183674844204,23.033090541170562],[91.76809023202316,23.039467613398756],[91.76892310863208,23.04122448682867],[91.77154727532489,23.041709328234955],[91.7746377817362,23.038447047014788],[91.77300334917905,23.032102527671498],[91.7737234351175,23.027962762106906],[91.7762656449137,23.026894308220786],[91.78028847862242,23.028996203129932],[91.77929311474487,23.036490474485166],[91.78209967806792,23.034180432544755],[91.7841505866588,23.03844828122991],[91.78200463720918,23.044840151122077],[91.7824510936172,23.04851101583553],[91.77743974478668,23.056549143281934],[91.77951747797023,23.057674636933672],[91.77897848610483,23.06097470664233],[91.7738466067194,23.066213289624137],[91.7744443439128,23.06956374107496],[91.78399702055928,23.071592240393343],[91.78618033363655,23.068333671825005],[91.78922067093585,23.067495566951678],[91.78797987923787,23.069865232867457],[91.78942790598369,23.07170810320745],[91.79013227859124,23.068873136928616],[91.79373829400812,23.06882081488211],[91.79561286330872,23.067318334422154],[91.79335045177407,23.06459919747159],[91.79416159544135,23.062414377908095],[91.79899554137629,23.064922605261692],[91.80573471162091,23.063268730666344],[91.80606969518698,23.066831090051455],[91.81199841975531,23.066215059981555],[91.8112404806074,23.069844751163377],[91.81353830103556,23.07070349571031],[91.8128541045893,23.072992227356],[91.81778261976748,23.07276839898539],[91.81566406174748,23.07469995674252],[91.81758127587128,23.076014511498855],[91.81723376979014,23.07857887037556],[91.81477336687195,23.080650285492812],[91.81790533682181,23.083030784229212],[91.8198976303404,23.079852973117017],[91.82416129519027,23.083452824663873],[91.82217405918674,23.086228806067282],[91.82785354797609,23.08902084080409],[91.82984384184486,23.09174846216044],[91.8313621042695,23.089956415239637],[91.83517261127933,23.093312051174177],[91.83128727640297,23.095252437992702],[91.83016893046809,23.0975366342502],[91.82550257513086,23.099246405126863],[91.82042657904096,23.09977748328378],[91.8201541272018,23.097610258819497],[91.8135550950398,23.098966752124998],[91.81767303698092,23.102056536697052],[91.818095001721,23.10854905501408],[91.81618103590529,23.110006716098386],[91.81798136932913,23.11185396774779],[91.81534725469288,23.119392861009228],[91.81302859424841,23.119468697644688],[91.81140210908659,23.121761634965786],[91.81514627910593,23.13279746825699],[91.8086526947853,23.134524091398287],[91.80867010054222,23.13890797918012],[91.81120156558929,23.143857390536603],[91.81313999971668,23.143384071333195],[91.81451123038721,23.14487905570295],[91.81073013062648,23.149911605580996],[91.8107773927902,23.15314431871023],[91.80648834604202,23.15758055152081],[91.80738924577919,23.162651144496575],[91.80996132635521,23.165094774246498],[91.80528704428392,23.16765271643293],[91.8056462437351,23.171896877315003],[91.80707192758317,23.17234447231951],[91.80583486209699,23.175716474111496],[91.80473174440283,23.174686619851663],[91.80319247218031,23.176627334220424],[91.80618444598139,23.179761978952193],[91.79517913872323,23.18681261241145],[91.79852415312588,23.190893510243285],[91.7985139608407,23.193889688404372],[91.78936052335423,23.203759124373704],[91.7886107939097,23.20769110790921],[91.7928006828202,23.20930064417817],[91.79232144598916,23.210225998668985],[91.79143298702037,23.20933157422184],[91.79146527875986,23.21242424686833],[91.78863021907938,23.215510882302688],[91.79204101261874,23.21812014153653],[91.79084918000204,23.2215258012702],[91.79184818025983,23.2254090847831],[91.7903144425578,23.225078718527946],[91.79142255308834,23.22655565018705],[91.7888425709311,23.227398503992497],[91.78479940565254,23.23215490728569],[91.78590384926007,23.23912190597716],[91.78391744868976,23.243454974575602],[91.78102551577032,23.242712800805634],[91.7817205872214,23.24090282527871],[91.78020704185032,23.23941646913596],[91.77686215141516,23.24366742036685],[91.78057790592548,23.247060337279766],[91.77838259045774,23.25621930918125],[91.77550942064964,23.25625359980864],[91.7774953828421,23.260092459339624],[91.77576936255015,23.261648998990502],[91.77694607921556,23.269717658444566],[91.77089436540335,23.270295568460792],[91.76907101175205,23.272448991183825],[91.76664686034714,23.271486431020005],[91.76357591475113,23.276809691918608],[91.76154354559108,23.2766800812796],[91.76253224935908,23.280383136600424],[91.75989844015002,23.282805138247795],[91.76165196595768,23.284984496090352],[91.76088416779952,23.291308608949187],[91.76335157757693,23.29353775240561],[91.76143256143268,23.2957785622926],[91.76463069320154,23.304894341944667],[91.76441800358333,23.30990280456513],[91.7713624999558,23.313652094902103],[91.77316581398973,23.31612755771126],[91.77794871315868,23.317132114879747],[91.78310724016869,23.32465858505439],[91.80392151342387,23.33212064578225],[91.80745526296941,23.336886596102268],[91.80651986343375,23.340127761947652],[91.80995987467769,23.344481517232776],[91.8154310693055,23.344750011995654],[91.81863599054132,23.351094465471505],[91.8243710580973,23.352649464589298],[91.82547722826682,23.363318202122887],[91.82849825717742,23.366456866091834],[91.83092922320209,23.365062524838887],[91.83222370630627,23.369546008947697],[91.83757349182682,23.370992101991522],[91.83643487271262,23.38556089224951],[91.84235222191448,23.388912115727656],[91.84113349463652,23.399991121859273],[91.84290549070472,23.399531196236683],[91.84267834090537,23.40207346510878],[91.8414867966479,23.409184921340827],[91.83895075019288,23.412927699442704],[91.84002211244174,23.41589768942197],[91.8385549767332,23.42015643771772],[91.83870894348132,23.422323648714514],[91.84316820929779,23.42449522338494],[91.8412848499821,23.428466257441407],[91.83819266282292,23.428463106311995],[91.83995789008544,23.432510818073975],[91.83748876991572,23.434185777240547],[91.83493418852147,23.442076436013217],[91.82868716659345,23.442839399202725],[91.82819936791945,23.446340265057437],[91.83175040464432,23.450525804572862],[91.82908385094484,23.452301959106652],[91.82914001451472,23.45546581053255],[91.82609731644283,23.461683032456307],[91.82704654464396,23.46301109027157],[91.82376351579256,23.46777465603297],[91.81333165887581,23.468812498017282],[91.81275207393935,23.473102528973904],[91.81034824152783,23.47475388420166],[91.81115504363736,23.47639312060572],[91.80824271896095,23.476843376687505],[91.80873578086423,23.479367246578715],[91.80558382968746,23.479248491514504],[91.80668332447613,23.48287427895143],[91.80448951458477,23.48477852401282],[91.80137191678115,23.48427139763542],[91.79778123650446,23.489416378055406],[91.80066327897262,23.492759397273833],[91.79806875039598,23.4975707119099],[91.80070842380722,23.498887824034036],[91.80160053263103,23.50391775184293],[91.79853042785815,23.506219064600856],[91.80423525542675,23.51250161564546],[91.80113421626874,23.517800066652942],[91.81543176909312,23.504286527558467]]]}}]}