{"type":"FeatureCollection","features":[{"type":"Feature","properties":{"shapeName":"Uttarākhand","shapeISO":"IN-UT","shapeID":"1811400B3558497485804","shapeGroup":"IND","shapeType":"ADM1","displayName":"Uttarakhand","coverage":"context"},"geometry":{"type":"Polygon","coordinates":[[[80.06508911589948,28.836732767314864],[80.05891981980312,28.91576231694443],[80.0966744148884,28.975724027007736],[80.10085512211842,28.986806142888486],[80.1180350318213,28.981437482867637],[80.12688897099203,29.005545104471558],[80.13584937489695,29.00736712913586],[80.13496976343536,29.00929009585681],[80.12477887869528,29.01153057641818],[80.13134105747271,29.029740137117393],[80.12585709149653,29.031170685160784],[80.13818329592146,29.06010142184383],[80.1294515815283,29.06128674264076],[80.14463722052066,29.102582111564523],[80.16148808991139,29.113462394322838],[80.16586427863204,29.125841890122054],[80.17739338185429,29.12765857319629],[80.18351405214432,29.136408674491467],[80.1967969892963,29.130193491137458],[80.20142117951072,29.129738288378924],[80.20979067611334,29.120745891729484],[80.22411503197087,29.1210676549564],[80.23332552146101,29.119256644742382],[80.23941174046159,29.122138359375352],[80.24778858618151,29.13159571000109],[80.2546989519631,29.132035462847803],[80.25556878166957,29.135142389843853],[80.25868279070365,29.137771838131446],[80.27125244126555,29.140385592764037],[80.26902815063832,29.14992242954522],[80.26153007645516,29.15707972146422],[80.25811570402773,29.16593572520975],[80.25795174801365,29.170162248217988],[80.26091989579841,29.174819523321574],[80.25821592097915,29.182897140747453],[80.25852867932677,29.187842919137257],[80.25330919353988,29.19114868814877],[80.24479088921382,29.200006671105232],[80.24108470625288,29.201476690869768],[80.24411842207022,29.212715210796183],[80.24747988911732,29.215336724512284],[80.24676201572937,29.21851466677865],[80.24803862685098,29.22086983715506],[80.25497885622588,29.220557025557046],[80.25571682402838,29.21180094655677],[80.25875255117369,29.20705859015468],[80.26359743948709,29.205127254085145],[80.27004655270963,29.208361853393008],[80.27610243829798,29.207105625481297],[80.27914442310755,29.20077093019396],[80.28650617525139,29.194646394354752],[80.28932461789576,29.19465089409531],[80.29212698339147,29.196995740241956],[80.29789186872671,29.205209714465912],[80.29722942947664,29.208162430326908],[80.29377479365985,29.210987648196078],[80.29599799463062,29.221581422475808],[80.29115890494239,29.22833159318107],[80.29084628942688,29.233216468168013],[80.29989821818455,29.241992419236116],[80.29713213833811,29.25029698286366],[80.30003271215226,29.255496874466655],[80.29968709432985,29.262120653670458],[80.3022047118468,29.264989095348124],[80.3045204365969,29.27220476105858],[80.30513182548772,29.287109691529572],[80.31163236636195,29.29103367336916],[80.31836276725278,29.301448849633783],[80.31601793439249,29.30828126424686],[80.31762663291174,29.313091090011355],[80.30762378712016,29.32208338339055],[80.3000061956817,29.32332887370972],[80.29371506377831,29.327388523646228],[80.2911089244766,29.332597777209905],[80.29103408942355,29.33694430236827],[80.28092106256746,29.345990710305035],[80.27967039119797,29.35780054731762],[80.27169691958329,29.362906455066444],[80.2720377808263,29.372642786187527],[80.27903495710198,29.378077440487214],[80.27281005079796,29.384802984231307],[80.27508231954619,29.391383444596254],[80.27193574119316,29.393925428027284],[80.26267654055674,29.39666396632423],[80.24916869130874,29.405227852709825],[80.24294543520986,29.41102109921091],[80.24547700086825,29.415510424088325],[80.24444707970007,29.424477460597988],[80.24737798692641,29.4340493514356],[80.24212843632361,29.44273074324496],[80.2449061394715,29.44790980682398],[80.25276931503728,29.44708451357449],[80.25587601807315,29.45014759813577],[80.26389388353086,29.44788736938232],[80.27214182639746,29.448629044551097],[80.27302068147756,29.450977489466393],[80.2684427203643,29.452551761426875],[80.26781799957638,29.45434320591847],[80.27520776478403,29.457053707726736],[80.28061687774088,29.455477816854405],[80.2788834256866,29.449871792229963],[80.28576495824247,29.449374877404065],[80.29316587423777,29.452252410912816],[80.29609035940817,29.44996243822319],[80.30042787745246,29.4504579929924],[80.29937421560797,29.45529965248527],[80.29201921160852,29.462931579987746],[80.28545219719992,29.475307953140437],[80.2928109714286,29.477737858706146],[80.29721608769802,29.488173308142237],[80.29978440523134,29.48810329978995],[80.30383388836124,29.48361999025469],[80.31254956782661,29.482857422919217],[80.31390474290802,29.487708199864457],[80.31198218740157,29.494462783842238],[80.31515160272573,29.500163106059798],[80.32915337895462,29.50565398515424],[80.3327686793583,29.511637172005116],[80.34196446163058,29.510765320061882],[80.34813501536837,29.518469867987058],[80.34917512792343,29.523845908682787],[80.35400605102747,29.526065411869777],[80.35777143745722,29.53145719626234],[80.35627884169688,29.53399653750104],[80.3523841149342,29.535819647452502],[80.34887425967689,29.541161640707124],[80.3416489203022,29.541155199288536],[80.34521758556622,29.54774994347586],[80.34483005055601,29.552210569443105],[80.34973819913006,29.554845289702747],[80.36066854826593,29.556089260051298],[80.36441693946884,29.56377605730754],[80.37941244104816,29.561205674444228],[80.38074443779861,29.571455401992758],[80.39035278124666,29.57320322873993],[80.39195207440484,29.580675711167906],[80.40461273688143,29.590110058339953],[80.4092394693281,29.597530812066505],[80.40920094687377,29.608504430019188],[80.40596290385514,29.612709570784777],[80.40920641312228,29.61766341478622],[80.41025272944272,29.623846824436484],[80.4200259200336,29.628586932631297],[80.41974067887972,29.640303722865504],[80.41462809530661,29.645278658481068],[80.41593077374111,29.65312222462865],[80.410204655202,29.654426430451355],[80.40847484491785,29.661009861522235],[80.40024095619385,29.66085557195744],[80.3991743837621,29.66378706054804],[80.39212225304891,29.66542171714293],[80.39032592161963,29.667174613766058],[80.39006589348088,29.6719837409815],[80.38547323952281,29.67595079168408],[80.38537414726216,29.684256450773344],[80.38123496465613,29.689358719394974],[80.38081272503156,29.698495434909315],[80.37382716037926,29.714509761778825],[80.37654098432733,29.71773799629306],[80.37634678473258,29.719727229586873],[80.36804640271127,29.72374569404256],[80.36838946841996,29.729601895880737],[80.37095495895504,29.73339867563248],[80.36611856600923,29.740577777846795],[80.36797056513835,29.748572020653615],[80.36964866120822,29.74989793755664],[80.38532247167542,29.750884933333953],[80.38591788313059,29.756597823551072],[80.38913569788564,29.76005299064843],[80.39756036631805,29.75871386799208],[80.39759351864363,29.765157022281418],[80.40150749809948,29.774656627018985],[80.40471298168063,29.777821939008085],[80.40452957264908,29.781831858267317],[80.40722700234318,29.78365829535954],[80.40733588893538,29.794249673499806],[80.41315133504808,29.79119041170342],[80.4163106425287,29.795020163412108],[80.42809458072904,29.797733821561252],[80.43486716830222,29.80474813882364],[80.43726271914508,29.80437721393601],[80.44402614300408,29.79841991904168],[80.44866067642067,29.798642994871898],[80.45471706506561,29.801123890674],[80.46429123839685,29.800925218567485],[80.47907784394337,29.79467521665832],[80.49342091979308,29.794642883271763],[80.4947948031886,29.797029291592438],[80.49256060773705,29.80077741761409],[80.49508463473356,29.80184708842007],[80.4957038731033,29.80452519976669],[80.49877532534913,29.807190403084352],[80.49783717068047,29.810757654462833],[80.50039888290148,29.815466747250507],[80.50710573355882,29.82235116071652],[80.52221308437413,29.82693448918108],[80.52388873073822,29.83132469540554],[80.52858714335467,29.833543090125232],[80.53113027122907,29.837356555547224],[80.5365051170511,29.838301972067278],[80.53886481613102,29.845763428998243],[80.544788331369,29.845774357638025],[80.54761063227751,29.848766871226246],[80.55351305058106,29.849279596748175],[80.5523861122605,29.854805893639423],[80.55493736988821,29.86015564006882],[80.56205367983857,29.866370628790452],[80.55819948146822,29.869262913622265],[80.55834758221758,29.870809455119694],[80.56624581094403,29.878158654301323],[80.57186745182237,29.891252616311398],[80.57053580541489,29.908284121939317],[80.57254270015008,29.917527833958804],[80.58341065410299,29.93770090840416],[80.59309973723043,29.94932329832868],[80.60194777716468,29.956993948377093],[80.60577795907588,29.958413789226135],[80.61162150538897,29.957807970602087],[80.62289275709034,29.962763917615064],[80.62942762079494,29.963885955839693],[80.63801677255252,29.961865150523632],[80.64127007435454,29.958594865932977],[80.6514012938918,29.954661899972578],[80.67533077992354,29.957299044925527],[80.68277707431541,29.963618865844996],[80.69023256116758,29.973523395818216],[80.70158922648282,29.98025567492053],[80.7047430722065,29.984451920695808],[80.71208115643755,29.989828180138755],[80.71881768473695,30.00055532924009],[80.73613957227214,29.999671949958593],[80.74395971943412,30.00448230475528],[80.75041412103874,30.011479158089724],[80.75273848758188,30.02046698286082],[80.7566731956629,30.024239104178964],[80.75587210773693,30.03983257219967],[80.75813929471562,30.045765139949047],[80.76175047634369,30.049898531220038],[80.77944952514423,30.057053732599297],[80.78435477215992,30.062381779531652],[80.79048083952817,30.073835996435363],[80.80533282715601,30.089934799091875],[80.80971002198977,30.091493411141865],[80.81519930329756,30.097071166336946],[80.8225305800954,30.100103169701214],[80.82896933843763,30.09765327242936],[80.83673562261518,30.098221688730934],[80.84549751411369,30.104414342021453],[80.84526186086184,30.107813539530607],[80.84098565912387,30.111304866929732],[80.84284421505623,30.115342666773177],[80.8515813615619,30.118071132542685],[80.85708091600324,30.12155901891495],[80.86214820562147,30.12121912421512],[80.86581854759919,30.12353237249862],[80.8709825166032,30.123364699458772],[80.87687052323467,30.128630922883943],[80.87809238383635,30.133656913498392],[80.87145157911534,30.153731601712348],[80.87153331592472,30.160309562704732],[80.8623931276904,30.169562661519336],[80.88001815800648,30.18259408074021],[80.88393311572766,30.18840057852721],[80.88344862914211,30.19499630044928],[80.89288226913197,30.206183074236577],[80.89499808369706,30.211559384082573],[80.90738921296088,30.22268457993899],[80.91502625023027,30.220330716697603],[80.91970378150798,30.215718081688927],[80.9222252240514,30.207595373950724],[80.92096797072584,30.20284348639542],[80.91620306930362,30.196838230789833],[80.91617132194317,30.18794153329198],[80.92843542313759,30.174767486211472],[80.9336678877837,30.17807476756803],[80.94010172695148,30.178013462470776],[80.94104418365201,30.180334596058113],[80.95235804693888,30.18486116844223],[80.97090086981106,30.18672932659444],[80.96951942888907,30.18963250726051],[80.97434915184384,30.192528827043947],[80.98570499879386,30.186814446815177],[80.9951929644005,30.186445865580215],[81.00032724318606,30.191812712980028],[81.00684946400138,30.19171721197286],[81.00888031051701,30.19464827330309],[81.0222799082817,30.19637206707128],[81.02796859312465,30.195351873245034],[81.03453157050438,30.19755013199289],[81.03658033391835,30.199381439265313],[81.03448097020109,30.201584145975243],[81.03531972718183,30.203087402549176],[81.0392393309897,30.20322794659857],[81.04445295976095,30.206082909700424],[81.04515135587688,30.210972112092865],[81.04104903384194,30.21552415906543],[81.03645193861311,30.216721769969354],[81.03458535713203,30.21893210871317],[81.0301737532296,30.219539650422554],[81.03093740745935,30.225946086882935],[81.02676465301458,30.227278674521518],[81.03074366690372,30.235633062178366],[81.02939329331751,30.240065911356115],[81.03211977991779,30.246809140811962],[81.02851351387096,30.248818756080247],[81.0235670332854,30.248941969454464],[81.01942195773117,30.2530400005017],[81.01143050723438,30.255697643631418],[81.00826520349926,30.25903618861892],[81.00816421579333,30.262073020004866],[80.99960670000512,30.26753834122115],[80.98737218392627,30.268734256315668],[80.98184305245418,30.2720482486381],[80.96033493933817,30.26953996016793],[80.95619806719908,30.270857743447333],[80.94914796398348,30.270075995878074],[80.93941059191793,30.266713649502563],[80.93549468467751,30.262883145257423],[80.9263464403517,30.26838955004602],[80.92563690512624,30.273540075567436],[80.93038617316755,30.276181070138357],[80.93136559015215,30.278546686066203],[80.92689887370872,30.283289992578307],[80.91441011553984,30.28854506121201],[80.90735870797047,30.29751125159885],[80.9085197921533,30.30368189894088],[80.89020278777724,30.3028271610336],[80.88439333432581,30.299726975952577],[80.8808690260739,30.302414113904124],[80.87337705324816,30.302698712648713],[80.87244571409757,30.307077152937065],[80.86731803882763,30.30956839888702],[80.86377497554925,30.314118239856082],[80.84723523226727,30.317533355630403],[80.83842450745162,30.31415141142313],[80.8267412398519,30.314419222462718],[80.81813106751666,30.32218611201713],[80.80368100501157,30.32350616640053],[80.80198443329127,30.325495091397865],[80.80117471614865,30.333534688288825],[80.79022150399047,30.3394072281631],[80.78681291940842,30.342751677735855],[80.7853215049327,30.347542740242904],[80.78666866434682,30.35386148808162],[80.77979315229996,30.355355423426964],[80.77284156372832,30.365778885011316],[80.76942595342243,30.366545619617938],[80.7655570361562,30.37152832728067],[80.76181884083178,30.3724410918231],[80.75858775706166,30.37609132155036],[80.7507965293636,30.379364681236414],[80.74862549805293,30.386844675003744],[80.74428322342919,30.389499741547148],[80.73439419508243,30.399907499843803],[80.72698300595356,30.40326662051654],[80.71506940672177,30.41424703917973],[80.70830850623042,30.41754232871884],[80.70474130701697,30.417352755941135],[80.69978840347717,30.41304404794291],[80.69421354236724,30.41284191849426],[80.68968081142852,30.41432651600044],[80.68727487336601,30.419492850035887],[80.67789953224144,30.42291286808556],[80.67843253414053,30.427441589312902],[80.6771089617908,30.429152439132462],[80.66816105165483,30.433880289464433],[80.65830443542184,30.44252940625271],[80.64863014125892,30.445571246155346],[80.64079501468962,30.45050801350041],[80.63704398782966,30.450215640671953],[80.63118650954482,30.45631066559338],[80.62735843597962,30.457336264821176],[80.62391570284032,30.462495151301535],[80.61295665881934,30.458486207685127],[80.60843952173563,30.463717299793096],[80.6072084237579,30.471684952662237],[80.59858461858992,30.470931677847148],[80.59585158955942,30.467155403973276],[80.58257940973293,30.467448688393972],[80.57514753419966,30.46327458163659],[80.56552441705848,30.463208234367837],[80.56464128420099,30.458788157545982],[80.55883331476642,30.452969945287197],[80.54859969267667,30.44788393940399],[80.54094799759679,30.4482695632563],[80.52836918871054,30.4571270775299],[80.52439035268782,30.466111034166044],[80.51987329824915,30.470861012402363],[80.51427459136,30.47110931213737],[80.50732617743456,30.474385871105696],[80.50427495794389,30.48062588684494],[80.49835450775767,30.48717279103878],[80.48947614519098,30.48434780003796],[80.48330567499653,30.489563181400445],[80.47820154367191,30.49049311056555],[80.4743970760357,30.489579895716144],[80.46933562367023,30.49171198007436],[80.46613987692845,30.490485570925884],[80.45226208707342,30.497060839821877],[80.44492252960526,30.49741112313598],[80.44305586547918,30.502172366760256],[80.43220668631574,30.508437707598826],[80.42915082163671,30.513939541562703],[80.4214722947776,30.515157277595243],[80.41655409225888,30.51788210703432],[80.41562594841577,30.520626358801483],[80.41778821576254,30.524362450937915],[80.41057750006236,30.52551905529911],[80.40564689630114,30.521284955159675],[80.40214803193135,30.52120452320226],[80.40042738536143,30.519486413897223],[80.38594856688574,30.518085988123808],[80.38000772943413,30.519475810473264],[80.37768986849026,30.52415325370036],[80.3657887208066,30.528367335529413],[80.36079262896288,30.524696262690348],[80.35681331144315,30.524556524978383],[80.34691265440505,30.520846139822194],[80.33934468410628,30.525256926299864],[80.33215397388746,30.538228474035073],[80.3261003996643,30.54081415535059],[80.32246173048684,30.54426587332968],[80.31825598631156,30.55397399943499],[80.31773932746243,30.561962408981323],[80.31543681064194,30.564965816629215],[80.28342380308499,30.570002824823373],[80.26758816111933,30.567446258117226],[80.26105965209707,30.568555412962574],[80.2544402380596,30.564537570515654],[80.23520108968819,30.581416591335948],[80.23214830712894,30.57972719031449],[80.22211965902748,30.579019421777268],[80.2126039471566,30.584186140897344],[80.20931673754588,30.588324535932898],[80.21513284751353,30.60366954708577],[80.21479401017488,30.608505113059795],[80.21735556429238,30.610441235613738],[80.2161742392696,30.61508663118614],[80.21181090454233,30.618333874465154],[80.21178171558378,30.61970883163353],[80.21477418166162,30.62111627754108],[80.2123209068752,30.627028828982375],[80.21975692813349,30.63436692460492],[80.21980315364138,30.642461240038728],[80.20709689447762,30.650708575232372],[80.19340195041042,30.66745045812803],[80.19709709846643,30.67291780143882],[80.19588962887558,30.675268158279454],[80.19837284990031,30.68660897015744],[80.2039267613995,30.688131643973357],[80.21768325084344,30.68761325440225],[80.23252178170831,30.691116143190857],[80.23404199976532,30.698287847312013],[80.23330429606746,30.709122307654074],[80.24078128858754,30.71269830487032],[80.24873178489052,30.719875657172214],[80.24757072496219,30.72488497152457],[80.24950512206073,30.731593419159932],[80.24923841854107,30.74433176855788],[80.24381860036098,30.74494573839883],[80.24111369219214,30.74905061070266],[80.23712271004844,30.750781384506904],[80.23595142100399,30.759293602442156],[80.23228673571761,30.760250639222182],[80.22716671139895,30.75910809191232],[80.21397112642518,30.751388734965513],[80.20896455753031,30.752450673075177],[80.20479593803077,30.758694588707918],[80.1976751553686,30.761690674555137],[80.19343754705187,30.766294522520056],[80.19278840646128,30.76983859537521],[80.19855942639155,30.775250295911597],[80.1993405519553,30.77905644459445],[80.19210761462992,30.780987438723056],[80.19006237800176,30.785220909727794],[80.18378463458933,30.79119297097365],[80.17795449922512,30.805070110701728],[80.17222848219564,30.80863804380835],[80.1694967108065,30.806775156069627],[80.15847122648877,30.806918055493636],[80.15545556501198,30.804810203398663],[80.15487477004481,30.79452081880289],[80.15181163799517,30.78907706931591],[80.14144639474998,30.792440952873747],[80.13753644154326,30.790408850707404],[80.1377511703372,30.787266018502464],[80.12803088961827,30.78660950717871],[80.12423723320653,30.780506069510917],[80.11853940710724,30.779850616456685],[80.11415351208994,30.78151222658894],[80.1095026365217,30.779951085759805],[80.09713606180787,30.79241640966831],[80.08679117977692,30.796229090071964],[80.08175667237839,30.80876416781537],[80.07333678208494,30.82158293305452],[80.05506795615422,30.838248680283595],[80.05476428785894,30.842809090917697],[80.0530833728757,30.844449069204682],[80.05039731854806,30.84501521845197],[80.04740392001895,30.841624144631307],[80.04179040709728,30.839251250990184],[80.03615718334166,30.84320983268866],[80.03270638692443,30.842664048309118],[80.02755407984942,30.850466366143355],[80.01683136012177,30.858419748855273],[80.00947134981125,30.86859563473142],[79.99990278017076,30.86865698145866],[79.99698550038728,30.86610969638795],[79.99469240869072,30.87201896742828],[79.99088275418211,30.87631566629012],[79.96865247822267,30.881440053035934],[79.96273603811585,30.888760296267098],[79.95014773852864,30.88327678275134],[79.94022513025826,30.884573237732877],[79.93461758843829,30.88005757288947],[79.93221439832224,30.879962915819796],[79.91068907887524,30.91330015216386],[79.90892918940213,30.914815578803463],[79.88886755792964,30.918269054953914],[79.88638555591875,30.9303622422312],[79.88880775079295,30.9379456453091],[79.88327681999539,30.940324535660768],[79.8837328695123,30.945234828634916],[79.88125803246412,30.94887936205337],[79.8822582777869,30.95411487661054],[79.87798072857599,30.958949306049025],[79.87442186123681,30.96730395247453],[79.86481691521719,30.972724802094774],[79.85574202911413,30.976489415483748],[79.84960761819353,30.97364998615951],[79.84273632283858,30.973914211025235],[79.83846517142916,30.97221330167947],[79.82987533066374,30.973107017061324],[79.81716206553904,30.971685272361917],[79.80753230445805,30.980195966209436],[79.80167596883025,30.9776213277225],[79.79693972905551,30.97871651368489],[79.79370846202907,30.98174480208968],[79.79179374432348,30.986606726542664],[79.77538908071077,30.98692780911981],[79.77069051807565,30.989944525112772],[79.76222164714137,30.999918126834984],[79.75643098285242,31.002133549495746],[79.75319740446078,31.00641602346287],[79.74687762707958,31.00159706028076],[79.7370599842552,30.98111307667412],[79.73187598641363,30.97871610549043],[79.716889624294,30.97509805347974],[79.71022648835333,30.976696601136727],[79.69922594665779,30.970614973173557],[79.68921314843118,30.97392428931482],[79.67383204950772,30.982396580305245],[79.66542521173537,30.982679157419913],[79.66320736562199,30.976910578671188],[79.66486879075681,30.968435643962124],[79.66343354973243,30.965550592238053],[79.65749876423088,30.96207375805742],[79.64861562622016,30.960396615711375],[79.63673632197096,30.9534316462737],[79.61977339763001,30.950204736994444],[79.61398596458112,30.9442292572489],[79.60559284498147,30.94034968053176],[79.6030285060866,30.93347823691095],[79.60105851683821,30.933221732774264],[79.60090760975193,30.939330302082208],[79.59181112814946,30.94539914895097],[79.57851392036083,30.94910625402651],[79.56913408676152,30.94920016166799],[79.56433580933327,30.955514407516805],[79.55526375831322,30.955864971699352],[79.55257571152227,30.958048845504088],[79.54612005856445,30.969253488453816],[79.53900922294746,30.974691683436106],[79.53910752469066,30.978975527376242],[79.54616041897185,30.98406328361084],[79.54790085812246,30.989636746755988],[79.52657130493209,30.98887849140988],[79.51609024099902,30.997177657426416],[79.52013177134374,31.005541805219586],[79.51637238835502,31.01184875351565],[79.50842997868624,31.014974613979522],[79.50797344497738,31.020729953575213],[79.50992036638762,31.025898913761534],[79.506926048882,31.0321153765987],[79.49048615064889,31.031482938790354],[79.48186696821136,31.03440535110725],[79.4770820631044,31.033478916744638],[79.46988460563948,31.035475284677926],[79.45285362313601,31.031173196951457],[79.43380852074745,31.022822146031128],[79.42643459014326,31.024027844608636],[79.41735029598424,31.044482567018704],[79.4157663397629,31.052873760557265],[79.41625376114449,31.072488743049917],[79.41213242716486,31.07628500195939],[79.4143349129852,31.09270661864407],[79.40949285795817,31.10836240729762],[79.40333573044067,31.113791450536194],[79.38901989690024,31.11691849464022],[79.38229011405035,31.115000352354503],[79.37729324785884,31.115542921830205],[79.37409974331203,31.113366567971],[79.37164259499008,31.113458088043906],[79.3632548446209,31.1187381634007],[79.36210258638575,31.123087137414775],[79.34912893918607,31.121016973969663],[79.3441962450452,31.12453679470709],[79.33695346937084,31.126624337260782],[79.33517574384776,31.132497335541238],[79.32599986105562,31.131248377758354],[79.31836049535299,31.135910728952112],[79.3065551601809,31.15259893302171],[79.30573384758462,31.162796826494787],[79.300898608974,31.16671286517906],[79.30503246636698,31.171247490199722],[79.3053370617236,31.174428320056112],[79.30048378673872,31.18774374908625],[79.30146191913245,31.19436536344767],[79.29994960894491,31.207177113592746],[79.29629322768498,31.217550701048154],[79.28611322603456,31.225000337392174],[79.28145792536523,31.235179563945547],[79.27891716006003,31.237174214945345],[79.25821676713173,31.237028065979697],[79.25112930567839,31.24115880071735],[79.2471261271081,31.247416619034805],[79.2396146096367,31.24993671906137],[79.23495189517133,31.253693696032702],[79.22188340653891,31.259934817311585],[79.22244459128342,31.262943366903645],[79.22925275843006,31.267505125080053],[79.23556494414878,31.2689683818124],[79.24313822888081,31.275098287993675],[79.24354318671594,31.279975867789474],[79.24581643462781,31.28268736120805],[79.24659930561815,31.29165263701908],[79.2427310926311,31.29506981525787],[79.22594817180844,31.301362682463058],[79.22238042372436,31.309344448369536],[79.2171826115903,31.312366756678298],[79.22129733486776,31.324740627126225],[79.2333076080955,31.333854981710488],[79.22949017866809,31.33536051638446],[79.22502237256822,31.340145184840782],[79.21998138023164,31.34117380784237],[79.21156629233171,31.34987233849441],[79.20118508602397,31.350639145546154],[79.19370531142143,31.35308839448904],[79.18854407778747,31.35267514640606],[79.1773942549563,31.358436058323136],[79.17069436085254,31.358803902883746],[79.16688692338602,31.360972683633037],[79.1665891588188,31.373739418890725],[79.17365508406147,31.383704235627473],[79.16799561871977,31.391007986117245],[79.16801410335337,31.396533241643542],[79.16311325987924,31.39789303789778],[79.15360393592834,31.403770860053424],[79.15184430786499,31.408359006643636],[79.14452392224166,31.413873600302],[79.13875464234805,31.425945364108678],[79.13899054533155,31.433631297952132],[79.1157428599392,31.43723914387743],[79.11173248316852,31.440180521953287],[79.10489397542317,31.442268697442426],[79.10294071280535,31.44650869292059],[79.09861384608537,31.448492605000524],[79.09609469604253,31.451690928768688],[79.08337866320845,31.446012879048162],[79.07730657291064,31.450201779797847],[79.07572621534034,31.454111180145215],[79.07418147776764,31.453358275335336],[79.07162449966819,31.456126767118253],[79.06606581811486,31.447060972851165],[79.06726884194337,31.437666445256127],[79.0595628122635,31.42975087664393],[79.05871782546623,31.42628442812601],[79.05051216450344,31.426638681442498],[79.04764596023203,31.422544261002056],[79.04189110548529,31.42948245511159],[79.03694546482451,31.430035041571163],[79.03490660623487,31.428541495837635],[79.02288642279294,31.427321083565673],[79.02148579116148,31.422812609641042],[79.01848368256739,31.424650115979862],[79.01578247096595,31.423235426429343],[79.01297332049486,31.407363870678967],[79.01535226867468,31.387839367857303],[79.01385631231689,31.385213131025353],[79.00948520536578,31.382832631035008],[79.00734143253409,31.378526764762483],[79.00836007984547,31.37043860648721],[79.0130580981015,31.36039210706395],[79.01824654260375,31.357424995964973],[79.01543910791489,31.35437524498924],[79.01509555801427,31.347019313490115],[78.99865460875229,31.339894608021968],[78.98519918428596,31.34735974507792],[78.98785625087774,31.35573409658137],[78.98101288594161,31.358707295009864],[78.97703111422454,31.3629548424885],[78.97345407756042,31.358466252025167],[78.9671003258952,31.35601663148831],[78.95061002049657,31.364061928552836],[78.94330463134858,31.365723583659435],[78.9381969058645,31.347295717129725],[78.9350422300975,31.343619028324717],[78.93046240048845,31.34146331999809],[78.92467317709722,31.328344404096775],[78.91619219238135,31.32140160260849],[78.91604978156101,31.315687428085603],[78.91045728203048,31.309694639853046],[78.9043270518692,31.309259021275945],[78.8963787285909,31.303436869407367],[78.90019694584082,31.29509658270727],[78.89730563006398,31.2902292448433],[78.88199484317616,31.286774822117703],[78.8811720519529,31.283704947347196],[78.88564343065266,31.275410609615953],[78.88467679399959,31.271362764068396],[78.88607275978146,31.268626118878906],[78.89837497829002,31.259573853136217],[78.90609039626288,31.25650879956001],[78.91609739766096,31.24868288051979],[78.92202961218418,31.231627555043776],[78.92205279231177,31.22540064934294],[78.92608244962338,31.223186340297335],[78.92604480931467,31.220159098448125],[78.93112583417354,31.216140164200343],[78.94772258454343,31.216864187849776],[78.94867952567962,31.213399979316968],[78.94383078359367,31.206573423677952],[78.94703009754542,31.202881143925655],[78.94799404554084,31.198599464996104],[78.95831050757111,31.190456718959922],[78.95752911341111,31.186683288898973],[78.9726537496092,31.18000396243169],[78.97919978745757,31.179109729756117],[78.98079504538354,31.176244770209077],[78.9837280097519,31.176221449962167],[78.98590654918169,31.17392117628475],[78.99049891298394,31.161355123562778],[78.98821347403529,31.154302350870175],[78.99082551437009,31.148253098728905],[78.98757972428045,31.143376505843687],[78.99076065061666,31.138144674566195],[78.9995949589035,31.13478055450259],[79.00366256105274,31.121630844382274],[79.00679613629201,31.1186183844079],[79.00891512191004,31.110012428483547],[79.0021550020547,31.112509383045886],[78.9991917429017,31.111645246914847],[78.998549491491,31.11003739016319],[78.99003959809096,31.108610243759248],[78.97298972671194,31.1081691416331],[78.96307266014855,31.10126772257519],[78.95072823878796,31.0980691476982],[78.94511383204261,31.100659300972133],[78.93699324423218,31.101699513481737],[78.93222872908554,31.100769539265347],[78.92592420330122,31.10952354049421],[78.92056615777165,31.110810179135665],[78.91272746578895,31.107726623787205],[78.91230614064935,31.102171672857672],[78.90859685850066,31.098947823845513],[78.90043606569137,31.09988020503046],[78.89064074151021,31.09698503361893],[78.88543154861983,31.098809167380413],[78.87288350882875,31.108946199075298],[78.8652407097651,31.12009435251968],[78.8535128084722,31.12217164720243],[78.8480036986512,31.12519970800321],[78.84146513748087,31.129797706485373],[78.83813246503192,31.138430697664806],[78.83120218449878,31.14068248471078],[78.82733255127525,31.15270183687671],[78.8229545704156,31.15782751136414],[78.82488185016211,31.163593975705886],[78.81806400007504,31.167862659176166],[78.81303967597857,31.16897002420606],[78.81072002828562,31.171958006212364],[78.81046451597777,31.18034788831922],[78.81429740091963,31.187630359631015],[78.81737869870098,31.189696386581268],[78.81640334659303,31.194453494167163],[78.80990966615263,31.19837198582515],[78.79674192715603,31.19649932882629],[78.77915220602053,31.18897921341714],[78.76517228759916,31.185842556328556],[78.756405550588,31.187921438325233],[78.72837875332394,31.189734424324516],[78.71832603576277,31.187851285620674],[78.70969645083423,31.18978747564665],[78.7033596845144,31.189088380789695],[78.69499464804719,31.19225560298793],[78.68676181664028,31.197848680918685],[78.6788176292056,31.19633872145661],[78.67189659233675,31.196965884039386],[78.66734129841304,31.190837241730065],[78.66171581633853,31.1893111246586],[78.65800067627589,31.185124673066184],[78.65999998653515,31.1911644427209],[78.65653526443438,31.19365809856046],[78.65731274373637,31.195810775569253],[78.64906840760565,31.202255783191685],[78.64928936441945,31.21095071903111],[78.64703405676208,31.214803235465038],[78.63654065267195,31.214921131268714],[78.62596118009617,31.21795235209478],[78.62256544142267,31.224151685751423],[78.60933667537724,31.229345446894673],[78.60091039357059,31.228180686393046],[78.59675813418897,31.225207736767675],[78.58949309377029,31.2267506599278],[78.57823476702924,31.2253439821934],[78.57485084030341,31.221306881956252],[78.56806571584214,31.219232446410423],[78.56548324804649,31.213562552165964],[78.55161639158676,31.19999367553879],[78.52651731163148,31.19654740932276],[78.50755678472862,31.19595436948884],[78.49698683698979,31.198262750785],[78.48374484594673,31.199020423309282],[78.48426435515027,31.201297394653817],[78.48144273606307,31.20458941468341],[78.47979106303896,31.213863427247535],[78.47284913405157,31.21853001527879],[78.46173255607245,31.23611029335877],[78.45770380246603,31.237859500702115],[78.45570350585656,31.241103119213193],[78.44998459450093,31.240723548315348],[78.44358437478269,31.244430946381843],[78.43657528235477,31.25420187966893],[78.43424330977611,31.254665661987406],[78.43114772788344,31.25282918194529],[78.42590184240696,31.244338173440752],[78.42072875101124,31.24413599410219],[78.41419239340831,31.23968827249316],[78.40694329988256,31.242270848650087],[78.40282107746914,31.24797286853072],[78.4071587149894,31.256294771792234],[78.39770646550006,31.266301573595193],[78.396163555999,31.275392896308563],[78.3895056069308,31.274288028038647],[78.38628879559391,31.271515691822067],[78.38353206002306,31.282559175078422],[78.37030690879833,31.28641760943166],[78.35196075498962,31.28068539182299],[78.34560241023834,31.28066857698353],[78.33989898044834,31.28275751031833],[78.33185731682212,31.277694073618687],[78.31802190319398,31.27900399284582],[78.31676740140813,31.28161026095415],[78.31114861088417,31.28322654161767],[78.30803235516358,31.275620445758413],[78.3100489247544,31.274169650447334],[78.31043652354496,31.271176419528377],[78.30631785666343,31.259975105922436],[78.30254235520358,31.25909894416422],[78.29641451905255,31.261209077402587],[78.29187322088096,31.260027675522863],[78.2828570980722,31.266292578258067],[78.27994739018825,31.26255594393918],[78.27601600407712,31.261596529700583],[78.27348714683936,31.255973520353308],[78.26907471918179,31.252403025302012],[78.26866671695619,31.24866464380106],[78.26262619076253,31.245271525257174],[78.260463097864,31.23983186199727],[78.25537789134749,31.238593300681814],[78.24949497007886,31.24012370401553],[78.25069671829966,31.23338979658018],[78.24694267220202,31.230487797948204],[78.2431616577813,31.229380734086824],[78.23707865474944,31.232746095957978],[78.22642428603513,31.235089802861527],[78.22031360680768,31.234022702403724],[78.21624901401466,31.2297860311783],[78.21516118744327,31.22208263861854],[78.21243228617149,31.219649240520965],[78.20914578533151,31.220204396707057],[78.19946889863068,31.217284844388786],[78.19564443988615,31.219788264182107],[78.19216691499591,31.22484088921536],[78.18701549455811,31.22713239865454],[78.17974595537649,31.225727815277324],[78.17379472262039,31.22691460250704],[78.16714242934522,31.224728267087546],[78.16021530639034,31.22555688942759],[78.15808684624099,31.218984031056404],[78.15360403108934,31.218295205882413],[78.14840955439999,31.21377596533923],[78.14766846495183,31.210670355211555],[78.13337146998123,31.208411662668713],[78.12859186134118,31.200854261043172],[78.12346709391785,31.20022816539686],[78.11243589092501,31.19325251980295],[78.10360981839273,31.185458233970902],[78.09712377183563,31.18429138508463],[78.08772516704012,31.187318733701535],[78.06594387804282,31.187244168647194],[78.0511954751504,31.17996796435132],[78.04262823599755,31.178581045245217],[78.0410317788207,31.172997426269593],[78.0338239664755,31.169781920716925],[78.0296984544315,31.164183434065826],[78.03032957212257,31.15104414984335],[78.02060597572192,31.15162883373569],[78.01443963059127,31.157857613253505],[78.00861569899237,31.160893727653892],[78.00080607289904,31.16202813458905],[77.9909268496636,31.160123903372142],[77.98470713562192,31.157029478023833],[77.98057475865252,31.162196228824307],[77.97325784322113,31.166229027405333],[77.96731035464315,31.173442528041747],[77.95889063592794,31.170996847427016],[77.95360293836654,31.166028249111744],[77.95147635030628,31.161382074966617],[77.94315065196363,31.16133353383852],[77.93514711643134,31.15476843829039],[77.92477974417896,31.150507943695526],[77.92150626262237,31.150549462107858],[77.91579816698277,31.15396056673209],[77.90860949863459,31.154136871018984],[77.89872235405501,31.150305549151156],[77.9004354350136,31.142278751499575],[77.8940009230077,31.134038409256828],[77.88903282895645,31.133060007848666],[77.89066707466404,31.121824443311535],[77.88875043636034,31.119285069669143],[77.8823992511819,31.117791942921453],[77.88050792201304,31.114866504527637],[77.87802077984209,31.11510228951833],[77.87843785684872,31.116400515422843],[77.87322075698724,31.115039965928425],[77.86380566810627,31.108579286349375],[77.86045530603272,31.10166525709486],[77.86372749581196,31.094037492938124],[77.85122150885422,31.073439256557965],[77.83804488282453,31.072721614810046],[77.82891410264617,31.058338471727208],[77.82434895510212,31.055518332708527],[77.82203664215348,31.05525890749032],[77.82294411396528,31.058734826830094],[77.81134277810939,31.059172531660984],[77.81678039371187,31.056761709915268],[77.81602198833832,31.05005390978457],[77.82160270287063,31.046785397809835],[77.8213536198053,31.042808336745487],[77.82980834227386,31.02883106339703],[77.8228610027335,31.029350874679945],[77.81745063393188,31.033106803307206],[77.81143879543684,31.031704116035716],[77.80699017285987,31.026838242706177],[77.80749638789548,31.016284366595112],[77.80992531564277,31.011057634557893],[77.82499113644424,31.009870022976898],[77.82197729854748,31.00436521250488],[77.83180371611553,30.994064589240494],[77.82769329486999,30.99226701888705],[77.82415922372759,30.98849278559825],[77.82404914237604,30.98054486864655],[77.82241774432792,30.976616073406383],[77.81628201468045,30.972854127682865],[77.81436106626002,30.96185431578077],[77.82417146057838,30.957179293013866],[77.8321738166227,30.959660309763276],[77.83767546234203,30.95524888527822],[77.83757947196402,30.95324194253167],[77.83471251220949,30.952115975283505],[77.82860889014694,30.953359452953027],[77.82434479500402,30.950568544670563],[77.8139663061,30.953902078281217],[77.79365041906279,30.96882265555315],[77.78749928240985,30.971397843320787],[77.772369643494,30.97441823126071],[77.76915559357829,30.974260851971422],[77.76657321561419,30.97020490226447],[77.7540795364742,30.964546523386435],[77.74899180209844,30.953549382953817],[77.75073556411726,30.94356373771102],[77.75402885981406,30.937610718372483],[77.75272598914007,30.93387453798208],[77.76392808942919,30.93051817275344],[77.76278214006227,30.918249893891073],[77.76587170234421,30.919749441417313],[77.76750593367875,30.917394700682085],[77.77178051036438,30.918680383777946],[77.78263899787079,30.916803485748574],[77.78471648850925,30.91721961138457],[77.78651446924535,30.920328461119233],[77.79181030015329,30.921800467399486],[77.80491318887124,30.923661276205713],[77.81151471026486,30.923343047991665],[77.81328497078793,30.921938086927373],[77.81092102627001,30.916702579350016],[77.81585210703662,30.91039147461988],[77.81526760382395,30.904451124329093],[77.80881145140286,30.896766669661382],[77.80136747556273,30.89339270714752],[77.79884103479304,30.86811304902855],[77.80358036567068,30.86505422250056],[77.80566865855043,30.853282160918116],[77.7862268233015,30.85722108680486],[77.77921388608414,30.860437798011535],[77.77736403752185,30.863223065621813],[77.77611964807116,30.875479162445746],[77.77339288568804,30.877608894803497],[77.76319245904301,30.880469011181173],[77.75820980689427,30.87686603087348],[77.7560833562762,30.87274464484671],[77.75717875654375,30.8600512569355],[77.75416887392919,30.855538629472118],[77.74585252345543,30.851186739626435],[77.744005882777,30.84666134747578],[77.75766467055229,30.835197088155912],[77.76126416240356,30.826133171493858],[77.74835807839473,30.82170202456779],[77.74558666704706,30.813210341989624],[77.7349551802197,30.804551448133513],[77.73292562727806,30.801141769067918],[77.73185876019888,30.79193547732903],[77.7213498305257,30.77585883494596],[77.71510957111516,30.770790101966064],[77.70376322295097,30.765226500188607],[77.7089445599827,30.75255319516269],[77.70515138955953,30.750848913886323],[77.70241880609338,30.746331245960477],[77.70503543322603,30.742812901062308],[77.70877797909134,30.739784474468372],[77.72151137546156,30.741662635235066],[77.72834242359679,30.734210330254804],[77.733175760474,30.735400812142196],[77.73728631107693,30.730402897959905],[77.73657611648802,30.724217464506516],[77.7466753398315,30.71978994870855],[77.7473978664926,30.71703953181554],[77.74560393805673,30.713935210908506],[77.75580615953572,30.70699025008254],[77.75038332121963,30.70017956375012],[77.75256417560793,30.69671230538261],[77.7469209482133,30.69449889981282],[77.74839326540443,30.687811314571317],[77.74673878604335,30.68310334986509],[77.7473929940305,30.67991559717608],[77.75914193027408,30.6758375709759],[77.75974000433574,30.673150043691063],[77.76419850838083,30.67088989803253],[77.77249624666028,30.669160427670676],[77.7745668831531,30.664827839998374],[77.78117657652085,30.66003406675719],[77.78443752388426,30.65962150251846],[77.78851478831268,30.662343880245164],[77.79207474620664,30.660230995785724],[77.79247918661218,30.65699750427572],[77.78748783697485,30.655686228804246],[77.78122056073211,30.646733744662743],[77.78672830152064,30.641767469238953],[77.78637289745151,30.636765475502795],[77.79061041863166,30.634066748518542],[77.78604005457078,30.62999999092804],[77.78612328527848,30.624488709811718],[77.79253566549073,30.62097953046368],[77.79624409693481,30.613711515600325],[77.78670612660785,30.614372839428494],[77.7802362820652,30.612902449009873],[77.77109670558357,30.616440317387983],[77.76892417857796,30.61458040034901],[77.77105601190121,30.610595168864645],[77.77020168172668,30.60496580273309],[77.7716595782625,30.59696591295648],[77.76434083206458,30.595985645229455],[77.7556216824073,30.604754966118445],[77.75188335862379,30.6018420471892],[77.74608484575421,30.603957500585672],[77.7432396943998,30.60155645263597],[77.74678033761684,30.597526790874596],[77.74323734800029,30.596223328767454],[77.74285839279936,30.59391295029039],[77.7566215773871,30.585668572591494],[77.76064505608619,30.577580956559345],[77.76712612238335,30.571213606997123],[77.76750775725878,30.56540930873396],[77.77401479385082,30.557905106060144],[77.77724097192119,30.557623488869165],[77.78356050765557,30.559896723575175],[77.79409345738111,30.55326034084834],[77.7971622290541,30.55412367560181],[77.79962965320458,30.557724255278572],[77.80635996336554,30.554557354888388],[77.81398074112829,30.560140391479298],[77.81784048839212,30.561088248817423],[77.82258472946111,30.553842477551783],[77.81999320485079,30.548095013194985],[77.82033928350894,30.54525152166647],[77.82350057716465,30.542018846137324],[77.82778518713367,30.53106571709624],[77.82584327832274,30.52631551609298],[77.82172843646768,30.525822815302497],[77.81980754643777,30.52414370086267],[77.8185114840953,30.508132312856205],[77.81503566061421,30.505197492251853],[77.80827501883769,30.50484680509944],[77.79985021026806,30.50112573945696],[77.78219436414452,30.500333822377733],[77.7756552217642,30.494373471923847],[77.76434713374628,30.491140867933403],[77.73938970283996,30.476077002553204],[77.73170612205904,30.473199749693954],[77.72096507400468,30.473066071426505],[77.70718617069612,30.45930297384932],[77.69792460569386,30.45592064728673],[77.6902318180796,30.448081043785177],[77.67075591422349,30.44425293258873],[77.66296626396708,30.44710224696154],[77.65235871364878,30.448110567279173],[77.64898730314981,30.445208479599042],[77.64605447083377,30.4334704468135],[77.64325130853241,30.431903553580156],[77.63698421644433,30.433247526734718],[77.63190066013297,30.431307158374352],[77.62593718244125,30.434753731522136],[77.6226640143967,30.434722457410032],[77.59455535455912,30.426660770166787],[77.59182334242148,30.423468177495344],[77.58617390227836,30.421642357844533],[77.5731077447741,30.41244031792239],[77.57260502418491,30.406570200304557],[77.57602127409129,30.397443669214223],[77.58253590414245,30.39992921466495],[77.5819135270591,30.401396546138237],[77.58544106295781,30.40497459133097],[77.59040986038993,30.40633417027495],[77.59829443562239,30.404941195650384],[77.5996141506063,30.401095037628707],[77.60168837227545,30.399756928586584],[77.60286892295046,30.40299299456608],[77.60503669786824,30.401764070165548],[77.6122068582266,30.403113962520536],[77.61847871138568,30.402442875192115],[77.624397665877,30.40515090397224],[77.6266047349019,30.400413315386306],[77.63100093539218,30.39775658980221],[77.635894213255,30.399072218608314],[77.64088352551326,30.402852825702677],[77.64787250825526,30.4046879284303],[77.65277099185516,30.401274740048006],[77.65723132487018,30.400733580118583],[77.65666900375683,30.39836956359913],[77.65971715370415,30.390615730711872],[77.67240715605624,30.390532663923636],[77.67653478363276,30.387837636450215],[77.6762172929602,30.380383564544417],[77.67806657378722,30.37571460241678],[77.68308400960211,30.376516312161513],[77.68605446965043,30.379312875060634],[77.68958335302209,30.37687439350961],[77.69471024585938,30.365797583828535],[77.70222875402033,30.355683403721162],[77.70606281036534,30.34712613340001],[77.70895206900013,30.345059672900526],[77.70976169810785,30.341669584430974],[77.7135335488144,30.339963923215933],[77.72183494772857,30.330265884532118],[77.73207926246515,30.3281444008379],[77.74699314760932,30.320163317553558],[77.7611469780731,30.318347970371114],[77.76576825594935,30.31421075340917],[77.78423609554643,30.305709621036726],[77.78570063961538,30.303043255733968],[77.7942262589228,30.297215060066303],[77.81972713105017,30.28494692842003],[77.83281811529393,30.280235274575606],[77.83900970218576,30.274592404306578],[77.84073548711912,30.273824678961333],[77.84215984685046,30.27645393363887],[77.84716138068818,30.27665377166887],[77.8465132057865,30.271700836289558],[77.85762994456405,30.270533383134957],[77.85867813926176,30.271471316676152],[77.86565744445319,30.265875854927486],[77.86931794538698,30.266171685640682],[77.87956396422766,30.26200938599408],[77.88164356231374,30.262331897567854],[77.88573248867118,30.267043864676435],[77.89399165059736,30.265426988352804],[77.91088244561091,30.25705225262614],[77.93363120040624,30.249253302164753],[77.93698205295993,30.249223831912047],[77.93820503555739,30.24390107001437],[77.94145818015426,30.239852461759913],[77.94412133732365,30.239313139694893],[77.94980759222376,30.24236694240364],[77.95150300691401,30.24534209549495],[77.95649198499898,30.245511258995492],[77.96168597659813,30.242430277164495],[77.95799120852948,30.242296990936158],[77.94691321498846,30.234117098711362],[77.94600985296907,30.23042044056969],[77.9411498981117,30.227936960412258],[77.93837397991624,30.224403450572026],[77.93791657304494,30.220898096361637],[77.93479062090914,30.21933740008125],[77.93212339616814,30.214448083932748],[77.92313667971023,30.2133378924615],[77.91892357473951,30.211338633590486],[77.91801058906847,30.203129334893653],[77.91392212175018,30.196530359545992],[77.91481409403005,30.191621621580524],[77.91173558731431,30.186704881723877],[77.91200717946573,30.182590602669013],[77.90026906522637,30.1726508125598],[77.88891711337142,30.157378014156798],[77.88116516540752,30.150790129239603],[77.87686466783437,30.13928447621743],[77.86840430304748,30.126887788958],[77.8660782889941,30.11919280261217],[77.86040357385214,30.113250142212166],[77.84935266900851,30.10475257162259],[77.84159339708009,30.102709679759453],[77.8368106182854,30.103575870773977],[77.83660268883985,30.098494898798503],[77.83302075545909,30.09463572795082],[77.83426554466008,30.09057221300692],[77.82804152948485,30.085974142426682],[77.82165711203076,30.085738313438437],[77.81043906305207,30.09278019041282],[77.801182498971,30.09553387647985],[77.7991543644692,30.090527556710764],[77.79968368147902,30.087250923873963],[77.79673516098491,30.08533359202844],[77.79843325894288,30.083608732752488],[77.79475345321359,30.081309043048904],[77.79580857302383,30.079911565639783],[77.79082902545268,30.07508076136662],[77.7811170918794,30.060534885937845],[77.77480524662215,30.05527146435469],[77.77112601491636,30.048077249424523],[77.77004129292257,30.04260342363023],[77.78136169504641,30.033553584671512],[77.77936505727509,30.030728652432465],[77.78547959207175,30.027947935357254],[77.78274385012907,30.023902637119605],[77.78197197092456,30.018682617450285],[77.77579765055081,30.01802742783552],[77.77389647854137,30.01480653313802],[77.77166967712293,30.01503445471478],[77.76194612563805,30.009359065918076],[77.76421355067026,30.004499709352935],[77.7575909556984,30.00157097040117],[77.75537219330342,29.99905623196458],[77.76036262576085,29.99516090090527],[77.75526233563237,29.992032000697684],[77.75032505649033,29.985921351148804],[77.74766270690634,29.98605538056383],[77.7437010026544,29.983407404381325],[77.74601789251945,29.980602520677188],[77.7401829888977,29.97534217489773],[77.74060471648255,29.969617817212935],[77.73328462730326,29.95598729839907],[77.73699427326963,29.95381818143987],[77.74834890839233,29.951689003722006],[77.74491147441492,29.947890687675525],[77.74721341451698,29.946694490014764],[77.74298653208476,29.943864936868213],[77.74297569391085,29.94099718604645],[77.74060914517692,29.942247800483898],[77.7304589487293,29.931748024023644],[77.73456996286292,29.92904428821322],[77.73697255649766,29.929276447907434],[77.74287784222359,29.92498596392931],[77.74296642868703,29.918152790757283],[77.74776378174886,29.91121893291557],[77.7466772155138,29.909772132119567],[77.73651925762212,29.906711610595757],[77.73859165211796,29.903263216827863],[77.73366084264258,29.901619406360528],[77.73390313803762,29.899692423824508],[77.72925990623415,29.900564689756244],[77.72854613185885,29.897603727798362],[77.73184580739081,29.892851847034585],[77.72506034516294,29.890359613736898],[77.7232646659106,29.888593252527855],[77.72410280395216,29.886836298118002],[77.72273956199948,29.88447335378539],[77.71844976875124,29.88745620817835],[77.71600303100517,29.885934546028544],[77.71470117183415,29.884128919882134],[77.71693326163471,29.878519275976597],[77.72075984489487,29.876208727300675],[77.71955748492138,29.87439755576068],[77.71519901277475,29.873044237439476],[77.71412022145846,29.87027032687316],[77.71862372121784,29.865500944473222],[77.71650559349085,29.86323787551673],[77.72343318087475,29.855106980111472],[77.72565389441054,29.856185621146697],[77.72655541847685,29.854293476196645],[77.7418768746553,29.8518975138528],[77.74387675175154,29.847628703596158],[77.74143772694049,29.846757096617274],[77.7440244150213,29.839929225278077],[77.74020756410893,29.83478520663278],[77.75568797987188,29.825352622102926],[77.75397547383506,29.820856534887344],[77.75897916273114,29.81855490578874],[77.7560667221721,29.812887186567156],[77.75156707438865,29.810731098052283],[77.76320444975543,29.802678067202304],[77.76544040500664,29.795975519039953],[77.7746619464697,29.791073286750613],[77.77217556696846,29.78646169794688],[77.77394985823221,29.784057461956856],[77.77237156588873,29.78005419208267],[77.77784391844493,29.775027982534887],[77.77310797152097,29.76875126814735],[77.78034410684874,29.76506719805289],[77.77050390373434,29.75026870632104],[77.76930100477165,29.750636491333324],[77.7695173792792,29.745388942223805],[77.78266623568852,29.736288731809374],[77.76971917951956,29.71765275987638],[77.77171240459111,29.713897074172657],[77.77870733957018,29.710726138132486],[77.78332960649156,29.70944560838083],[77.78556520960318,29.710621781094456],[77.79183687052277,29.7099927294619],[77.80258544286598,29.703444313746097],[77.81047197013756,29.702421874112495],[77.7990420858385,29.686241773272197],[77.80922711446125,29.67991138599526],[77.81532623506594,29.67836299414389],[77.82364715437123,29.6714992718373],[77.83003758335119,29.66834997154569],[77.83193657335279,29.670458299644373],[77.83380608962993,29.66903931019823],[77.83567028788059,29.669607134267686],[77.83676835165296,29.671764158686997],[77.83860614392584,29.67053752150751],[77.84309275535784,29.67527542369267],[77.84707531579576,29.675462158196357],[77.85024007964338,29.68002869623443],[77.85371987367802,29.681595057219777],[77.85569320915084,29.680110020919894],[77.86279932412104,29.689500524308784],[77.86559312597714,29.687862740320874],[77.86959202677006,29.68903832762755],[77.87469915487448,29.687343956106417],[77.87947305921249,29.692959108942475],[77.87899461828879,29.700291231019428],[77.88263578657937,29.702479310959653],[77.89088750057351,29.6989072500804],[77.89449175619076,29.699781480598666],[77.89659619898266,29.702251123168473],[77.90206402762313,29.70124574815241],[77.91252274506516,29.695973968406232],[77.91395164128872,29.698528223029392],[77.92005863023695,29.699340120233284],[77.9157552751229,29.702265989204385],[77.91691150211498,29.70560861363647],[77.91977681076604,29.70505351620086],[77.92643304045879,29.714272095440155],[77.93455565756342,29.71116846664672],[77.93814015114275,29.71453683054456],[77.94093004532738,29.71089374988456],[77.94553303799604,29.71311661278386],[77.95300815842704,29.70739990304231],[77.94955732877212,29.704186422684657],[77.95097073085364,29.701646876091285],[77.93988418355447,29.69613555016013],[77.94566208278322,29.691876879276528],[77.94588204785695,29.690013735604524],[77.95092411098534,29.687409438161858],[77.94743152224612,29.68314058191699],[77.94935828007146,29.67985312612808],[77.96994899409349,29.6664831134377],[77.9695365443089,29.656285801088092],[77.96644055727604,29.65019556539575],[77.97944280863099,29.642709206029295],[77.98184988396065,29.645176938719935],[77.98377718526676,29.64368931606862],[77.97737613011532,29.631300964751205],[77.97595876915834,29.617431142321713],[77.97767993225956,29.613497181165997],[77.96693345209265,29.611471702589853],[77.9602032380514,29.611698058730443],[77.94841086916215,29.616965839828033],[77.94275862268206,29.608697569306162],[77.93329216723487,29.600565780085066],[77.94033427724106,29.59276118265201],[77.95846864693331,29.585308247558334],[77.96363787647165,29.58132015683429],[77.97309819013725,29.580363933434725],[77.97492289036317,29.585067355060563],[77.97996438575629,29.58519907637199],[77.98271425460513,29.583615488353075],[77.98686584114857,29.584730633937923],[77.99351968761087,29.591270640297843],[77.99515532660547,29.595847471133993],[77.99616338457626,29.591509048002486],[78.00079004605605,29.586257208290924],[78.02158845685996,29.580905430082346],[78.0152260930461,29.587301516310642],[78.01827425556985,29.59825112480262],[78.03108040379995,29.608376363049928],[78.03306485861938,29.611666214640177],[78.03431054972893,29.610430836738047],[78.04648307037509,29.616127710769437],[78.04883893185209,29.61466390887816],[78.05710143730775,29.626744141395747],[78.05746256903512,29.630739928697245],[78.06853745979517,29.630473840676697],[78.08187019056336,29.625188239943228],[78.08667895043268,29.625086765390446],[78.08145390137925,29.635195599621152],[78.09338798669108,29.640502660861987],[78.10402546887467,29.6412802125104],[78.11927874651637,29.650020391330017],[78.1305293720005,29.652591914878478],[78.13358521511996,29.6595497086802],[78.13756858404159,29.66359847779126],[78.17161393021586,29.69162591571683],[78.18050166849913,29.69688166000183],[78.18839239359804,29.692342327946875],[78.19602225243003,29.692732034171243],[78.2020035589852,29.71448717053015],[78.20357356437017,29.728312249806592],[78.20014694790544,29.730344691383028],[78.20391367731655,29.737321800538858],[78.22164513284096,29.74071391167203],[78.22957290086892,29.73675040759001],[78.24022597331427,29.741490700770527],[78.24591352807657,29.734576243181888],[78.25008197240464,29.734317313720464],[78.25563743349768,29.73830266211609],[78.25974395246163,29.73839408282455],[78.26217976579554,29.74360725131175],[78.26702558027203,29.742897195054486],[78.26829017642673,29.746509878487988],[78.28094162488345,29.7558152806305],[78.28452028839656,29.761840000878653],[78.2880822028212,29.76130148953684],[78.29093941765154,29.758652885383444],[78.2926687401505,29.759121129766456],[78.30095547945757,29.768309521817958],[78.30060626478077,29.77109728578732],[78.30362474337424,29.77481775225106],[78.30685873948255,29.7755659163928],[78.30950804373194,29.780019067387254],[78.3128959464012,29.77946703264451],[78.31319220718865,29.780871496214406],[78.32108792153063,29.785561786789888],[78.32438785847233,29.78992250758284],[78.33073221286139,29.793237721078416],[78.33315185202862,29.79272422545433],[78.335651480782,29.79666482084687],[78.34927997287433,29.78853516350952],[78.39274862392115,29.767450814878426],[78.40905662791094,29.763444261738275],[78.42849920876161,29.764515258688323],[78.44260822946234,29.752257378828705],[78.45398199959892,29.745993777681942],[78.47368137195834,29.73993775693208],[78.4885390504135,29.738195214499363],[78.50095874879831,29.73296520971331],[78.51397551153833,29.723115275174425],[78.5165370153502,29.719462080646558],[78.51870049272765,29.701826378243677],[78.52144032290317,29.693528784701748],[78.52148186908674,29.65787496568528],[78.53266884803467,29.638809270562025],[78.54080148135476,29.62714916867419],[78.54423563378644,29.625604514276656],[78.56506371055428,29.60114835346143],[78.58035204225499,29.586427424886683],[78.61772794354911,29.558086059381893],[78.62424098717545,29.55659743756631],[78.63850834313155,29.546720766386354],[78.65046702790917,29.54605904921049],[78.69971840393441,29.50626992616774],[78.70625337992844,29.502744234311724],[78.71120997913731,29.5004236534008],[78.72008355997174,29.50222808898093],[78.73058478928631,29.500440089461822],[78.73272360072266,29.50205347031194],[78.73818566397563,29.5002521590278],[78.74500768583891,29.50084228972323],[78.74918754326264,29.496024905753377],[78.75358716004594,29.496253072689022],[78.75654772604972,29.494646225212502],[78.7590247433091,29.49070243582581],[78.7775625733449,29.477203035434247],[78.7996701969287,29.464635178112633],[78.81055427114936,29.46586735259795],[78.8227394912787,29.45981112327811],[78.84108078879498,29.457208093754],[78.88086950026354,29.443445958371157],[78.90019884398102,29.441548471824323],[78.90403696699933,29.439040099750077],[78.91577432575554,29.436346229031365],[78.9187217952208,29.434320684551047],[78.92534322597605,29.433895489567103],[78.93633745071855,29.438278516192916],[78.94233080008843,29.438632602777982],[78.94037503745919,29.43761768076579],[78.9402383947213,29.435326094818713],[78.94311640195721,29.434750871539887],[78.93830855028465,29.43406757735024],[78.92571248116855,29.426012584159498],[78.92397434440005,29.418869314721885],[78.91874627431231,29.409941405257687],[78.91837906278707,29.40356965309868],[78.9114820810049,29.399670909151755],[78.91179005133209,29.393808959407522],[78.90507175074816,29.389567110185034],[78.9021861635279,29.385012525512973],[78.89216220373388,29.381023898561622],[78.88733484783988,29.373112717913436],[78.87773399364639,29.375025238026822],[78.8757324196326,29.372043138174583],[78.87660376030534,29.370277488837623],[78.87957574030315,29.369423961398986],[78.87871250872243,29.36606514891528],[78.86031367141726,29.358255021731765],[78.851926274086,29.36039139761619],[78.85112366980381,29.355582925083187],[78.85597374229471,29.349782327858343],[78.84986589904864,29.34487633724331],[78.84557948616083,29.34425038820496],[78.84023567623355,29.346033461932333],[78.83575731133583,29.35051824033488],[78.83073728837293,29.35154517079825],[78.82745017218697,29.35426571903296],[78.82833663599754,29.35972618030505],[78.82635441438994,29.361492469835166],[78.82759833941164,29.36382453505433],[78.82586060059681,29.36560660623051],[78.8302588672122,29.368071311413694],[78.8247304211547,29.367190007793873],[78.82214955864846,29.35919668739782],[78.8105045440085,29.340183037649414],[78.79989999675816,29.3346335611656],[78.80285475605197,29.331304966874587],[78.80119780452725,29.32530284156334],[78.8047192300854,29.319307936216248],[78.79819494314496,29.319068306837092],[78.79544435744052,29.314768901693164],[78.7959081450453,29.31182327121917],[78.78954822375069,29.31535441263806],[78.79053833607706,29.318945398891096],[78.79539636943804,29.32506987329144],[78.79308734073008,29.326887463912424],[78.79344488189123,29.328225048856538],[78.79051478494526,29.33064871948933],[78.78678413906249,29.326164587012897],[78.78524721503618,29.32720862872043],[78.78159023010836,29.325588310127202],[78.7774797199296,29.325785735038522],[78.77332707876404,29.32854983476488],[78.77430648047726,29.332034852530235],[78.7665479289977,29.33745861373438],[78.76080532816971,29.33298432015611],[78.75376109724112,29.33127599491422],[78.75368882238662,29.327380877431086],[78.74954728349965,29.32330098971777],[78.75031524604951,29.31741219635031],[78.74507653811217,29.317997902822444],[78.74292590933824,29.31588232160373],[78.74067322835474,29.31584397811833],[78.74066984709604,29.32047598431313],[78.7336657852337,29.321960961543443],[78.73576803703462,29.318582586139982],[78.73208458684024,29.31761649215974],[78.73134014487948,29.31358157731572],[78.73517571488574,29.306597173163645],[78.73445039266745,29.302996886978686],[78.7271898788595,29.305565950778252],[78.72298196884606,29.303504674871004],[78.71858479188707,29.30669765794415],[78.71836523464849,29.303479708985126],[78.7226874112644,29.299375641702905],[78.72675000530589,29.29785300869974],[78.72842494379756,29.29927338550115],[78.73451868169704,29.29962306040987],[78.7361324431212,29.296815657837303],[78.76501271805861,29.279363126424858],[78.77320976417784,29.27119182339697],[78.77018364541281,29.267094823434153],[78.77382543533757,29.26204352349888],[78.78509145704734,29.253705407345095],[78.78814968070232,29.253426353449875],[78.78975174426485,29.25501229583532],[78.7918845172259,29.252324041190462],[78.78994882745167,29.247671111926454],[78.79137261405786,29.246147931103675],[78.79313957327224,29.244608979924866],[78.79840504112357,29.24447400092481],[78.80762536806441,29.236566694935686],[78.82004619922479,29.23206919397852],[78.81989331943817,29.233793169020718],[78.8224325306579,29.2333730758135],[78.82561956913133,29.236096904750124],[78.82786768846981,29.235369816992154],[78.83086312437794,29.237348602232224],[78.83230929340776,29.236803220077327],[78.83815523642603,29.242604230272672],[78.83817460500188,29.24114853202362],[78.84129440367796,29.239747660204316],[78.83945713152964,29.23684262481164],[78.8433691966756,29.234896501638023],[78.84554244682505,29.236831690506932],[78.84954477738572,29.232769302670878],[78.85106732567255,29.23687634171928],[78.8553717614599,29.238577350118497],[78.8583368307182,29.241899052349705],[78.86216455034719,29.239489960484796],[78.85858680940389,29.23304772776535],[78.8630395256036,29.232147110279644],[78.86316357755446,29.230385958807783],[78.870688939861,29.227312073312532],[78.87261925321826,29.227644081191404],[78.872757759062,29.230472256559732],[78.87446359420954,29.230259967596748],[78.87401854186831,29.22732516057717],[78.87643146343385,29.225442461908337],[78.87174938578255,29.222760089691832],[78.87583001799494,29.21907622175514],[78.87946938965497,29.218872336544763],[78.88052784221487,29.217159575149985],[78.87832094566652,29.216092117094504],[78.8785359547348,29.21431861359719],[78.88326128357212,29.21153449997514],[78.87795656113947,29.206142475126576],[78.87506631525616,29.206501165866317],[78.8752143109026,29.205225774013936],[78.88103569218435,29.199981249445234],[78.88548984748518,29.203258214831592],[78.89062261350779,29.201234554322944],[78.89128117113752,29.198137749430565],[78.88674552247076,29.195079738542947],[78.89005809781018,29.192268071101733],[78.89428297610105,29.191948230274484],[78.89636189865405,29.193632918820672],[78.8997403492499,29.18594249685951],[78.89781530810507,29.185171367605157],[78.89524419501463,29.18675923683905],[78.89457075769053,29.18581718507386],[78.898484009511,29.181862601300313],[78.90316816227062,29.18096727110421],[78.9034218501001,29.178308825413932],[78.90686076450112,29.180072524465892],[78.90874858844373,29.17861941846857],[78.9016525678424,29.16960553797335],[78.90894618546687,29.16394842190819],[78.90908505782328,29.157380971997487],[78.9064371818952,29.151668345424433],[78.91286594737821,29.154434716238416],[78.91545053879115,29.152502502324047],[78.91547816198617,29.149999452710194],[78.91206353264054,29.147493008509006],[78.91104476944652,29.14449165265808],[78.91622828129957,29.140724507355284],[78.91620859112682,29.137784756357313],[78.91875672351567,29.135591635924953],[78.9066747548468,29.127034759043443],[78.90662280886718,29.124859090888062],[78.92693963913548,29.118077284357415],[78.93464249057587,29.129700462882056],[78.94283974240929,29.12617429002443],[78.94374791221206,29.127566589219906],[78.95646567879464,29.119970323898862],[78.96417173362734,29.1305584008012],[78.97278405473273,29.126878802755925],[78.97222002771866,29.12982731838837],[78.97492370699219,29.13151268669863],[78.97467634779387,29.136004086323176],[78.9775505713258,29.13666074222688],[78.9767620355593,29.138605480936814],[78.97990214604226,29.141811941967838],[78.98236399075648,29.141867487202425],[78.98234245993577,29.14310402506608],[78.9898351253626,29.139551113083666],[78.99127869107473,29.130736336911287],[78.99664467052492,29.130181602259107],[79.00423451659748,29.12595704543239],[79.0017100682911,29.122314312860514],[79.00349648950616,29.1192658635064],[79.00624957342536,29.118337238587767],[79.00816924713641,29.111968968613073],[79.01419245650632,29.11667615330801],[79.02669822427508,29.112475212043407],[79.03455773830777,29.117760455152265],[79.0406317887295,29.127725426709457],[79.03175246676211,29.128163278283708],[79.02731647719297,29.13250234709331],[79.01921357361721,29.129394416717638],[79.01692001659335,29.13083039198164],[79.01493732067527,29.13400351903246],[79.02111397487212,29.145887557584036],[79.01782042225716,29.15389890247949],[79.01908273848765,29.155776050595456],[79.02382271705063,29.15560992453335],[79.02977629979952,29.147030461957506],[79.03461126891554,29.14413357756],[79.03740025400512,29.144881880190372],[79.03594769615701,29.153147421546652],[79.03936776210669,29.158467333654993],[79.03236503064929,29.159189220714712],[79.02912337640323,29.16419259108314],[79.03212569969466,29.168485935196706],[79.03583915002628,29.169451128798226],[79.03943696112967,29.168627452656626],[79.04537623820764,29.164241460461707],[79.05050409314059,29.156989414382405],[79.05370368287515,29.154927606226096],[79.05941914110684,29.155481440065756],[79.0748686772819,29.15169977442188],[79.09056843289115,29.143449312558865],[79.10138881655816,29.13415890818716],[79.11189936858874,29.127983616067954],[79.11945783561013,29.125826611509236],[79.12273292604938,29.127397156277883],[79.12492301422049,29.133122812841037],[79.12686688225706,29.13274453281875],[79.14188638592246,29.124394049810086],[79.1408246742747,29.122321666778138],[79.14339732887416,29.120326868901724],[79.15016851777047,29.118726384313884],[79.1535012072874,29.115244398857772],[79.15127216097909,29.113331145606136],[79.15245392976964,29.107180418710893],[79.15083867354883,29.10347392341132],[79.15317754159561,29.101609785304774],[79.14831910039948,29.099198060157473],[79.15153062784589,29.095460416024068],[79.15002170790018,29.0945698809667],[79.14995549487723,29.09181721834202],[79.14327382399732,29.08673833222415],[79.14342392529478,29.08296789950273],[79.14211997754074,29.082003575408706],[79.14180700629238,29.077692670597596],[79.14422442572256,29.072088957140856],[79.14250347192879,29.06700620107794],[79.14587088402645,29.06462637912173],[79.14513175470225,29.06302127372469],[79.1473260299209,29.06232324868609],[79.14876373771905,29.0585072409189],[79.15332006470533,29.05692095067989],[79.16191089990573,29.049023719379502],[79.16799914550562,29.04743669820946],[79.1702912364789,29.048664885664923],[79.17510821413643,29.046305688082988],[79.17180017708583,29.045117249287973],[79.17191635081163,29.0426999113268],[79.16915669841104,29.042441371452192],[79.17084890252244,29.039480708003385],[79.16800032948515,29.038315071450008],[79.1688408947746,29.035825618661338],[79.16751037575278,29.032256700015115],[79.16439591037452,29.032276056370527],[79.16496977843254,29.028901186711746],[79.16235065847498,29.029268515586608],[79.1622030535957,29.024149863293957],[79.16588986887913,29.020297302094267],[79.1652786533632,29.017846761380145],[79.16843407024028,29.019475221338222],[79.16900984182838,29.0181104312024],[79.17369639578479,29.017891433160308],[79.17581567245699,29.015796951059976],[79.17105656427006,29.011927886415805],[79.18094402325997,29.01293512480038],[79.18267284360068,29.016108447984582],[79.18594867515003,29.017700056940722],[79.19384232785848,29.015647802957876],[79.1908929584564,29.01900792052314],[79.1907709061554,29.023236172005845],[79.19206462748821,29.023335523740432],[79.19426319934888,29.01977720849495],[79.19740771606833,29.021439230051115],[79.20364979187235,29.02080351911401],[79.21173414613583,29.0276241518282],[79.22202723849401,29.019506393765425],[79.23155122205199,29.015180331640813],[79.24494893425289,29.010138952605708],[79.25102130123179,29.01029852186864],[79.24775253762706,29.003403978166563],[79.25913366137254,28.992460397832847],[79.29233324730008,28.97386785606295],[79.29885062350104,28.972855464310243],[79.30726764816872,28.9665271744972],[79.30746833449811,28.9679300032088],[79.31033319848312,28.96804886451766],[79.31092073620479,28.970050809477247],[79.31268541729163,28.969032082022974],[79.31248744746766,28.97137373026847],[79.3098650953717,28.9717824250891],[79.31265212842216,28.975036055609714],[79.31105961125614,28.975322011161488],[79.3119039683344,28.977117997026824],[79.3214582906945,28.971861628709643],[79.3372241533255,28.972188046229963],[79.3503387309219,28.970136004637983],[79.356270569051,28.96775834776888],[79.3647037508174,28.968135182843316],[79.36516766777956,28.970804871803132],[79.36099096074753,28.971994967228675],[79.36309228369043,28.97804292353429],[79.36211248851512,28.981505382080872],[79.36762930857621,28.986697233096958],[79.37236130470956,28.987532182446785],[79.3723960416633,28.984657513816224],[79.37768815444427,28.97575794430958],[79.3771447329862,28.97144944715839],[79.38175377131672,28.969858356790823],[79.382100870461,28.962299776229802],[79.38631592747087,28.953253449189297],[79.38530066770645,28.951829811373198],[79.38732862524012,28.949755313148767],[79.39064894405729,28.947449092069675],[79.4028093895494,28.950071247473037],[79.40470986536447,28.949267904002195],[79.4043341970992,28.9504673676783],[79.40620657630711,28.949912356412334],[79.40540503024035,28.95156573828474],[79.4074797217284,28.952306975711075],[79.41583241175033,28.94387841506583],[79.41558167219159,28.941428415462376],[79.41901102043313,28.940092147832043],[79.41889611063695,28.933040193000323],[79.41584028278888,28.927929644761775],[79.42531753059589,28.923018388760696],[79.42794784895177,28.919845093449982],[79.42688867953626,28.916238511912457],[79.42487562145985,28.916811036281686],[79.42700691669226,28.915387044065223],[79.42479424936647,28.915509240711206],[79.42692371742557,28.914475691525606],[79.42513541783329,28.914433768935293],[79.4253894236664,28.91330473846879],[79.42764438367577,28.912750819365492],[79.4251121909933,28.912191541469454],[79.42691803198815,28.91134021576019],[79.4242823075709,28.908467399946534],[79.42532573131612,28.905282428835452],[79.42252565921932,28.90308930975979],[79.42251528906769,28.899539631029395],[79.42466263809251,28.897494496467626],[79.42293977627709,28.89355405677592],[79.42773528419936,28.89304477836054],[79.43099715862415,28.886862195719953],[79.42787167720556,28.87658631569506],[79.4250080897266,28.873724358929326],[79.42490607344969,28.868180357370143],[79.42557262069555,28.866478832953828],[79.44046069634331,28.861798567064017],[79.44518281100855,28.8638858039419],[79.44623386594212,28.867823868477494],[79.45019278451834,28.867784305988522],[79.44978937987032,28.870847600915887],[79.45164074029726,28.87168817705991],[79.46193874644003,28.866824460637403],[79.46611491627954,28.867832438643642],[79.47057438062369,28.865468899446032],[79.47721826836276,28.864627004033274],[79.47892073572628,28.86733636850971],[79.47873646161709,28.871205074562678],[79.49713910957571,28.872932525829327],[79.50252625063901,28.870606747733305],[79.50992071762887,28.864595201234533],[79.5113988963272,28.867278459416553],[79.51701359592337,28.8669334940654],[79.52178441095509,28.86480567146447],[79.523511710448,28.86717994756608],[79.53304440676595,28.869769579358607],[79.53716659324678,28.876999485722685],[79.54165880208133,28.880489667290075],[79.54046335374562,28.881995671276762],[79.54219627669224,28.88458853468078],[79.5459552859818,28.8856419603764],[79.54791706732343,28.891027330025537],[79.54945039000378,28.89013952896839],[79.5549431307237,28.893821491239486],[79.5527553709858,28.895863947864758],[79.55648257003284,28.899321567231542],[79.57061978525711,28.89259505197505],[79.56998922811476,28.88781050231756],[79.57124569541446,28.886525315005834],[79.57755721548155,28.888702141098708],[79.57917813827518,28.886239581602894],[79.57835402203688,28.883550517389317],[79.58427337268523,28.8792419062994],[79.58019431342288,28.87120820311445],[79.58097535903654,28.866216638304728],[79.57349352100381,28.854707733844773],[79.57565279246913,28.850510714117874],[79.58436542844228,28.84633396893951],[79.58751788537052,28.850047748671408],[79.59155321644148,28.849557072335955],[79.59359954811599,28.85209970818732],[79.59712777392083,28.851315580039557],[79.60123911054966,28.854722497098184],[79.6033913383248,28.854783701162788],[79.60390084029606,28.85689510131387],[79.61331216523597,28.852887994954706],[79.62138257674788,28.864369875078054],[79.62613581803771,28.866686567963022],[79.63092727276141,28.861182673315096],[79.63601156209802,28.86687344336665],[79.64486153700341,28.863488916433752],[79.64745290890016,28.867079590828336],[79.64870837008674,28.86649063734205],[79.65349579317142,28.869273250214693],[79.65557891445007,28.868476547462812],[79.65605343602418,28.8698320969596],[79.66571756035975,28.865629547562442],[79.66342031485335,28.862005401966083],[79.66743970262465,28.859759783427638],[79.67212784570074,28.858075534544255],[79.67738882467063,28.859332267685318],[79.68189701183915,28.856853744763896],[79.68367183400723,28.85538454314732],[79.68231022159847,28.853528783255562],[79.68316663406785,28.850036626164044],[79.69200684518441,28.847946102398843],[79.68996588813023,28.845391336329772],[79.6929228087706,28.845976431800274],[79.7066740017476,28.841071802926702],[79.70752699972057,28.844231528434147],[79.70625402947081,28.84451194798571],[79.70962574899025,28.851166388618445],[79.71855248852988,28.848871109678768],[79.71991773911556,28.84572794516462],[79.72058810689633,28.8503358924841],[79.7234037180509,28.852952657295496],[79.72271157061607,28.855296851648806],[79.72637601245901,28.86103705446788],[79.73652022522856,28.856323797259286],[79.73825240077682,28.858819377862005],[79.74565355123242,28.8599837592929],[79.74907584769898,28.871831842663457],[79.75925239802207,28.870918270848343],[79.76675628879669,28.874990240982687],[79.78082635405515,28.871457564197396],[79.78344531770581,28.871309234753276],[79.7862943416974,28.873470834072542],[79.78861630884043,28.872756158372773],[79.79325470950432,28.882931480414282],[79.79980464783772,28.88754359586864],[79.81470537445963,28.883750427329392],[79.81383741953715,28.886625976230825],[79.81802976713661,28.887870715526038],[79.82930060022305,28.884518659034377],[79.82828327882505,28.87834908426271],[79.83253116297031,28.87104959635694],[79.83546538138683,28.871103274253795],[79.83565841586663,28.875019130060664],[79.8432297512545,28.875944802663877],[79.84565752017504,28.87392981393016],[79.84577979435996,28.863603326650264],[79.84960639199316,28.859361759046593],[79.84505966620063,28.855437957694704],[79.84534792030395,28.851176986200866],[79.84063782240227,28.847740340317067],[79.83800941027144,28.848383696300573],[79.83288937157977,28.855381686345524],[79.83074476960306,28.85529396258653],[79.82978105247469,28.853300064836873],[79.83245453398163,28.84590341032038],[79.83634540517511,28.842999723550594],[79.8367853676619,28.839981566081775],[79.8308800352236,28.837844015746786],[79.827278767403,28.84173547029253],[79.82382255773783,28.839074118218612],[79.82790310730522,28.837018835915725],[79.83131679341979,28.830824291097457],[79.8371780554086,28.83241369288155],[79.83245520861644,28.823601492655595],[79.8291583969136,28.821454451090194],[79.82945238945494,28.81820847335618],[79.82604805300586,28.814994499705357],[79.8242926569058,28.807336594812554],[79.82159830663646,28.805424004039697],[79.81897593926917,28.805536934490267],[79.81990097853468,28.81222718679674],[79.81645645864633,28.816982374483814],[79.80723136793955,28.805721803859587],[79.80803830210137,28.80097135352599],[79.813940917136,28.796947355596284],[79.81455041776805,28.79895267366407],[79.81281936421556,28.802027131341454],[79.8145761059919,28.802670035430246],[79.81995607310938,28.796171229019784],[79.8228906221059,28.79569506484006],[79.82432491810259,28.798349907852973],[79.82693649041512,28.79503383099419],[79.83081122517113,28.797789834032134],[79.83308503542843,28.796885026429912],[79.83433764446396,28.798648782750014],[79.83832451232364,28.79759695482021],[79.8398693127784,28.800238100954775],[79.838435581822,28.80128497442121],[79.84152735485787,28.804334038562065],[79.84609365044884,28.80480222709212],[79.84547514959596,28.800809779022707],[79.84934672228218,28.799701267612356],[79.85237959547979,28.801960689810535],[79.85060039312638,28.80339804956526],[79.85289861959308,28.806196638383263],[79.85031964175235,28.806077865605385],[79.85166262939029,28.808897102137283],[79.85076435093711,28.810516910570012],[79.84890212628515,28.809563294298727],[79.84659234299232,28.810504491386165],[79.85294252834586,28.81379379798991],[79.85212631997702,28.815722675653188],[79.84662026173301,28.817501652188874],[79.84785808090572,28.81959687157538],[79.84630968898647,28.823240147702897],[79.8486361521975,28.825217838587307],[79.85407616809843,28.824178690153147],[79.8537158556346,28.826096133926487],[79.8508319473656,28.826994659452478],[79.85102981837493,28.828609673069295],[79.8538724706162,28.827054706420142],[79.85772393631142,28.830705411832596],[79.86142540311711,28.83059142422828],[79.85898474427056,28.831724649564237],[79.86061960173083,28.833102246876283],[79.85888319421925,28.833863005514466],[79.86266578608165,28.837125651582443],[79.86319503571781,28.840281165071502],[79.86470269263219,28.837833215356103],[79.86719363108352,28.83960745938489],[79.87025181161933,28.83851442311363],[79.8716694483591,28.84020555857579],[79.87461484990254,28.836406558488456],[79.87337994216969,28.836368258077155],[79.87435873482515,28.83430651978415],[79.87256365115584,28.831624577329194],[79.87573432052815,28.833171864342738],[79.8784777080322,28.83037484003878],[79.87962029141175,28.83247483058968],[79.8785803270787,28.83362527346396],[79.88340132469713,28.834046907816084],[79.88212841373617,28.836997396280584],[79.88822781461522,28.836622515539506],[79.88905234587514,28.83410965700881],[79.89391136289136,28.831521793128683],[79.89199681856063,28.82567532756497],[79.89404313855702,28.823859244976962],[79.8940731943898,28.820468940007],[79.91453222437433,28.81854953829337],[79.91070614686564,28.812530201419204],[79.91078210660943,28.809963157419233],[79.91552810029154,28.80433844669689],[79.90555034264925,28.80305751595485],[79.87849499431321,28.81489853021627],[79.8734850324815,28.809455893065604],[79.86961015309673,28.808405842156954],[79.87007995671894,28.80582738667669],[79.87473619612777,28.802419444401806],[79.87226838660004,28.79942259145522],[79.87306360942553,28.797347016794202],[79.88330572508629,28.794606202087238],[79.8842656117983,28.790065469707642],[79.89728276081391,28.786294717811934],[79.90136563522127,28.782039806858798],[79.90647355024988,28.782020730510016],[79.90982373535533,28.785459803853033],[79.91399371220925,28.782824056007797],[79.91781368386893,28.782425938209165],[79.9193608657575,28.784187114242886],[79.91884723153593,28.786564786072198],[79.9237839707905,28.786772930965697],[79.92653040627833,28.79006975641835],[79.93982606537138,28.78778140802566],[79.92852716891545,28.77908830880711],[79.92408478962969,28.773227348797924],[79.92699972840356,28.771033772307444],[79.92734677275067,28.768771201089926],[79.93057718458094,28.768084197625047],[79.9332349392822,28.7643408542897],[79.9325839059413,28.762784725450675],[79.94321077542813,28.759955724438125],[79.94315576260013,28.758042856790794],[79.9387242933535,28.753195212354342],[79.93863303350379,28.750441046673476],[79.94359249384686,28.748686353128615],[79.94649077965198,28.742424715296327],[79.94369494760333,28.73517761529019],[79.94549630869984,28.730642311199745],[79.95417132322893,28.72289700588437],[80.03013885721366,28.74869924671377],[80.05228078835647,28.778349962408736],[80.05545807382087,28.78131318281232],[80.0617432427074,28.783260938655673],[80.05867996692733,28.788453120209706],[80.06488287438833,28.794498762608175],[80.06810645992077,28.802910868789038],[80.05922728887037,28.81686879372543],[80.05179602149657,28.82043861358354],[80.05979334697527,28.825460400815512],[80.06292776752925,28.83474151199575],[80.06508911589948,28.836732767314864]]]}}]}