{"type":"FeatureCollection","features":[{"type":"Feature","geometry":{"type":"Polygon","coordinates":[[[78.477529999875586,17.397731000041215],[78.478175999955965,17.399178999735934],[78.477698999929984,17.399590000103732],[78.477695999556929,17.399591999976032],[78.477412999699723,17.399835999662912],[78.477411999874789,17.399837000026299],[78.475968000276396,17.400642000206666],[78.476009000284293,17.401044000075064],[78.475501000296163,17.401481000323809],[78.472554520774352,17.401086873974144],[78.470521999799047,17.400814999657051],[78.470656285357592,17.399052337112717],[78.470885999847127,17.396036999970931],[78.470127999613723,17.394136000368633],[78.468592999778735,17.393798000410463],[78.466500999551826,17.393644000156424],[78.465406999757789,17.393930999941002],[78.464548999965302,17.393274999771698],[78.464465000299711,17.393323000072932],[78.464334999705059,17.393210000379487],[78.464877999853272,17.392367000129635],[78.464784999966867,17.392374000387694],[78.464235999970839,17.393098000159291],[78.463283999568716,17.393845999717225],[78.463041999719366,17.393597999877283],[78.463016999605017,17.392761000399517],[78.462592000355897,17.392867999675701],[78.462580999586947,17.393534000140548],[78.462039999986871,17.393506999682312],[78.461691000007391,17.391978000185944],[78.461620999687199,17.391620000075321],[78.461241999570532,17.391662999627556],[78.46138899988361,17.392062000014615],[78.461463000401778,17.392263000060421],[78.461468000424659,17.392276000179464],[78.461500000211686,17.392357999919938],[78.461551000265317,17.39250100024702],[78.461578000029505,17.392575999636545],[78.461639999953775,17.392744999965576],[78.461641999603614,17.392750999807003],[78.461659000220351,17.392797999843829],[78.460678000404229,17.392869999621524],[78.460696642242993,17.393000168358263],[78.460644000069024,17.393028999958862],[78.460496041253521,17.393122089487747],[78.459710999933463,17.393616000174266],[78.45945255642286,17.393598616231888],[78.459264999869646,17.393586000249833],[78.458600000421015,17.393532000201986],[78.458309999992778,17.393955000007125],[78.456518000239839,17.392560000043684],[78.456369000276908,17.392444000381825],[78.455383000437905,17.391675999789243],[78.455390999935517,17.390278999616203],[78.455392999585328,17.389986000170548],[78.455400000156345,17.389214999995673],[78.456045700199425,17.387056463405187],[78.4560939999173,17.386895000083534],[78.455794000341655,17.384849000409631],[78.45694900023507,17.383374999797539],[78.457765000194755,17.381942999833733],[78.458145999961232,17.38104399958927],[78.458576999956463,17.380794000322481],[78.458997000081041,17.380678999670636],[78.459744000443735,17.38012099991024],[78.460088000400333,17.380530000149967],[78.460577999946807,17.381595000152242],[78.460779999613152,17.381553000412019],[78.461055999797665,17.381497000171841],[78.461162000102902,17.381843999577814],[78.4613100002409,17.3817970001563],[78.461184999669129,17.381467999581481],[78.461559999587834,17.381381000354633],[78.461987000283415,17.382520999773895],[78.465902000225427,17.383208999892133],[78.472033000242902,17.382141000184873],[78.474454732484759,17.381674180751219],[78.474907000094333,17.38158699987591],[78.475310499963754,17.38137500957065],[78.47566399960445,17.383221000200223],[78.484100000284215,17.380845000156047],[78.484460999959225,17.380742999617389],[78.485240000109002,17.380457000190948],[78.486034000327379,17.380291999823985],[78.488026000096852,17.380653999966672],[78.488028999571597,17.380653999966672],[78.488031000119733,17.380653999966672],[78.488514999818406,17.380733000082628],[78.488667181614062,17.380728394672566],[78.489033411280673,17.380717312368329],[78.488924999897236,17.380900000128719],[78.488122000356327,17.381992000139718],[78.487985999913903,17.383006000133701],[78.488905999630646,17.384012000340419],[78.488881769372512,17.384066989074007],[78.488493999902005,17.38494700030974],[78.489244999564377,17.385358999665655],[78.488456000267178,17.389319000083194],[78.488820000315258,17.39026000028958],[78.488835000383858,17.391461999779708],[78.489244999564377,17.391287999643502],[78.489526999596663,17.392046999925565],[78.488309326940865,17.392710029604338],[78.487515999560614,17.393141999764122],[78.484086000040477,17.392880999751743],[78.484079844784176,17.392990868145176],[78.484025999766061,17.393951999677583],[78.481084000142559,17.397528999628268],[78.480263999984928,17.397417000338592],[78.478897000379405,17.397572000362942],[78.477897000296707,17.397094000120081],[78.477529999875586,17.397731000041215]]]},"properties":{"pin_code":"500001","fname":"Hyderabad G.P.O.","state":"Telangana","circle":"Telangana","region":"Hyderabad City","division":"Hyderabad GPO"}},{"type":"Feature","geometry":{"type":"Polygon","coordinates":[[[78.469967999780167,17.437117000239173],[78.469847000304668,17.437312000330387],[78.469613999777849,17.43726900038094],[78.469337999593321,17.437218000009185],[78.469262000323667,17.43693599961199],[78.468063999874218,17.436696999730277],[78.467842000116391,17.436495999720055],[78.467842000116391,17.436229999975801],[78.46799299972912,17.435932999851374],[78.467832000070644,17.435616000180644],[78.467562999558808,17.435277999833037],[78.46737599996105,17.43514599971996],[78.467295999595095,17.435089999617173],[78.467273999853788,17.435074000319236],[78.466866000323108,17.434818000220133],[78.466811999896464,17.434613000019063],[78.466759000193008,17.434448999863751],[78.466727000405925,17.434162999626903],[78.466727000405925,17.433639999694453],[78.466769000238727,17.433313000238421],[78.466769000238727,17.433067000340028],[78.466662000108613,17.432810999996022],[78.466437999802622,17.432504000174522],[78.465642999759353,17.431435000349936],[78.465508999865051,17.431060999903458],[78.465406999757789,17.431086999762204],[78.465390999864255,17.431480999673614],[78.465299999627646,17.431531999934926],[78.465170999756225,17.431475999580009],[78.465143999992065,17.431050999693095],[78.465198000418724,17.430819999651927],[78.465241000076418,17.430384999704494],[78.465052999755457,17.430227000359395],[78.464559000011022,17.430457000098379],[78.464511000330447,17.43068200028921],[78.464527000223995,17.430907000202648],[78.464194999962984,17.431306999935092],[78.463926000349446,17.431091999866471],[78.463562000301394,17.430625999673424],[78.463368000132633,17.430518000028965],[78.463083999552168,17.429730000339603],[78.46274600034171,17.4290039996026],[78.462848000448929,17.425384999627564],[78.463198530259348,17.424745007152961],[78.463577000369995,17.424053999812916],[78.464886000249194,17.4231689999522],[78.465294999604808,17.421721000087384],[78.465517000260974,17.420534000204825],[78.465750999714359,17.418776999732575],[78.465703999858718,17.417355999692887],[78.466472000137827,17.416545999780634],[78.466612999704807,17.415897000417473],[78.465380999818521,17.413955999637675],[78.460357999838777,17.413177999943443],[78.456987999694803,17.41358500024965],[78.454195999859152,17.413469000214764],[78.45252700012982,17.412657999915588],[78.4516169995605,17.41068899992564],[78.451631999629129,17.409144000266579],[78.451851913498871,17.408386066131939],[78.452040078211567,17.407737552941676],[78.452061999799426,17.407662000037572],[78.452047204546687,17.40766551101709],[78.451038000325596,17.407904999776289],[78.451544100376879,17.406535221567005],[78.452609000145614,17.403653000303759],[78.457895999715987,17.402640000247594],[78.459276999565205,17.399424999848073],[78.458155000182089,17.399041999979481],[78.458479000047177,17.398163999860582],[78.458706999652833,17.397544000124913],[78.459006000301869,17.396731999929699],[78.459033000066057,17.396038999882116],[78.459525999985559,17.396002000236166],[78.459578999689015,17.395351000005483],[78.459662000427997,17.394916999992965],[78.459449999817551,17.394751000272873],[78.459951000133003,17.394657000333606],[78.459833999957112,17.394303000183371],[78.459715999956344,17.39381100042041],[78.459434196655081,17.393670410814458],[78.459264999869646,17.393586000249833],[78.45945255642286,17.393598616231888],[78.459710999933463,17.393616000174266],[78.460496041253521,17.393122089487747],[78.460644000069024,17.393028999958862],[78.460696642242993,17.393000168358263],[78.460678000404229,17.392869999621524],[78.461659000220351,17.392797999843829],[78.461641999603614,17.392750999807003],[78.461639999953775,17.392744999965576],[78.461578000029505,17.392575999636545],[78.461551000265317,17.39250100024702],[78.461500000211686,17.392357999919938],[78.461468000424659,17.392276000179464],[78.461463000401778,17.392263000060421],[78.46138899988361,17.392062000014615],[78.461241999570532,17.391662999627556],[78.461620999687199,17.391620000075321],[78.461691000007391,17.391978000185944],[78.462039999986871,17.393506999682312],[78.462580999586947,17.393534000140548],[78.462592000355897,17.392867999675701],[78.463016999605017,17.392761000399517],[78.463041999719366,17.393597999877283],[78.463283999568716,17.393845999717225],[78.464235999970839,17.393098000159291],[78.464784999966867,17.392374000387694],[78.464877999853272,17.392367000129635],[78.464334999705059,17.393210000379487],[78.464465000299711,17.393323000072932],[78.464548999965302,17.393274999771698],[78.465406999757789,17.393930999941002],[78.466500999551826,17.393644000156424],[78.468592999778735,17.393798000410463],[78.470127999613723,17.394136000368633],[78.470885999847127,17.396036999970931],[78.470656285357592,17.399052337112717],[78.470521999799047,17.400814999657051],[78.472554520774352,17.401086873974144],[78.475501000296163,17.401481000323809],[78.476009000284293,17.401044000075064],[78.476091000300045,17.401833999940536],[78.476840000312578,17.404981999812655],[78.476871000274713,17.405111999633391],[78.476887999993153,17.405181000417226],[78.476934999848822,17.40537699980586],[78.477017999689508,17.405678000386406],[78.477318000163478,17.406766000318306],[78.476938692822955,17.407286795428856],[78.475747000343461,17.408922999649072],[78.478304000002481,17.412549999928544],[78.477781999770656,17.41272300010716],[78.477820000303808,17.413041999828547],[78.47787300000725,17.413179999667076],[78.478130999750121,17.413339000339359],[78.478852000173575,17.41450399961483],[78.47892800034154,17.414822999654728],[78.480024999610322,17.416117000038675],[78.481127999625187,17.417515000158613],[78.481316558698254,17.41773857204409],[78.482538999611634,17.419187999735204],[78.484003000199834,17.420989999686785],[78.483974157990986,17.421609147619542],[78.483973000062605,17.42163400030099],[78.484291000079921,17.422221000351438],[78.484517872299875,17.422302192978325],[78.484875000236016,17.422430000002862],[78.48511100023758,17.422582000378299],[78.48558099969253,17.423133000035552],[78.485959999809211,17.424333999945624],[78.486114999619915,17.42494600039355],[78.48614399993221,17.425060999769752],[78.486085253705909,17.425099126605854],[78.485993000319482,17.425159000395855],[78.485697000043487,17.425042999998869],[78.485424000232015,17.425042999998869],[78.485165999590834,17.425194999912947],[78.484839000251,17.425542999735857],[78.484467999631903,17.425281999716582],[78.484346000331499,17.425036000135108],[78.484359999676897,17.424985999998455],[78.484407000430878,17.424812000067558],[78.484285000232134,17.4247970000953],[78.484265999965558,17.424858000203322],[78.484231999630381,17.424964000173983],[78.484361000400099,17.42531100021332],[78.484580999609832,17.425565000347653],[78.484368999897725,17.425738000196304],[78.484375999570403,17.4259919997365],[78.484255000094905,17.426165000037567],[78.484072999621731,17.426186999717295],[78.484026999590967,17.426079000017381],[78.483870000130437,17.426022999703417],[78.48373899971088,17.425976999861195],[78.483624999908059,17.426070999973572],[78.483670999938795,17.426571000323158],[78.484065000124119,17.426578000128064],[78.484277999661117,17.426809999754454],[78.484414000103556,17.42688899963753],[78.484553000020725,17.427326999985457],[78.484589000005741,17.427438999796099],[78.48465000010512,17.427511999849933],[78.485044000290429,17.427562000151752],[78.485385999698849,17.427526000244367],[78.485575999669649,17.427526000244367],[78.486122000190932,17.428047000140172],[78.486595999843857,17.428929999941378],[78.486672000011836,17.429972999856194],[78.486314999636463,17.430609999984089],[78.484645000082239,17.431984999664472],[78.484019999918274,17.432664999813124],[78.482320000226821,17.433418000261316],[78.479344000268156,17.434286999910501],[78.478585000209875,17.434343999577148],[78.478068999825823,17.434055000361795],[78.477765000052202,17.433447000322268],[78.478585000209875,17.432318000042532],[78.478585000209875,17.431535999837184],[78.477553000340095,17.430753999708905],[78.475913000024804,17.429248999633476],[78.476035000223547,17.428350999981252],[78.47536700040186,17.428785999634432],[78.472785999555086,17.428640999865227],[78.472331000168737,17.428785999634432],[78.472301000031507,17.430609999984089],[78.472422000405345,17.431535999837184],[78.47357599957553,17.432693999993752],[78.473363000038475,17.433128000255156],[78.472846999654465,17.433851999657644],[78.473773999942225,17.435423000327624],[78.472687999645814,17.436081999627937],[78.472497999674985,17.436138999590824],[78.472377000199486,17.436138999590824],[78.472326999970775,17.436185999606977],[78.472265000046505,17.436425000158131],[78.47216799996211,17.436812999575704],[78.471413000101791,17.437065999824952],[78.471374999568653,17.436855999632666],[78.471326000063172,17.436685999667247],[78.471239000024539,17.436649999845812],[78.471109000328184,17.436775999618266],[78.471044999855764,17.436983000279813],[78.471132999719302,17.437141999932884],[78.470645999647587,17.437138000153535],[78.470161000123994,17.437065999824952],[78.469967999780167,17.437117000239173]]]},"properties":{"pin_code":"500004","fname":"Khairatabad H.O","state":"Telangana","circle":"Telangana","region":"Hyderabad City","division":"Hyderabad City"}},{"type":"Feature","geometry":{"type":"Polygon","coordinates":[[[78.529136000397699,17.428287000417662],[78.528686000135892,17.428451000111526],[78.528170999576787,17.428532999903169],[78.526410999610889,17.429167000163503],[78.526024999821487,17.428552999742262],[78.524844999813752,17.427385999679991],[78.524072000410058,17.426198999775242],[78.520918000176152,17.426730999837215],[78.52145399975339,17.42535899981365],[78.521163978663907,17.423792640255357],[78.520768000388358,17.421654000038814],[78.520030000246479,17.417586999628572],[78.520024000398649,17.417554999677161],[78.520011999804794,17.417489000081147],[78.520009000330063,17.417471000420925],[78.519954999903376,17.417175000040046],[78.519663157928846,17.416169063151212],[78.518862999759165,17.413410999741089],[78.51853100039645,17.412139000417998],[78.518465000274233,17.411887999644815],[78.518399999976907,17.411651999579991],[78.518401999626704,17.411648000099298],[78.518386999558103,17.411640999722106],[78.51825199983891,17.411580999784132],[78.517731000330301,17.409753000115824],[78.517199999877661,17.408764999734093],[78.515701999852581,17.407069000116103],[78.514175000413488,17.405474000374596],[78.514509000324352,17.405396999609202],[78.515496999813152,17.40654000033441],[78.516395999613522,17.405745000294409],[78.515335000329756,17.405383000089994],[78.515396000429121,17.405144000049841],[78.514450999699719,17.402971999785205],[78.514796000379519,17.402744999905767],[78.514889481762935,17.402721318155855],[78.515396000429121,17.402593000168771],[78.518391999580984,17.401969999824651],[78.518675781870826,17.402644327374425],[78.519324999716545,17.404186999853266],[78.520744000098901,17.40368000012101],[78.520311591545322,17.402650729773267],[78.519758000259898,17.401333000099566],[78.522231000253313,17.400268000136691],[78.528069166556179,17.400022995520736],[78.530165999719301,17.399934999611638],[78.533115999738726,17.401481999821016],[78.534899999994067,17.402380999918513],[78.535684999991631,17.403229000301625],[78.538834000202655,17.406943000413964],[78.539676000101608,17.405171999981036],[78.542814000441979,17.404690000260633],[78.544391000109798,17.404448000014188],[78.546004999587495,17.404201999803657],[78.546052000341476,17.404319000060053],[78.548419000029682,17.408373000299139],[78.549693999573705,17.411383999892191],[78.553294999696348,17.408424000157311],[78.554884999782928,17.407117000224698],[78.556452000303281,17.409921999995735],[78.553491000413246,17.411151000080817],[78.555636000343597,17.414774999856288],[78.554415000327978,17.416224000214488],[78.552202999552136,17.418849000419236],[78.548039999913016,17.418214000062793],[78.546668000284612,17.419629999865268],[78.54415699975803,17.42167099989998],[78.543303000163533,17.422400999905602],[78.542499999724313,17.423087000322244],[78.54029240249001,17.424974307556607],[78.538213000236638,17.42675200008977],[78.535895000053898,17.424684000150435],[78.533684999826193,17.425236999912006],[78.533083999951685,17.425453999610315],[78.532880999562067,17.425527999823657],[78.532878999912271,17.425529000046399],[78.53285999964568,17.425535999891267],[78.532493999947803,17.425692000282293],[78.53210200031063,17.425858000178334],[78.531303000069371,17.426260000271853],[78.531539000070936,17.427570000130206],[78.529844000402349,17.428307000283713],[78.529779999929943,17.42791799971064],[78.529136000397699,17.428287000417662]]]},"properties":{"pin_code":"500007","fname":"Jama I Osmania S.O","state":"Telangana","circle":"Telangana","region":"Hyderabad City","division":"Secunderabad"}},{"type":"Feature","geometry":{"type":"Polygon","coordinates":[[[78.59381699964311,17.340081999786506],[78.596971999701921,17.342225999918057],[78.598122881718069,17.345212386711012],[78.598489999818511,17.346164999726412],[78.597676000406963,17.351494000262353],[78.594014229255308,17.351582897468283],[78.592280000158283,17.351625000112442],[78.587022752790105,17.350719317397125],[78.584022255773647,17.350202411036005],[78.581460000071928,17.349761000310483],[78.581609648618468,17.348927253417738],[78.582300000321027,17.34508099985095],[78.579726999870189,17.341516999662563],[78.575523000223157,17.339140999949599],[78.57200599976612,17.338363000425538],[78.570994999812754,17.341603999808743],[78.567331999765813,17.345518999701707],[78.564969549146198,17.346666610120437],[78.564801999870994,17.34674800004947],[78.561498999674157,17.349820000157568],[78.560821999631642,17.349991999835993],[78.560549999645104,17.3491129996655],[78.560420999773655,17.348333999768283],[78.560764999730253,17.348026999627443],[78.561066000029129,17.347678999832368],[78.560987000386419,17.346877000269185],[78.560725000445601,17.344195999580592],[78.561250060339276,17.344084850010635],[78.563530999626636,17.343602000062578],[78.563892000199957,17.342637000342911],[78.564929000092619,17.342813000024229],[78.565307000384394,17.342621999636325],[78.565253999782612,17.341753999934294],[78.565589000416693,17.339737999692169],[78.562353000166993,17.334555000384604],[78.562081861664794,17.33454050066371],[78.558182999956884,17.33433200005549],[78.556414999595077,17.334065000251044],[78.554989000438326,17.33497000027976],[78.551778000303017,17.335820000369885],[78.552503999851012,17.333965999858705],[78.552933000196404,17.331262000237263],[78.553232999772064,17.329992000279198],[78.554391999863427,17.329009000395729],[78.560270999985846,17.321348000224347],[78.560491144722633,17.319565085479443],[78.560614999942416,17.318561999930605],[78.561892999859467,17.316096999801626],[78.5660305681929,17.310250649321105],[78.570268000439839,17.304263000196308],[78.572149361902291,17.30380501114011],[78.577272570748633,17.302557837692],[78.578684999954703,17.302213999755828],[78.582826495722543,17.305309385126094],[78.589540000201154,17.310326999674668],[78.590783999783042,17.310081000051316],[78.594572000401769,17.311023000402777],[78.595022872029389,17.31456157862101],[78.595152000359903,17.315575000405101],[78.59454499973927,17.317082000090142],[78.595395000034145,17.319862999957977],[78.589325000116006,17.322237999666967],[78.589264999841546,17.327800000156273],[78.587746999724985,17.330348999997668],[78.590175000410909,17.332435000229928],[78.591449999954889,17.334810000286684],[78.592116999951685,17.337474999940543],[78.59381699964311,17.340081999786506]]]},"properties":{"pin_code":"500070","fname":"Vanasthalipuram S.O","state":"Telangana","circle":"Telangana","region":"Hyderabad City","division":"Hyderabad South East"}},{"type":"Feature","geometry":{"type":"Polygon","coordinates":[[[79.592384999800714,18.0200380000976],[79.589594999614889,18.027459999896447],[79.586678000105735,18.035219000242115],[79.576561000001149,18.036331000421889],[79.570284000393812,18.018569000079999],[79.566207000070065,18.019875000299276],[79.566164831354016,18.019842589965563],[79.564434965374318,18.018513031610791],[79.563883630656903,18.018089278553639],[79.563712829480352,18.017958001666269],[79.563338509586288,18.017670300661305],[79.563073999752575,18.017466999629512],[79.559563338706468,18.015732659318864],[79.556464999884184,18.014201999937686],[79.556199077000542,18.014217456420912],[79.552564536480105,18.014428706848815],[79.552410156506951,18.01443768019173],[79.551471161913497,18.014492257481958],[79.548983030697443,18.014636874789616],[79.548739999582168,18.014651000270163],[79.539720992283023,18.012566895744289],[79.53955700033633,18.012529000392213],[79.540166068878776,18.01136931529928],[79.540672000046797,18.010406000205212],[79.540111185408179,18.010010986809874],[79.539840906593668,18.009820614475213],[79.539312326202392,18.009448303720905],[79.539103169658162,18.009300982555835],[79.538354999688949,18.008774000363562],[79.537024000068442,18.005304999983725],[79.539704183905769,18.00156132925423],[79.539770999698277,18.001468000159996],[79.537603589496499,17.998745032184541],[79.536295000147419,17.997101000054119],[79.540071000172247,17.993305000326075],[79.536466999676534,17.991264000382543],[79.536473785550214,17.991250067829252],[79.538634000246532,17.986815000050242],[79.538054000288412,17.984569999937655],[79.538617254751315,17.983060464131821],[79.539617327597583,17.980380210219806],[79.539723000017702,17.980097000385459],[79.538885125182532,17.976507655852036],[79.538874000446043,17.976459999916834],[79.539027850413163,17.976482515858905],[79.543212999812269,17.977095000333428],[79.54203000032976,17.974208999596669],[79.538855742187906,17.973683225050511],[79.5305290000029,17.972303999671361],[79.538463263748667,17.9709951828311],[79.550908279353109,17.968942262736288],[79.571020499450839,17.965624517210316],[79.57252700023345,17.965376000147693],[79.573272858837427,17.963484139861343],[79.578717999627059,17.949672000198955],[79.586354000240647,17.952512999631974],[79.584703000054702,17.956035999811995],[79.585400971267504,17.96360851683654],[79.585432999800659,17.963955999583458],[79.581957000249801,17.970610000122321],[79.585168607646224,17.972380886007102],[79.587063999895136,17.973426000238629],[79.587259211891208,17.974911441189771],[79.587622000111935,17.977671999662892],[79.589634999797838,17.978610999812556],[79.581742000164652,17.982161999832805],[79.581697370963013,17.98250166133765],[79.581312999819232,17.985426999837738],[79.578351999929183,17.988120999697593],[79.575996000111616,17.988667000260968],[79.573416999812991,17.989264000023169],[79.572751451493716,17.989642477725237],[79.571086999934693,17.990589000360739],[79.569468000434114,17.99150900022634],[79.569468000434114,17.992365999747939],[79.56882499982845,17.993508999913622],[79.566356999857902,17.991387000165314],[79.567172999817586,17.994018999986352],[79.568310000167656,17.994825999626919],[79.565499000065415,17.997508999610886],[79.565745999937633,17.998906999816956],[79.566714147556979,18.000345993326146],[79.567977000081711,18.002222999769891],[79.565311421054304,18.002752203168711],[79.565252000193198,18.002763999829689],[79.565268363904423,18.002795247137325],[79.567860999730755,18.007745999747378],[79.567979068003496,18.007971114841578],[79.568011000416888,18.00803199979449],[79.569458000388352,18.010793999796988],[79.570556328265454,18.011660055913399],[79.570877005262304,18.011912915940488],[79.571774999847861,18.012621000338747],[79.572563046032542,18.012750747758197],[79.572928999916343,18.012810999742101],[79.576023999700723,18.01268100035232],[79.577107520646948,18.011798776663422],[79.580987018270605,18.008639978482584],[79.581127000046408,18.008526000258385],[79.581129488379744,18.008542370493881],[79.581784999822347,18.012854999763547],[79.582241318833823,18.013164226359013],[79.592384999800714,18.0200380000976]]]},"properties":{"pin_code":"506001","fname":"Hanamkonda H.O","state":"Telangana","circle":"Telangana","region":"Hyderabad","division":"Hanamkonda"}},{"type":"Feature","geometry":{"type":"Polygon","coordinates":[[[79.61906944812894,17.988593242154973],[79.613733148117461,17.989118498103373],[79.609438515644825,17.989541220334509],[79.606271000257436,17.989852999748347],[79.603596325787791,17.990537062584767],[79.600753999634961,17.991264000382543],[79.600023999889004,17.989509000080943],[79.596850204379521,17.989544482430851],[79.596625000331045,17.989547000345425],[79.594986999665551,17.989565999620154],[79.593221999676786,17.988549000263529],[79.592220845258936,17.987971943357167],[79.590977000187308,17.9872549997052],[79.590310000190541,17.984080000293428],[79.591826999583859,17.980038999796104],[79.591570323957754,17.979871786487891],[79.589634999797838,17.978610999812556],[79.587622000111935,17.977671999662892],[79.587259211891208,17.974911441189771],[79.587063999895136,17.973426000238629],[79.585168607646224,17.972380886007102],[79.581957000249801,17.970610000122321],[79.585432999800659,17.963955999583458],[79.585400971267504,17.96360851683654],[79.584703000054702,17.956035999811995],[79.586354000240647,17.952512999631974],[79.590706999850568,17.954132000367295],[79.593846035948459,17.955299504827984],[79.594861000167171,17.955676999930951],[79.598988999646195,17.958217000415736],[79.603792382200254,17.955578836241397],[79.604189000076261,17.955361000163194],[79.607576999763609,17.962568000006225],[79.610528367018873,17.966157350943011],[79.610731999822406,17.966404999577811],[79.616138999941711,17.967792999778126],[79.619006110613228,17.965222248689976],[79.622901999795886,17.961729000169861],[79.624433000331223,17.960355999943001],[79.624397000346207,17.960323999963016],[79.624466999768117,17.960276000409426],[79.624527999867468,17.96026599971745],[79.624521000194761,17.960323999963016],[79.624470000141145,17.960368000254466],[79.624439000179009,17.960358000422229],[79.62483699966397,17.960987999856101],[79.625245000092946,17.961632000298597],[79.626076000121273,17.962945999994833],[79.626111767442609,17.96300686715572],[79.626088378007566,17.963030475189726],[79.625859000386285,17.963261999875755],[79.627876000270106,17.965793000143133],[79.626459000435915,17.966391999898054],[79.619700999706311,17.969246999871203],[79.616325081461241,17.970672921401945],[79.614902000032544,17.971273999815377],[79.607749000191049,17.974610000124866],[79.608628999724857,17.977548999721108],[79.609112576317003,17.977783244765742],[79.613948999805487,17.980126000245772],[79.615088999630302,17.980118000078519],[79.615815999901514,17.980112999867043],[79.618076000357931,17.980097000385459],[79.622809999734372,17.982868000107864],[79.622853265293372,17.983185668080992],[79.623073000398392,17.984798999767037],[79.623372896667803,17.985996269370585],[79.623589999709054,17.986863000081435],[79.623692754401134,17.987157214124423],[79.620351999809543,17.988466999668557],[79.61906944812894,17.988593242154973]]]},"properties":{"pin_code":"506002","fname":"Warangal H.O","state":"Telangana","circle":"Telangana","region":"Hyderabad","division":"Warangal"}},{"type":"Feature","geometry":{"type":"Polygon","coordinates":[[[79.287028186202591,17.031472430532936],[79.285998000031384,17.032752000408994],[79.289319999596444,17.038927000384597],[79.29096400010971,17.043859999632588],[79.297516999901589,17.041905999639567],[79.302118999931864,17.047931000081253],[79.301014000267187,17.049269999624361],[79.300482999814534,17.049935999913753],[79.299428000378541,17.051596000039687],[79.297623000206812,17.05524999974342],[79.293504000050277,17.064009999990102],[79.293134999979358,17.064795000144713],[79.292068999774415,17.066654000308368],[79.29176400017586,17.067165000419621],[79.290865000375518,17.068197000023066],[79.289690000390635,17.069565999584551],[79.288486000093414,17.070703000202219],[79.28686300039486,17.072239999970279],[79.285223000079569,17.073769000081281],[79.283524000213035,17.07536900013034],[79.281088000029527,17.077321000375864],[79.279686000263936,17.078454000259928],[79.278188000238856,17.079646999892852],[79.276887999682188,17.081796999682044],[79.275772999971736,17.085128000192096],[79.274664000109098,17.086470000101706],[79.273617000170731,17.087193999959091],[79.258275104624587,17.092879013695104],[79.258253880129374,17.092553227909718],[79.258160043013106,17.091774896021651],[79.258306900494063,17.090445047250242],[79.258314309798521,17.090428313068148],[79.25792618729011,17.090086879269673],[79.257609030790874,17.089678091411209],[79.257391096807993,17.089202004003305],[79.25710232437676,17.088770758653766],[79.257015996277971,17.088290946648108],[79.256942785378925,17.087969496797211],[79.256939552342232,17.087743381714169],[79.256784529175334,17.08696922860236],[79.256881945179671,17.085685598633727],[79.25669247251993,17.084427419548259],[79.256606712156398,17.083115509443548],[79.256044636283136,17.082040549015613],[79.255872931401427,17.081673311739273],[79.255686823830757,17.081364745415335],[79.255356156669606,17.080874455483979],[79.255124195493565,17.080375700976656],[79.254863310362012,17.079998860204483],[79.254644019923063,17.079739807009737],[79.254638207823177,17.079170010134693],[79.254402009293955,17.077106594614456],[79.254244831068675,17.075206547987658],[79.254349025760192,17.073592857608528],[79.253849512156563,17.072292134401984],[79.252950054215404,17.070306251464775],[79.252877579934903,17.069871724098441],[79.252588962912185,17.069422371217637],[79.251966664880598,17.068882291535687],[79.250447481682798,17.069052584384124],[79.248772391375894,17.068775933996239],[79.248614010306468,17.068756078899025],[79.246539577533227,17.068496009648658],[79.245308181314797,17.068439078044037],[79.244455295631226,17.068741477616662],[79.243549924978865,17.069174808806377],[79.241988107737697,17.070060861124457],[79.240041981336489,17.07150093995735],[79.23727563289377,17.071801055489438],[79.235253077828219,17.072506845394074],[79.235122314563895,17.072552476589703],[79.233134642877417,17.072386911671828],[79.232725572554941,17.071665502660206],[79.232320140409328,17.070890941022927],[79.232196098339969,17.070653961938071],[79.231907037549504,17.068816357803197],[79.231370165708157,17.067501741022511],[79.231111202073009,17.066835561213438],[79.230850147159856,17.065766783650602],[79.230414280092418,17.064828205172891],[79.22951981139434,17.063556730738757],[79.228329405302333,17.062256338626174],[79.227242192280301,17.060278222252975],[79.226410696381933,17.05945027819941],[79.225422456144614,17.058888214627046],[79.224109599797913,17.058355809576014],[79.223368892133749,17.0565787897559],[79.222779562273061,17.055395007097299],[79.221710222131918,17.052991707824546],[79.216662798756204,17.052640558367113],[79.215158637186605,17.052885302585203],[79.214653375263467,17.05296751486642],[79.211676556939594,17.053858437161448],[79.2092786031033,17.054648851868063],[79.207810531350248,17.054847888378234],[79.206932788384421,17.05536713703048],[79.204222532544691,17.057887431515827],[79.202378642507668,17.058757968350523],[79.200897134652891,17.058871041346951],[79.197155164607636,17.059562619946576],[79.19499120483492,17.060499022114747],[79.192570533503414,17.062559685140801],[79.192334140938044,17.060636429441626],[79.191571271835869,17.059415345187261],[79.190249122417526,17.057467309079552],[79.188568301757428,17.055513577644493],[79.187925998244438,17.054766979742094],[79.187461014083681,17.053999907276893],[79.187283385710984,17.053144151729668],[79.187421066901322,17.050119809182391],[79.187368961021591,17.048767505438423],[79.186904053217646,17.047290405902952],[79.186754066904541,17.046511782128537],[79.186200565450662,17.044220267793381],[79.186041741511801,17.042491901522091],[79.188314051582537,17.040972901979529],[79.189653999321607,17.040230530918862],[79.191129974452537,17.039453081885195],[79.192819126986919,17.038563339727705],[79.19442513056029,17.038093852180978],[79.195950443861577,17.037741471423821],[79.198216584302955,17.037669437165665],[79.201783280459878,17.037826874271239],[79.208344268969554,17.037975265426425],[79.21490591504606,17.038028580948069],[79.216909266825795,17.037891444720895],[79.216932741600758,17.03789612996195],[79.221164316832059,17.03773167062992],[79.224072017879678,17.037305973325623],[79.225899641223549,17.036801569430182],[79.226958600433264,17.036509308083534],[79.228392447272341,17.035682863123558],[79.229808309839441,17.034866780613804],[79.2302375680013,17.03468901591248],[79.23242405213152,17.033783541655044],[79.236027601672916,17.031851490761749],[79.236187121806125,17.031682403417985],[79.237092429576421,17.030722799075981],[79.239096684163044,17.028224999641857],[79.239546149028897,17.027766422971094],[79.239880192957202,17.026981579906217],[79.239885053741205,17.024752280458383],[79.239524859854981,17.02301371451474],[79.238556098686288,17.020159134363134],[79.238191840821742,17.019058135960343],[79.23729787787515,17.015539257969159],[79.236208993088354,17.01310448968341],[79.235907802346645,17.011700887125315],[79.235903776995841,17.011671598334267],[79.236604743191819,17.011487962595485],[79.241875974634041,17.01033897840831],[79.244426789392321,17.009806886103558],[79.247374093567558,17.009720225749266],[79.248502279648037,17.010470032385527],[79.248614322920162,17.010506701162491],[79.249735555142038,17.010873644523276],[79.251221667760959,17.011465722812272],[79.253159059842645,17.012046852891572],[79.254604041299672,17.012457770913613],[79.256015818328805,17.012918227656723],[79.256921135082266,17.013199358819126],[79.257559623450248,17.013311614969826],[79.259165358427325,17.01357421431549],[79.259939318130051,17.013818392042833],[79.260821799708964,17.013995366536172],[79.261988897214295,17.014504099411997],[79.263585305882131,17.014757566822265],[79.264219981800039,17.014729600503617],[79.265226957300925,17.015291648231806],[79.266042181116191,17.015703354558823],[79.267009332503918,17.015871751969605],[79.267530280808529,17.015992341296673],[79.268571500986369,17.016342038309578],[79.269447494932322,17.016808347221595],[79.270253560423257,17.017183808807211],[79.270398748834452,17.01726604279883],[79.270741078822908,17.01739011440559],[79.271126131787966,17.017446601146997],[79.271418710381084,17.01725836863567],[79.271716070706404,17.017056595755776],[79.271924106153165,17.01685882982747],[79.272243951310088,17.016819977033958],[79.272583893576524,17.016573231413567],[79.272937904358656,17.016331084491327],[79.273352703237734,17.016139031792619],[79.273767305385732,17.015978630100385],[79.274181823092121,17.015831793450381],[79.274545144912167,17.015603264881811],[79.27496891885923,17.015479089870755],[79.275387964074653,17.015359409027415],[79.275769945699778,17.015153596830608],[79.276133294469261,17.014920542249918],[79.276426255744667,17.014668997493136],[79.276728589143431,17.014422026557696],[79.277081862408707,17.01429744188037],[79.277420980021716,17.014181819047984],[79.277807179237101,17.014052899703248],[79.27820730683095,17.013951192507434],[79.278635551693171,17.013863211211572],[79.278922379271833,17.013842247325059],[79.279049330086082,17.013833931348763],[79.279274690441426,17.014631092576852],[79.279557652569409,17.015234138638171],[79.279606606260799,17.015677571078303],[79.279680647203165,17.016095793709063],[79.279729216415603,17.016370137530526],[79.279942582465267,17.016828078990105],[79.28010108390896,17.017796688856972],[79.280092772695951,17.018379975939069],[79.280212002490345,17.018859987325026],[79.28030832075342,17.019244906404548],[79.280253541487383,17.019742009128656],[79.280260197105306,17.020185199827701],[79.280412776854646,17.020593050648376],[79.280521908686936,17.021186054229837],[79.280476725224787,17.021651556533151],[79.280449809902251,17.022203081817217],[79.280867657663379,17.024556895941906],[79.280562768557644,17.025215355094574],[79.280126383162283,17.025854971840737],[79.279116107251042,17.026568169339118],[79.278601494764118,17.026936017460155],[79.278312262395488,17.027341332585252],[79.278282927909871,17.028281731344702],[79.278334409460498,17.029833057466693],[79.278514970832575,17.030277243808278],[79.27918078595151,17.03205818989203],[79.281705766958865,17.031918913160439],[79.284151177893264,17.031724888065096],[79.286563626046672,17.0315396907327],[79.287028186202591,17.031472430532936]]]},"properties":{"pin_code":"508001","fname":"Nalgonda H.O","state":"Telangana","circle":"Telangana","region":"Hyderabad","division":"Nalgonda"}},{"type":"Feature","geometry":{"type":"Polygon","coordinates":[[[79.594933917317107,17.132255336624322],[79.622537999747806,17.121660999761744],[79.633475079061796,17.121287688560933],[79.634248432401677,17.121856942792324],[79.634969468757745,17.122574313947901],[79.635254490722673,17.122991472902147],[79.635829916459386,17.123672072951155],[79.636827262020418,17.124652818510469],[79.63796142459249,17.125534633902895],[79.638416580285707,17.125762565142647],[79.638872132135972,17.125900059988236],[79.640306384115235,17.125910377248466],[79.641096625782438,17.125863826809699],[79.643056221522997,17.12461127704573],[79.643374320355008,17.12440795132029],[79.644888180136419,17.123410203684401],[79.646279525882775,17.122466216831018],[79.647359264921661,17.121805842132183],[79.648340324026591,17.121126980596472],[79.649349298278992,17.120516052975226],[79.650254792898878,17.119909229608645],[79.651230953490568,17.119271032425193],[79.651926385166064,17.119007657993428],[79.654820098546423,17.125570559807755],[79.656244693636381,17.12893135166663],[79.65932908072395,17.136775213580492],[79.661416472593473,17.14044565723087],[79.661504327828268,17.140600133561907],[79.661729473486233,17.14184449707863],[79.658058089462742,17.142558013246976],[79.657583946079384,17.142357182802808],[79.656783829232239,17.142498711904071],[79.654708460414469,17.142811526424772],[79.651919254339333,17.14400674287365],[79.651509204853184,17.144182454765669],[79.651008350064828,17.144723066278271],[79.651008880070847,17.145690716706454],[79.650863310774028,17.148909604257273],[79.651416620886735,17.149353902588661],[79.651927247548741,17.149763925855325],[79.653086111994497,17.150419664717347],[79.65297030028978,17.151101984049767],[79.65216889705512,17.151532879765703],[79.651206753775142,17.151586487261856],[79.6506540958393,17.151617279397897],[79.649885862896525,17.151989516802928],[79.648997858475227,17.152867704646372],[79.648433349065854,17.153982311857519],[79.647876768187189,17.154350864762897],[79.647336858243534,17.15412714105144],[79.646744509145194,17.154065986783802],[79.646303877413487,17.154810303390629],[79.645653831321084,17.155038303433464],[79.645151312852818,17.154868984506315],[79.644970361611882,17.154298522418649],[79.645174954714449,17.153756738804617],[79.645294518682164,17.153300524992886],[79.645033240986805,17.152815652867815],[79.644465630593089,17.152474246022788],[79.643815846808735,17.152643458980918],[79.643456675205314,17.153039926651104],[79.642899947002931,17.153440119601086],[79.642452770146065,17.15352422995846],[79.642011104453474,17.153422974782885],[79.641533154009934,17.153014095206021],[79.640790781767549,17.152843797619347],[79.640023158780849,17.153071307379932],[79.639075822431693,17.153524173306941],[79.638246417811317,17.153896121914503],[79.637473192032189,17.154327075521177],[79.636231110353478,17.155493164510517],[79.634784506539077,17.157173891781738],[79.635168881276073,17.158541007790852],[79.634544901598289,17.159252902784896],[79.633888873624372,17.159765709529157],[79.632945536574866,17.160367779787496],[79.632022801488048,17.160562976453399],[79.630837896678827,17.160481275168735],[79.629062029770068,17.160021851438604],[79.628321284376682,17.159480739437331],[79.627520661778021,17.158654509439415],[79.627081697319497,17.157942802700319],[79.626811554150621,17.157344830866229],[79.626276646026497,17.1570577695739],[79.62553833147426,17.157032130956203],[79.624972673119629,17.157314674851062],[79.624232750583033,17.157650762260204],[79.623561952509235,17.157250093427312],[79.623218714324011,17.157226071088932],[79.622789989761401,17.157387088591143],[79.62235246440396,17.157412416441318],[79.621962777928672,17.157257071724185],[79.621633406138173,17.157287365941276],[79.620918388494502,17.157311545347717],[79.620480942188792,17.157318795735666],[79.620306840601899,17.157336150487005],[79.619572422043049,17.157491376687318],[79.618531580055944,17.157803590863388],[79.6181275618586,17.157697918445013],[79.617881570794452,17.15696438301627],[79.617564606534671,17.15632551054658],[79.617079887285442,17.156386804838],[79.616059178340535,17.156405179388003],[79.615563294828945,17.155810776751398],[79.614960195591578,17.155003406379254],[79.61397180803057,17.15515755730291],[79.612069623619817,17.155610850746633],[79.610554099260156,17.155844177557398],[79.609514029824226,17.15598452731286],[79.608930334196998,17.156090605845414],[79.608060153249284,17.156105050924058],[79.607750168000905,17.156008797015254],[79.60802934013671,17.155639184768901],[79.608802799477772,17.155172164682082],[79.609868693681548,17.154520974704631],[79.609644431965819,17.15418995106236],[79.609599301504232,17.153769243323751],[79.609358868316775,17.152854849855828],[79.60859670888361,17.152905923093886],[79.608292274325407,17.152624302950475],[79.607645756815444,17.152065422724938],[79.607027609000426,17.151475007892731],[79.606788384047036,17.151333831554119],[79.606850879841332,17.151035660552772],[79.606589126038912,17.150677346564315],[79.606173913934811,17.149934041717042],[79.605716769371568,17.149104649023464],[79.605464446082976,17.148741850572875],[79.605462148192458,17.148212797699479],[79.605336788294579,17.147855055096436],[79.604897806768051,17.147170431083865],[79.604183406266998,17.146032472514079],[79.603445541770711,17.144885370201557],[79.602846590055037,17.144218153881965],[79.602294671432674,17.143551133456427],[79.60189091823834,17.14339569301745],[79.600939706557028,17.14365846034206],[79.599918215179457,17.143862146137867],[79.598864090702577,17.144002383916639],[79.598561111415137,17.143408752762795],[79.598076915883738,17.143361486506496],[79.597620212393281,17.143472595624541],[79.597093316343162,17.143506536010229],[79.596143092808674,17.143552245087605],[79.595864259337731,17.142823060824082],[79.595411587486268,17.142056967249886],[79.594988720837662,17.14196925667818],[79.594489484813437,17.142125395338986],[79.594199921864757,17.1416855554696],[79.5936305579596,17.141750959514379],[79.593571003249522,17.141407054089917],[79.593586527035924,17.141099640918888],[79.593808499844343,17.140897108378482],[79.594440286780269,17.140551621887273],[79.594182898790123,17.140274700012814],[79.594550947545187,17.140009482266489],[79.595088280222271,17.139749506512647],[79.595076623683141,17.139215891261841],[79.594895146029444,17.138794597632042],[79.594635531115713,17.137979581080689],[79.594361872839144,17.13715093763857],[79.59424673487085,17.136621403648189],[79.595169643332483,17.136372108960568],[79.596281097392506,17.136028654560466],[79.596073376356088,17.135177683808546],[79.595830908484501,17.134724480416786],[79.595397397698051,17.133886115998251],[79.595086472811914,17.132980442653793],[79.594933917317107,17.132255336624322]]]},"properties":{"pin_code":"508213","fname":"Suryapet H.O","state":"Telangana","circle":"Telangana","region":"Hyderabad","division":"Suryapet"}},{"type":"Feature","geometry":{"type":"Polygon","coordinates":[[[78.321512097922962,16.672478399319385],[78.321344766040042,16.673607377983398],[78.321043116259204,16.674160450575968],[78.319554180235372,16.676420057704188],[78.319127173251559,16.677274965823294],[78.319630954751105,16.678388167729342],[78.319839052181621,16.679095768335145],[78.319772703513067,16.680004198960763],[78.319091996123362,16.681720226626467],[78.318398044871415,16.682956818663936],[78.318302561143241,16.683152574467346],[78.317985160302229,16.683802846460736],[78.317044794879649,16.684819816516541],[78.314343252698166,16.686402026985824],[78.311285423403646,16.687953471635868],[78.307895465389009,16.68898130893534],[78.30333700580222,16.689732373262661],[78.303246125939907,16.68974731967517],[78.302513110549512,16.689843687437744],[78.298293148738239,16.69039252429808],[78.298511562421453,16.688481731280973],[78.298516358526754,16.688454905862987],[78.29882164917943,16.686757346172875],[78.298944836052669,16.685397346294696],[78.298940941855918,16.683263876124848],[78.298940865499105,16.683221940418083],[78.299155706582454,16.681216135545537],[78.299806701295836,16.679635447440265],[78.300027746144508,16.679279675291049],[78.30055213858995,16.67843566347933],[78.300972790891407,16.677734520406126],[78.300749467915153,16.676303041564395],[78.300577905865552,16.675715906552949],[78.300297470698467,16.674756175111565],[78.299345313091152,16.673466356913803],[78.298579714907106,16.67227809232077],[78.297669753863659,16.670568183708799],[78.295778996921641,16.670978165660799],[78.294537536877101,16.671227557565508],[78.293810799812221,16.669917575846203],[78.293012131947634,16.669592637685344],[78.290452113949272,16.669434910967201],[78.28971373651494,16.669173930074457],[78.288596657204636,16.667945761694206],[78.287255076328421,16.666665403514429],[78.286694948900987,16.665987246416723],[78.285634907221322,16.664703825219647],[78.283871934730172,16.662930639213481],[78.28387789774699,16.661985522860817],[78.283959966034729,16.6609674451614],[78.284004654525162,16.660413076235361],[78.284014105700265,16.660295518452958],[78.283887541161576,16.659036991856613],[78.283487920217553,16.656855137102962],[78.283480819035233,16.656816562356823],[78.281820688372719,16.655501264892933],[78.279728551601892,16.653806019654969],[78.277345472968378,16.652112259511838],[78.275521846229239,16.650745422538076],[78.274701149877259,16.649882094075565],[78.273471518848353,16.648675201335152],[78.271975247181899,16.647406729158615],[78.270433392302948,16.646011171644027],[78.269307011836162,16.645221458463539],[78.26863793673111,16.645065153298955],[78.267412371477164,16.645160801664105],[78.266949558544496,16.645020281209987],[78.266420511029267,16.644503673917733],[78.265441533320839,16.644375769643272],[78.264323072401609,16.644535837385227],[78.263330609184166,16.645181215972194],[78.262797430316951,16.645456014087952],[78.262507696688331,16.643535711967015],[78.263199244946875,16.642827928277928],[78.262687788241578,16.640441627299484],[78.262862948043846,16.63930198182571],[78.262975658764233,16.638413161998557],[78.263063865240298,16.637717565077725],[78.262907490108887,16.635819288604132],[78.262450846805592,16.635426836497015],[78.2622058358034,16.635316224006132],[78.260954078370759,16.634751094161331],[78.260571279278722,16.633295206575063],[78.259244556537311,16.629533782684288],[78.259070651681469,16.629136226407901],[78.258192504473783,16.627128700739782],[78.257782084881725,16.62619042729931],[78.256681981035342,16.62393987773401],[78.253980684992243,16.620040722044426],[78.255529039182235,16.619586746415855],[78.257260568841829,16.619125613965711],[78.258003366885646,16.619400319435563],[78.258447289146261,16.620363785947486],[78.258694881008225,16.621279936553819],[78.259532310279013,16.621067209183533],[78.261354272439974,16.621312505039761],[78.263148276334292,16.621534957222899],[78.263882125361249,16.621616188087099],[78.265270583922273,16.62176987752148],[78.268228379521702,16.621959265856923],[78.271869139078845,16.621898040472768],[78.275490472567938,16.621895279097995],[78.27902696826331,16.621927813909206],[78.279740422838358,16.62188099363107],[78.280055313786477,16.622675763570534],[78.280824803472356,16.622652086253716],[78.282966869504989,16.622385080770783],[78.285214727433697,16.622299932841081],[78.286160260864079,16.622061077719184],[78.28629738959053,16.622063696202616],[78.28668089026678,16.622071020553346],[78.287860111435194,16.622332038056626],[78.288989619835775,16.622407154495988],[78.28986168814393,16.622452373603917],[78.291853564844246,16.623020346659182],[78.292925307978805,16.623248619122069],[78.294218451694903,16.62337963712412],[78.294662485346578,16.623524416173161],[78.294792586552532,16.623629788210209],[78.295351409626178,16.623581362150269],[78.295334142209782,16.622183703101602],[78.295599091319673,16.619468316579415],[78.295570470096422,16.616148438135955],[78.295412646880791,16.613053248048693],[78.295351547966732,16.610131071220781],[78.295233497660305,16.607683072548244],[78.294926221730847,16.605377865781385],[78.29492886008282,16.603044198801879],[78.29611868226992,16.602341914761539],[78.299755632071893,16.601321363095575],[78.302898587519394,16.600656442393447],[78.301780117617014,16.597882485944261],[78.300799327108351,16.595077498003615],[78.298993707997383,16.592045238585268],[78.294106109283788,16.584822371081849],[78.291311439655104,16.579538250112961],[78.291574675677765,16.579197536594197],[78.292988870971655,16.577564168273234],[78.293185308269784,16.577337285401672],[78.294661766694375,16.576149710836592],[78.295588660082615,16.575042192191148],[78.296467772979213,16.573586020008012],[78.296862224118797,16.571441816930264],[78.297242955289008,16.568840685021119],[78.297586869007333,16.567853803164528],[78.297998625292536,16.567102820345141],[78.299373621700724,16.566171821449412],[78.301276063029633,16.565467878775046],[78.302327552747798,16.5649450776667],[78.302378380324882,16.56417673104637],[78.302096870772729,16.562925631188687],[78.301680940914707,16.56153284212769],[78.301781071627872,16.56011826693754],[78.302042749971804,16.55683298289981],[78.302159054851629,16.55354621604306],[78.302126884384677,16.551379491905486],[78.301717812265537,16.550222005113838],[78.3000902392439,16.547310613561528],[78.298974704137564,16.545584956564142],[78.297878074076351,16.543850376629742],[78.296631612212295,16.541680147224202],[78.294646366875412,16.541840441706807],[78.294398236922589,16.541390117062136],[78.293856281515062,16.539955313053603],[78.292813621337842,16.538429290438113],[78.291492822985703,16.537886448435845],[78.288940981453024,16.537140708707508],[78.287476547876864,16.536854001820185],[78.285255581914498,16.536722382365905],[78.284393044731502,16.53670887509087],[78.282750091653895,16.536872658810299],[78.282663371889626,16.53541090809572],[78.282711911457682,16.531508267992351],[78.282563875387069,16.530077622391946],[78.282263360178433,16.529278426735235],[78.280902934444171,16.5272561376852],[78.277779394284906,16.523587212801093],[78.276992119753061,16.522568334048664],[78.27665561893248,16.522132837777324],[78.276504014753556,16.52193663280989],[78.275912991568575,16.520297688599229],[78.275128984209417,16.516223567071926],[78.275083924714735,16.514816384283293],[78.275051122732165,16.51356336065243],[78.275010773104526,16.511740281741243],[78.273320771662199,16.511102914098078],[78.270894681692909,16.511303633658503],[78.268399043255997,16.511444718585011],[78.267210329589986,16.510839726987321],[78.265663878930056,16.511601288195873],[78.262914548172091,16.512947806245805],[78.262038642261075,16.513376789681303],[78.259733909296756,16.51403997298242],[78.259354068356956,16.51404047509693],[78.258050174501832,16.513678436417958],[78.257358766380477,16.51387465321698],[78.254484993802834,16.51757551837018],[78.254556826686226,16.518268282088979],[78.253868203342236,16.51863635117904],[78.253592450194432,16.518963562444696],[78.248732787289526,16.520006593691804],[78.248720571099994,16.512444417017381],[78.251394588901164,16.511468763559648],[78.252980346244669,16.510544856642053],[78.254903014040536,16.508851083003865],[78.256750741680435,16.505968151800509],[78.257174791410321,16.505306519567338],[78.257418004883576,16.50288051333396],[78.257270547328034,16.501006562444402],[78.257676690041009,16.49991180357253],[78.257826816491288,16.499492708414962],[78.258068301605974,16.498871161745054],[78.25807870409696,16.498776416563796],[78.258028050793015,16.498685329397333],[78.25765323682559,16.498681316468833],[78.257390355637455,16.498710260542698],[78.257263207193844,16.498763126274277],[78.256956043553785,16.498972508090148],[78.25675680800353,16.499187472794855],[78.256614964020187,16.499285494257421],[78.256483272796146,16.49931572936773],[78.256361575329677,16.499305411549656],[78.255679589637339,16.499090163599597],[78.255389329595999,16.49905991725679],[78.254501956690362,16.499177182532357],[78.25433310126472,16.499179918103991],[78.254160361523788,16.499123838016512],[78.253680434786602,16.498865479567808],[78.253428542689363,16.498754253735072],[78.253032355106356,16.498555571971632],[78.252142969974471,16.498026071917796],[78.251299760044816,16.497560274634942],[78.250718713549389,16.49712905453552],[78.249979151237227,16.496619158925885],[78.249443524460858,16.496310401063919],[78.248735535235966,16.495909457749704],[78.247195364698186,16.495314181736855],[78.246911200624382,16.495157317279517],[78.246341367798635,16.494974996512607],[78.245333739222517,16.494127533016819],[78.244642544001877,16.493491519079875],[78.244159949268322,16.493061276161846],[78.243718783937339,16.492694775147797],[78.242798088924559,16.492042742137372],[78.242333382343233,16.491680523596379],[78.241879399849807,16.491214334622679],[78.241734270727434,16.491042820237919],[78.241458505901534,16.490716919231303],[78.241055611496577,16.489879596056657],[78.24091820069917,16.489594017212045],[78.23994615079819,16.487277044594951],[78.239689707835723,16.487161264017271],[78.239435260031499,16.487102278457989],[78.239035118962931,16.48700951816426],[78.238389453055831,16.486907779655223],[78.237429306730704,16.486834140205254],[78.236745257608135,16.486799746119203],[78.236412095825486,16.48683685183272],[78.235790658379912,16.487065420872792],[78.235577550146743,16.48725313271088],[78.235117600144861,16.487709486546311],[78.2342570347639,16.488356127308755],[78.234234734985321,16.488249657114761],[78.234169732891345,16.487798839759716],[78.234322379115994,16.487153790687948],[78.234518249577192,16.486834721637443],[78.234698333045557,16.486257728144079],[78.234696284886709,16.485620041375594],[78.234549148928011,16.484958119040989],[78.234543350302843,16.484646027944116],[78.234584273953928,16.483945435173638],[78.233997073100468,16.484047644698741],[78.233688036473055,16.484021790834795],[78.233632387637826,16.48396692005857],[78.233593198633599,16.483695096722688],[78.233562238197294,16.482731425043248],[78.233663928385795,16.482443027488269],[78.234215782329429,16.482552974902077],[78.234401616812278,16.481890146223417],[78.234706557121982,16.480640454866077],[78.234853331957936,16.480103919758687],[78.23508478738249,16.479129444428075],[78.235333222762492,16.477897354758735],[78.235410388943734,16.477301215343051],[78.235519163246536,16.47680937122762],[78.235847144444961,16.476410380867193],[78.2363386998735,16.476062809246599],[78.236792770401848,16.475705918047193],[78.237156541379505,16.475460989935371],[78.237750860483274,16.475128088540462],[78.237945639491372,16.474913106593725],[78.237813996776396,16.473713178654219],[78.237542541168906,16.472448416111604],[78.237423297001456,16.471804946633618],[78.237226682735198,16.470970633437449],[78.236837645741858,16.46973178199304],[78.236771418345839,16.469382780431292],[78.236693340374629,16.469136669295686],[78.236676418809637,16.469083331147679],[78.236737204211622,16.468690442117651],[78.237441248035793,16.468607547085082],[78.238192074323294,16.468525031921942],[78.238629138844999,16.46842575093363],[78.239231070272453,16.468255709283504],[78.239687317418742,16.46811589712917],[78.240536744588496,16.468025418377511],[78.241276602446362,16.468087610086414],[78.241927208189196,16.468166818275343],[78.242333601532167,16.46829325961874],[78.24325582368094,16.468389075009078],[78.243953193022534,16.468477885799302],[78.245049479927289,16.468516650753589],[78.2462252282088,16.46859246116049],[78.246829684800531,16.46860794335764],[78.248742322906281,16.468999103603966],[78.249329701626166,16.46886969843403],[78.250230761263438,16.468770642463728],[78.250714637892926,16.468676273656335],[78.251799304191152,16.46850684214148],[78.252109315490657,16.468446852465998],[78.252499669414206,16.468333354709316],[78.25329409812899,16.468129274807328],[78.253694484437645,16.467957129199633],[78.254037958879806,16.467843158211643],[78.254447429850941,16.467693692170343],[78.25501280523622,16.467432854691367],[78.255304758601881,16.467318448353836],[78.255601548497026,16.467181250941582],[78.256134155137417,16.466920018219952],[78.256549420242123,16.466680230597717],[78.256918138242057,16.466399216945664],[78.257135319436728,16.466265818837957],[78.257635869696188,16.465940864250605],[78.257910210692373,16.465722239272353],[78.25808534713849,16.465565766937672],[78.258467628800901,16.465334627727277],[78.258887893928488,16.465058612142091],[78.25957767789582,16.464577527852004],[78.259866335342664,16.464349842002211],[78.260575368409917,16.46381460569992],[78.26092019751151,16.463578536710784],[78.261278808566189,16.463360729202588],[78.261556796722417,16.463648627071471],[78.261811994619919,16.463881967658338],[78.262303491657946,16.464352992438236],[78.262813280191793,16.464860334297668],[78.263458598450882,16.465405385097228],[78.263996038027486,16.46595828928309],[78.264175954409225,16.466213488684474],[78.264882400328418,16.467157176343562],[78.265274331693632,16.467735675718327],[78.26621585414631,16.469446092461997],[78.266330920249345,16.469632798825735],[78.266435933306084,16.469671448113733],[78.266722998938263,16.469777098937694],[78.267363267767124,16.469955780519257],[78.26805908481991,16.470175604175164],[78.268690022847906,16.470335981207082],[78.269227070759058,16.470513522570233],[78.269563439527275,16.470607528672652],[78.269792058970452,16.470691300670239],[78.270215736797809,16.470958064858522],[78.270755472468281,16.471311927330497],[78.271075181081258,16.471636406007576],[78.271528581466413,16.472165903292112],[78.271836114314041,16.472748053158778],[78.271904448259392,16.472916108687006],[78.272105516372818,16.473379560983101],[78.272307083949528,16.474213888788817],[78.272385830267311,16.474703128484347],[78.272395817736665,16.475065068669277],[78.272373691332888,16.475367865709703],[78.272338162963408,16.475607167072312],[78.272205921072128,16.476107805981965],[78.272065278136282,16.476531483737968],[78.27190270283279,16.476810228346118],[78.271768407392784,16.47708464475707],[78.271619347242734,16.4774177443627],[78.271532314864757,16.477647482271745],[78.271420083844703,16.478451418950854],[78.27140773200955,16.478722618228144],[78.271428112088415,16.478989727984327],[78.271512858253985,16.479379516574145],[78.271584645323301,16.479656191415607],[78.27172221871578,16.479928983479123],[78.271929645104805,16.480243179712573],[78.272228666415103,16.480743898810687],[78.272339417011523,16.480898931536508],[78.272644847801416,16.481245726966385],[78.273361575837356,16.482121618859477],[78.273713719920309,16.482482673445123],[78.274653334351285,16.483546268284272],[78.274768686118605,16.483294194464179],[78.275007382862654,16.482921385026184],[78.275197363070518,16.482692674992759],[78.275397465495004,16.482405318813598],[78.275636027491743,16.482027937924563],[78.276236741702007,16.481147777339444],[78.276418162761857,16.480846674247648],[78.276799315241945,16.480294310439817],[78.277088530542628,16.480007913759792],[78.27745407479469,16.479595653887674],[78.278120038135626,16.478729695630978],[78.278599350425111,16.478196490646535],[78.278955945660314,16.477757072333834],[78.281898754665875,16.4736676291799],[78.283206707109414,16.473645080135938],[78.283431611120591,16.47365649679578],[78.284027534615475,16.473599341128814],[78.284468271450038,16.473590444177404],[78.285101470537612,16.473551818068472],[78.286268593195771,16.473550435457117],[78.286830968208051,16.47356982733444],[78.287440108615698,16.47357623989387],[78.287917818310731,16.473617391739488],[78.288236669032628,16.473607236225284],[78.289618394720605,16.473698363619111],[78.290002004092983,16.473765733341136],[78.290732140382886,16.473859272688898],[78.291630343377591,16.474017835929345],[78.292107656915618,16.474090682561329],[78.292397625004469,16.47414799400353],[78.292636112441059,16.474209272347025],[78.29308024400909,16.474299823156475],[78.293257797821624,16.474355911296943],[78.293917611296138,16.474453274274641],[78.294624552187074,16.474523858612546],[78.295046312111296,16.474532804622957],[78.295389238581095,16.474468536337358],[78.29564783929689,16.474398806524118],[78.295868180764714,16.47439662450585],[78.296210651788698,16.474368540817473],[78.29686780894491,16.474284903932354],[78.2973557297898,16.474244621418485],[78.297984814593349,16.474156174213409],[78.298589996125557,16.474108298100202],[78.299327588432277,16.473962161181387],[78.300153468063485,16.473875721860903],[78.300810733915824,16.473783019839846],[78.300899849486953,16.473783966561371],[78.300419415201659,16.473566439290806],[78.300059531234211,16.473472229600993],[78.299840283914378,16.473379566151742],[78.299500133238809,16.473199584365929],[78.299313201014712,16.473143395102042],[78.299051924217693,16.473041193605816],[78.298796061566875,16.472862102237912],[78.298353928750359,16.472581679885746],[78.298195862091276,16.472466969913302],[78.298006083106046,16.472252455363339],[78.296559899703169,16.470790057596385],[78.295521091501868,16.469797858324579],[78.295335790618324,16.469596919116501],[78.29486741980898,16.469144368161157],[78.294325485960982,16.4685688562347],[78.293893811331003,16.468188928610154],[78.293253963812006,16.467567215115686],[78.29297026057391,16.46725028039392],[78.294148497188786,16.465980542874476],[78.294769901396663,16.464558499481001],[78.295031984880808,16.461693051702724],[78.295459935993961,16.4601351287405],[78.295489828333345,16.459747557716],[78.295551755494088,16.458944629808403],[78.295849048445803,16.456863303496231],[78.295873329907948,16.456401431365133],[78.295953810872533,16.454870528923269],[78.29617138373267,16.452953021419702],[78.296388643979085,16.450955341560508],[78.296367283838265,16.449593379957612],[78.29663357053964,16.447802010507896],[78.297123595238915,16.445680230549808],[78.297519241137806,16.444091653541662],[78.297425945705655,16.443329745021959],[78.297006851981223,16.443328019288522],[78.296584903410789,16.443341739859676],[78.296176440349427,16.44340533350978],[78.295716940403494,16.443423183599421],[78.295449423010197,16.443461092848906],[78.29485823902678,16.443513593700967],[78.294202399699088,16.443488845861147],[78.293016977460269,16.443467409907662],[78.29239424194914,16.443415716337974],[78.291663586432989,16.443376465608662],[78.291162141451508,16.443371239299825],[78.290764431224076,16.443317328011986],[78.289602113654382,16.443318798719513],[78.289353587544525,16.443329778623351],[78.28888516822613,16.443311314222552],[78.288826828936635,16.443071016656642],[78.288736637183789,16.442758150770313],[78.28871159125535,16.442490918729384],[78.288635719546463,16.442146418154085],[78.288534970792398,16.441521164521802],[78.287918795677768,16.439203715523661],[78.287878884428011,16.439004211055821],[78.287821857577129,16.438659933478458],[78.288212634607191,16.438089610121398],[78.288583033355039,16.437641137711712],[78.28911137838773,16.436913964387131],[78.289439258076513,16.436510321140439],[78.289595308017809,16.436389875671399],[78.290146114525825,16.436164939732532],[78.290433729926974,16.436018709606188],[78.290894758805521,16.43584709382813],[78.291238574607476,16.435696860430763],[78.291460482737165,16.435549860535332],[78.291583847476801,16.435415506371182],[78.291845517735908,16.435065456531195],[78.292046555306598,16.43468764834773],[78.292350864998994,16.434297339989325],[78.292499656552749,16.433977772966802],[78.292868607216377,16.433257958801146],[78.292998517081202,16.43295635485439],[78.293109871345493,16.43263187351992],[78.293296718229627,16.432267515715228],[78.293696009491953,16.431339885407645],[78.293763659819376,16.431155257492982],[78.293818396864566,16.430875348701353],[78.293839467747901,16.430667514913342],[78.293814790128735,16.430355151194128],[78.293784698363325,16.430119670496609],[78.293614260106153,16.429855591017525],[78.293300636680911,16.429404512965743],[78.292566733755024,16.428392819411926],[78.292395411555617,16.42821472080049],[78.291640845581597,16.42737915259341],[78.291135732778798,16.426871734296888],[78.290728850752316,16.426383648368432],[78.289695974126843,16.42529652883773],[78.289570668127837,16.425186681664652],[78.289265284948698,16.424835211480747],[78.290206717569845,16.424044447988273],[78.290570669108874,16.42375884457563],[78.291583127926245,16.422905486234608],[78.291853160602344,16.422641443482455],[78.292103921720653,16.422426887640672],[78.292316149604858,16.422302531810463],[78.292808687790284,16.421841876865134],[78.293002983504792,16.421644843935205],[78.293390438564913,16.421363988255198],[78.293737258333167,16.420933428488265],[78.294903528490138,16.419317262304663],[78.29538196222731,16.418847298418918],[78.29564822826741,16.418497401411173],[78.296105855225974,16.418221744904518],[78.29676562737798,16.417884843599484],[78.29710567654395,16.417653228837654],[78.29785899475803,16.417330847742093],[78.298145881625501,16.417238881307622],[78.299666437449034,16.41660788102865],[78.299841509216449,16.416537761621928],[78.30038189796214,16.416321325721551],[78.300815315323803,16.416117746070459],[78.301219656914625,16.415990863160335],[78.301615191422442,16.415818459339715],[78.302015927175731,16.415601064431378],[78.302204285026193,16.415521560774316],[78.303661435062025,16.41469541930919],[78.305207437462641,16.413879251154896],[78.305414646459326,16.413790915176236],[78.305952130053385,16.4134934947683],[78.30614037022454,16.413423032141026],[78.306729928257312,16.413071842289899],[78.307431319356425,16.413205712970615],[78.307566859861439,16.413238810307487],[78.308301173317389,16.413359442465381],[78.309258333642518,16.412826633497744],[78.30971555905414,16.412587121165796],[78.310026840571453,16.412404856349017],[78.31094605336402,16.411907786067989],[78.311134809168166,16.411787610580092],[78.311403327284694,16.411663789964539],[78.311879363418342,16.411410780868909],[78.311983251784326,16.41133960915651],[78.312449893336776,16.411095628713056],[78.313340918792335,16.410602695648667],[78.31365166760871,16.410470312228792],[78.31497160627309,16.409751224482459],[78.315438125654666,16.409516371154044],[78.315555780702368,16.409472312910712],[78.315881170261193,16.409281153894081],[78.316253564167297,16.409086060047965],[78.316531180421023,16.408975859026768],[78.317512050879756,16.408411474639873],[78.317898913051806,16.408171310574414],[78.318275811110695,16.407994264572281],[78.318680616232243,16.407826493228079],[78.319156567025999,16.407578122158821],[78.319518910580655,16.407437183114624],[78.320291753677495,16.407042546698655],[78.320890488899181,16.406709505569598],[78.32125344240994,16.406518767813477],[78.322143070985277,16.406156990236529],[78.322934026813144,16.405812351147972],[78.323206825402011,16.405715698290219],[78.323349432953364,16.405536223388655],[78.323483314270035,16.405288846432789],[78.323505861085351,16.405254268992241],[78.324121997572419,16.404309383438907],[78.324267867804906,16.404256687582723],[78.324826263280443,16.40417646834759],[78.325243100436893,16.404198702304264],[78.326347431755025,16.404327689536501],[78.327288319997081,16.404414222728693],[78.327723397445368,16.404477505960987],[78.328271093087579,16.404528369684638],[78.328842004790005,16.404593022194359],[78.329824853338991,16.404693451779018],[78.330958361039208,16.404736751044918],[78.331478517029765,16.404733010207973],[78.332227812588016,16.404772272188499],[78.333130614058675,16.404908226246405],[78.334272151799226,16.405069102708065],[78.335208540380023,16.405137441577569],[78.335507970423805,16.405176675038959],[78.335746996849551,16.405170078392448],[78.336061931815095,16.405087407010722],[78.336900060873518,16.405991457831952],[78.337886239477243,16.40709146223077],[78.338539224857271,16.407785604052133],[78.339171627139194,16.408562789051352],[78.340231466697929,16.409865261454033],[78.341059990969285,16.410800897054575],[78.341314896016002,16.41106120827531],[78.342083147823402,16.411932920530834],[78.342938970997949,16.412945709664662],[78.343618357864187,16.413816408726831],[78.34401997845805,16.414367782093752],[78.345334461653721,16.416289695512887],[78.345852398805505,16.41692371274446],[78.34732842693704,16.418652898344892],[78.347893876882523,16.41921946064252],[78.3484914398028,16.419863146693686],[78.349500732058814,16.420986025904373],[78.350083474573509,16.421697435988822],[78.350356557029983,16.42200774561805],[78.350882980566254,16.422718608252399],[78.35097055283174,16.422859776627465],[78.351311593737776,16.423812992216913],[78.35136364302366,16.424197931095936],[78.351356328042286,16.424871790514228],[78.351299530261812,16.425784788103556],[78.351153850472187,16.427117508710442],[78.350994319559206,16.428006870380301],[78.350821601377859,16.429226249847289],[78.350707615948082,16.429795009512631],[78.35059463034321,16.430702903799087],[78.350555570696315,16.431276897839062],[78.350497022099361,16.431927617037463],[78.35046751513724,16.432479057076492],[78.350374215213535,16.433730963812973],[78.350243537289131,16.434114030571877],[78.349988604394653,16.434717573877567],[78.349829244161555,16.435154599648467],[78.349624809162478,16.435849092757639],[78.349079421292231,16.437313394427449],[78.34900031205504,16.437683521514273],[78.348731581936107,16.438689369871923],[78.34849302982083,16.43951004938291],[78.34837546011309,16.439974692091887],[78.348195825802364,16.440551858665057],[78.348026817663111,16.441002394740359],[78.347959961446392,16.441119434952689],[78.347998440781595,16.441888603210547],[78.348190509572504,16.443188541550175],[78.348316708496881,16.4436510999269],[78.348409039138403,16.444015575087015],[78.348878421450792,16.445868443404429],[78.349189760460249,16.446970699098028],[78.349488989281397,16.447900830783897],[78.349811223956976,16.448862935296681],[78.349978607043852,16.449420914631553],[78.350205161260192,16.450128798520954],[78.35041763438447,16.450850048359669],[78.350724029066612,16.451549788087519],[78.351594253133499,16.453408287798631],[78.351949138874687,16.453968204559928],[78.352743502910755,16.455477754448292],[78.353089091987087,16.456024039468428],[78.353649652402467,16.457056373915787],[78.354354484947436,16.458273671308898],[78.354648010364841,16.45878060952149],[78.355767339056641,16.460582881508941],[78.356215079157181,16.461220606747734],[78.356574372033137,16.461803143560541],[78.357193516079789,16.462623472903555],[78.357851399074761,16.463326618685201],[78.358681217818472,16.464176273316227],[78.359585396406445,16.465080861529369],[78.360369369629623,16.465830561958192],[78.36118075674031,16.466648286401998],[78.361738895297705,16.46748153792549],[78.362327135501943,16.468568459962054],[78.362459382783143,16.468904431673646],[78.362489671279562,16.469126393803748],[78.362306140975448,16.469635575303336],[78.361928229616879,16.470776007307535],[78.360192167956683,16.470943970647816],[78.359028947580086,16.471009138596273],[78.357607003418565,16.471102242519102],[78.357532691184971,16.471107107994239],[78.354899376049318,16.471455834232671],[78.353895629093557,16.471522573292216],[78.352938828992876,16.47157621830614],[78.353676444655818,16.476467092931323],[78.354065916433768,16.48052176048003],[78.35422787459467,16.482669641170066],[78.355096987445506,16.488513128207664],[78.355297851641367,16.492626224202333],[78.355336334569827,16.495343820557039],[78.355580580207373,16.495487457226652],[78.355851194991757,16.495607853923133],[78.35614542468835,16.495710329473788],[78.356346429021372,16.495766606075271],[78.356715912385937,16.495842690918838],[78.357039397516388,16.495836915627816],[78.357161632175405,16.495810963423004],[78.357316979634135,16.495749281056167],[78.357669157853067,16.495689538411007],[78.358208773149286,16.495640675356412],[78.358758146844437,16.495560296642655],[78.359199236716933,16.49551955343011],[78.359550565129624,16.495545707228072],[78.360374094768005,16.495685100778996],[78.360603627797829,16.49570102095575],[78.36079492852916,16.495784325587124],[78.36125618288483,16.496051349785901],[78.361363430051668,16.496097611490637],[78.362330711695094,16.496383284959698],[78.36267674903074,16.49646366247023],[78.362924876288602,16.496493221871212],[78.363571711802223,16.496508786248917],[78.365323776949225,16.496612393981241],[78.365586521593414,16.496592393723308],[78.366065395505046,16.496529294704835],[78.366262333164798,16.496522357489464],[78.366694426409722,16.496449777698462],[78.366919499304146,16.496442970542311],[78.367139765313524,16.496449728602176],[78.367252308048947,16.496441846495866],[78.367520004206952,16.496403801180964],[78.367646034248068,16.496371096157855],[78.367755010671829,16.496342815826175],[78.368130511850481,16.496296834976558],[78.368506177420841,16.496237327646071],[78.368947212496067,16.4962010325325],[78.369097588678031,16.496166428221521],[78.369421060333721,16.496169672026021],[78.370705829056433,16.496137303747101],[78.372246436175459,16.496297511988942],[78.372466703981445,16.496304261440496],[78.372865045724495,16.496312719788087],[78.373413643275256,16.496304662824436],[78.373713841378574,16.496289543742552],[78.373972063005297,16.496251472557503],[78.374179363630162,16.496154157578751],[78.37437668217558,16.496115316329341],[78.374611128990026,16.496108603047464],[78.375169818214673,16.49603283614298],[78.375446025011684,16.496067257012431],[78.376217827859421,16.496224172412397],[78.376844438702705,16.496370697358078],[78.37749046663086,16.496454006869122],[78.377574822029302,16.496450374605857],[78.378797916916184,16.496489725700091],[78.379435766581963,16.496464448010645],[78.380064521703858,16.496407444642507],[78.380482763825412,16.496312094456101],[78.380873303700241,16.496180336269781],[78.381415199818946,16.496353045945707],[78.381649343901145,16.497255431318305],[78.381847697305773,16.497551466640576],[78.382351240751731,16.498687064973812],[78.3827824590376,16.499564216438117],[78.383746645086546,16.501016666564876],[78.384024168813809,16.502240523071155],[78.384030209085765,16.503868736095075],[78.384013284825812,16.504504932961737],[78.383990994928666,16.505342814694892],[78.384224916228646,16.506258738157204],[78.384944288904805,16.507812595129021],[78.386125708250731,16.511315967074164],[78.386757412541655,16.514058420306846],[78.387204536397917,16.515645843917063],[78.38863147519244,16.515488204461118],[78.391453465283874,16.514647899200739],[78.393280038497167,16.51437661592125],[78.395854552609251,16.513877532411193],[78.398874665238267,16.513351116295809],[78.402086860132897,16.512835696242764],[78.40252133930322,16.515191778891936],[78.403920608190376,16.514983965761765],[78.404838137540111,16.515119660851251],[78.405962103335398,16.515668989221307],[78.405371992838738,16.520923066885846],[78.405112614181917,16.522833522162994],[78.406532238893405,16.522924508383689],[78.407185119170506,16.523251986253236],[78.407644870644731,16.52499782046818],[78.408203235577574,16.528494799045422],[78.408854211426302,16.528121292197778],[78.410878800277658,16.526874946513871],[78.413438647596138,16.525552309530319],[78.414757744539131,16.524516064447539],[78.415782807618243,16.52378893648909],[78.417107868476407,16.523498932838638],[78.418403575984343,16.523353287089414],[78.420065119696758,16.521845423066551],[78.421786152542296,16.52020071040856],[78.421788980438791,16.520198008722438],[78.42320393750407,16.518059083084331],[78.425993104951658,16.518099941259987],[78.430453005876998,16.51885800392753],[78.434140913511825,16.519043263970133],[78.438381051484384,16.518862795857952],[78.442240358573727,16.51788269462098],[78.445854226164499,16.517067417260336],[78.448175780082494,16.516529072926918],[78.449785121795443,16.515956633601252],[78.449881720332897,16.518395368496193],[78.450204146349634,16.520307123395376],[78.450580959966913,16.521038847059316],[78.451212767564115,16.5211534877585],[78.452938349478217,16.521577128013654],[78.453439407285813,16.522046239120961],[78.454656443036114,16.523185674115794],[78.455370512058821,16.523500147155627],[78.457279505699432,16.523871293736303],[78.456868981902815,16.524586464305674],[78.456030604011062,16.526315137279418],[78.455755618922794,16.527058703820554],[78.455211905512257,16.529762459916554],[78.454971475019747,16.530791388633464],[78.454927480028715,16.533228616886003],[78.454669704864656,16.534573893927316],[78.454373597689113,16.535547948610564],[78.453485077634852,16.537135906035651],[78.451217840350523,16.540546744325948],[78.45082866501663,16.541038900793005],[78.450551302986128,16.54138965635337],[78.450039535463716,16.542036840005711],[78.449353137246703,16.543669563144984],[78.449111639555611,16.544244005948414],[78.447691041968667,16.547387142243767],[78.447162437322874,16.548697213300084],[78.447149757602645,16.548728704778153],[78.446066154011376,16.551690522854898],[78.444665087595354,16.556095574117247],[78.443037899052641,16.559688922425359],[78.442304619557561,16.561210450016656],[78.440584499400387,16.563830508977897],[78.440000600753919,16.564322560371348],[78.438138551273425,16.565891704131602],[78.436779834134839,16.566669966362962],[78.435135455430853,16.567404755914126],[78.431881099006688,16.568738908685791],[78.429131525703554,16.569774849868214],[78.42656286591216,16.570998069787084],[78.424373782955882,16.571795254289377],[78.420669137012354,16.571786164690561],[78.418939684257694,16.571628884514201],[78.417993923553553,16.571542874621347],[78.416095808511017,16.571433831982461],[78.413647619087428,16.571011746860702],[78.413171693446515,16.571224137009434],[78.412933047008138,16.572058495152831],[78.412776803030795,16.573092660321546],[78.41292609764109,16.574934832182826],[78.4133130747975,16.576480859946237],[78.41102406953722,16.5769648770769],[78.407399042175669,16.577833682061101],[78.40470682989671,16.578747870073421],[78.403369767546366,16.579236673655178],[78.401275639210539,16.579464705401538],[78.398751234921619,16.580032069392487],[78.396064231074661,16.58043973770647],[78.394051800920678,16.580930825425767],[78.389834532258604,16.581915645407559],[78.388578128739312,16.58231013625889],[78.386872805631484,16.582582656738328],[78.388013587888892,16.585104060484536],[78.389917088331515,16.588230070841586],[78.39223761008526,16.591844062416946],[78.392324287628725,16.591941776803498],[78.393803959327059,16.593609854389459],[78.396248413555668,16.595293950848358],[78.397772214094033,16.595779345425793],[78.399485833143515,16.596054172093929],[78.399171470404781,16.596955553871901],[78.398540300611415,16.598079993591831],[78.397458817044239,16.599661237198816],[78.395645492184741,16.60213516751211],[78.394576526641046,16.603413587520961],[78.393472873550991,16.604424685346125],[78.391218910671611,16.606419472022008],[78.388535408457642,16.608228951099996],[78.387255687368508,16.609011124992382],[78.385768666552835,16.609919997206656],[78.384372488768591,16.611090992017914],[78.382688379376205,16.613724498452893],[78.380920218215962,16.615886811382794],[78.379834320327461,16.617856835292006],[78.378567660742533,16.620924084425507],[78.377648666240589,16.623514626631458],[78.377440536470729,16.624101315660845],[78.376743155451024,16.625154507776834],[78.376720561025039,16.625188539762981],[78.375303887279244,16.626499499574145],[78.374126110601793,16.627401254922155],[78.372987856203622,16.628556678904726],[78.370247772703166,16.631215686878637],[78.369013391383078,16.631973986792875],[78.367357655278923,16.632991125420762],[78.364608452980036,16.634311253686366],[78.363909353483237,16.635195165777969],[78.363776793588315,16.636170716579443],[78.364014413252349,16.637194679889141],[78.364103959116477,16.637580554295752],[78.364837712922011,16.640437146524075],[78.366219112521549,16.64501428145217],[78.363625146290261,16.646715847760447],[78.359129232803483,16.64901334475411],[78.355867886588058,16.650386852072515],[78.351946171739314,16.652504551800689],[78.348316370730331,16.654964282065396],[78.346735749953609,16.656063531357994],[78.343938570432044,16.658008826695159],[78.342928431963031,16.658563864393798],[78.341800170424079,16.658344356303978],[78.340867965297548,16.65805934137839],[78.338204455090221,16.657244991010675],[78.336735604497832,16.656841096075254],[78.333864955362415,16.655911880692713],[78.331531408037037,16.655657435031138],[78.329189015001106,16.656207862299311],[78.328547049254666,16.656983595891511],[78.327856509804164,16.658337874158963],[78.327449948476286,16.65989846145095],[78.326714327971587,16.661514622171111],[78.325425735120689,16.663491356313081],[78.32498902723016,16.664377872180076],[78.323528954974662,16.666337167259467],[78.322988896809008,16.66706187505849],[78.322005256844264,16.668607535245403],[78.321705314760806,16.669852743675712],[78.321512097922962,16.672478399319385]]]},"properties":{"pin_code":"509209","fname":"Nagarkurnool S.O","state":"Telangana","circle":"Telangana","region":"Hyderabad","division":"Wanaparthy"}}]}
